<?xml version="1.0" encoding="UTF-8" standalone="yes"?>
<gpx version="1.1" creator="merge_gpx_days.py" xmlns="http://www.topografix.com/GPX/1/1" xmlns:xsi="http://www.w3.org/2001/XMLSchema-instance" xsi:schemaLocation="http://www.topografix.com/GPX/1/1 https://www.topografix.com/GPX/1/1/gpx.xsd">
    <metadata>
        <name>Samari - Dren. Kik Camp</name>
    </metadata>
    <trk>
        <name>День 1</name>
        <trkseg>
            <trkpt lat="44.1233630" lon="19.8576251"><ele>482.0</ele></trkpt>
            <trkpt lat="44.1232139" lon="19.8578551"><ele>482.0</ele></trkpt>
            <trkpt lat="44.1231196" lon="19.8578390"><ele>481.8</ele></trkpt>
            <trkpt lat="44.1230425" lon="19.8578256"><ele>481.5</ele></trkpt>
            <trkpt lat="44.1228731" lon="19.8576701"><ele>479.0</ele></trkpt>
            <trkpt lat="44.1227556" lon="19.8577183"><ele>480.8</ele></trkpt>
            <trkpt lat="44.1226093" lon="19.8578095"><ele>482.2</ele></trkpt>
            <trkpt lat="44.1224476" lon="19.8578739"><ele>483.2</ele></trkpt>
            <trkpt lat="44.1221472" lon="19.8579544"><ele>485.5</ele></trkpt>
            <trkpt lat="44.1219046" lon="19.8581019"><ele>489.8</ele></trkpt>
            <trkpt lat="44.1217313" lon="19.8581636"><ele>492.8</ele></trkpt>
            <trkpt lat="44.1215137" lon="19.8582226"><ele>496.2</ele></trkpt>
            <trkpt lat="44.1213289" lon="19.8582655"><ele>497.6</ele></trkpt>
            <trkpt lat="44.1211749" lon="19.8581851"><ele>498.8</ele></trkpt>
            <trkpt lat="44.1211094" lon="19.8580858"><ele>498.0</ele></trkpt>
            <trkpt lat="44.1210227" lon="19.8579705"><ele>497.8</ele></trkpt>
            <trkpt lat="44.1209496" lon="19.8579249"><ele>498.2</ele></trkpt>
            <trkpt lat="44.1208090" lon="19.8578551"><ele>499.5</ele></trkpt>
            <trkpt lat="44.1206357" lon="19.8577452"><ele>500.8</ele></trkpt>
            <trkpt lat="44.1204778" lon="19.8578310"><ele>501.2</ele></trkpt>
            <trkpt lat="44.1203661" lon="19.8578310"><ele>501.8</ele></trkpt>
            <trkpt lat="44.1203238" lon="19.8577988"><ele>502.2</ele></trkpt>
            <trkpt lat="44.1203488" lon="19.8576754"><ele>502.5</ele></trkpt>
            <trkpt lat="44.1205240" lon="19.8574850"><ele>503.2</ele></trkpt>
            <trkpt lat="44.1206550" lon="19.8573750"><ele>502.0</ele></trkpt>
            <trkpt lat="44.1207551" lon="19.8573133"><ele>500.0</ele></trkpt>
            <trkpt lat="44.1208687" lon="19.8572060"><ele>495.8</ele></trkpt>
            <trkpt lat="44.1208552" lon="19.8571122"><ele>495.0</ele></trkpt>
            <trkpt lat="44.1207955" lon="19.8570129"><ele>495.5</ele></trkpt>
            <trkpt lat="44.1207378" lon="19.8568654"><ele>493.5</ele></trkpt>
            <trkpt lat="44.1206685" lon="19.8568064"><ele>494.2</ele></trkpt>
            <trkpt lat="44.1205491" lon="19.8567179"><ele>495.1</ele></trkpt>
            <trkpt lat="44.1204701" lon="19.8566186"><ele>495.7</ele></trkpt>
            <trkpt lat="44.1203430" lon="19.8565704"><ele>500.0</ele></trkpt>
            <trkpt lat="44.1203142" lon="19.8566160"><ele>503.2</ele></trkpt>
            <trkpt lat="44.1203353" lon="19.8567018"><ele>505.0</ele></trkpt>
            <trkpt lat="44.1204220" lon="19.8568225"><ele>504.8</ele></trkpt>
            <trkpt lat="44.1204316" lon="19.8568708"><ele>505.8</ele></trkpt>
            <trkpt lat="44.1200638" lon="19.8572999"><ele>519.2</ele></trkpt>
            <trkpt lat="44.1199117" lon="19.8573348"><ele>524.0</ele></trkpt>
            <trkpt lat="44.1198424" lon="19.8573992"><ele>525.0</ele></trkpt>
            <trkpt lat="44.1197346" lon="19.8575816"><ele>524.5</ele></trkpt>
            <trkpt lat="44.1196133" lon="19.8577479"><ele>525.5</ele></trkpt>
            <trkpt lat="44.1195863" lon="19.8579115"><ele>522.8</ele></trkpt>
            <trkpt lat="44.1195632" lon="19.8579329"><ele>523.5</ele></trkpt>
            <trkpt lat="44.1195478" lon="19.8578981"><ele>525.0</ele></trkpt>
            <trkpt lat="44.1195632" lon="19.8577988"><ele>526.5</ele></trkpt>
            <trkpt lat="44.1195940" lon="19.8575762"><ele>530.5</ele></trkpt>
            <trkpt lat="44.1196113" lon="19.8573080"><ele>536.5</ele></trkpt>
            <trkpt lat="44.1196171" lon="19.8571578"><ele>539.5</ele></trkpt>
            <trkpt lat="44.1196306" lon="19.8570988"><ele>540.0</ele></trkpt>
            <trkpt lat="44.1197635" lon="19.8570290"><ele>535.2</ele></trkpt>
            <trkpt lat="44.1198077" lon="19.8569164"><ele>533.8</ele></trkpt>
            <trkpt lat="44.1196325" lon="19.8567420"><ele>539.0</ele></trkpt>
            <trkpt lat="44.1194727" lon="19.8566937"><ele>544.5</ele></trkpt>
            <trkpt lat="44.1193610" lon="19.8567903"><ele>549.2</ele></trkpt>
            <trkpt lat="44.1192821" lon="19.8569164"><ele>552.0</ele></trkpt>
            <trkpt lat="44.1191665" lon="19.8570371"><ele>555.2</ele></trkpt>
            <trkpt lat="44.1188758" lon="19.8572463"><ele>561.8</ele></trkpt>
            <trkpt lat="44.1187506" lon="19.8574904"><ele>563.0</ele></trkpt>
            <trkpt lat="44.1187410" lon="19.8577961"><ele>559.0</ele></trkpt>
            <trkpt lat="44.1187352" lon="19.8580697"><ele>556.0</ele></trkpt>
            <trkpt lat="44.1186852" lon="19.8581797"><ele>557.0</ele></trkpt>
            <trkpt lat="44.1185292" lon="19.8581877"><ele>562.8</ele></trkpt>
            <trkpt lat="44.1184541" lon="19.8580617"><ele>566.2</ele></trkpt>
            <trkpt lat="44.1184291" lon="19.8579222"><ele>568.5</ele></trkpt>
            <trkpt lat="44.1184291" lon="19.8576432"><ele>572.2</ele></trkpt>
            <trkpt lat="44.1183790" lon="19.8572811"><ele>579.2</ele></trkpt>
            <trkpt lat="44.1185504" lon="19.8564765"><ele>581.0</ele></trkpt>
            <trkpt lat="44.1184907" lon="19.8562405"><ele>580.8</ele></trkpt>
            <trkpt lat="44.1184291" lon="19.8561412"><ele>580.5</ele></trkpt>
            <trkpt lat="44.1182750" lon="19.8560929"><ele>583.0</ele></trkpt>
            <trkpt lat="44.1181499" lon="19.8560929"><ele>585.2</ele></trkpt>
            <trkpt lat="44.1178629" lon="19.8561010"><ele>589.2</ele></trkpt>
            <trkpt lat="44.1175626" lon="19.8559669"><ele>589.0</ele></trkpt>
            <trkpt lat="44.1171871" lon="19.8559535"><ele>597.0</ele></trkpt>
            <trkpt lat="44.1169464" lon="19.8558837"><ele>602.0</ele></trkpt>
            <trkpt lat="44.1168751" lon="19.8557872"><ele>602.8</ele></trkpt>
            <trkpt lat="44.1167808" lon="19.8556396"><ele>604.5</ele></trkpt>
            <trkpt lat="44.1165612" lon="19.8555002"><ele>613.2</ele></trkpt>
            <trkpt lat="44.1163841" lon="19.8553312"><ele>620.0</ele></trkpt>
            <trkpt lat="44.1162300" lon="19.8549074"><ele>628.5</ele></trkpt>
            <trkpt lat="44.1161742" lon="19.8548886"><ele>631.8</ele></trkpt>
            <trkpt lat="44.1161299" lon="19.8549610"><ele>632.8</ele></trkpt>
            <trkpt lat="44.1161222" lon="19.8552346"><ele>631.2</ele></trkpt>
            <trkpt lat="44.1160355" lon="19.8552856"><ele>633.8</ele></trkpt>
            <trkpt lat="44.1158738" lon="19.8551381"><ele>638.8</ele></trkpt>
            <trkpt lat="44.1156446" lon="19.8547170"><ele>649.5</ele></trkpt>
            <trkpt lat="44.1156889" lon="19.8542395"><ele>652.8</ele></trkpt>
            <trkpt lat="44.1157390" lon="19.8539364"><ele>653.8</ele></trkpt>
            <trkpt lat="44.1158160" lon="19.8537353"><ele>653.2</ele></trkpt>
            <trkpt lat="44.1157987" lon="19.8535234"><ele>653.8</ele></trkpt>
            <trkpt lat="44.1157833" lon="19.8534268"><ele>654.0</ele></trkpt>
            <trkpt lat="44.1156889" lon="19.8534778"><ele>657.2</ele></trkpt>
            <trkpt lat="44.1153808" lon="19.8539954"><ele>664.5</ele></trkpt>
            <trkpt lat="44.1152980" lon="19.8541912"><ele>665.2</ele></trkpt>
            <trkpt lat="44.1149629" lon="19.8543361"><ele>674.5</ele></trkpt>
            <trkpt lat="44.1146548" lon="19.8544434"><ele>680.8</ele></trkpt>
            <trkpt lat="44.1144218" lon="19.8545399"><ele>682.8</ele></trkpt>
            <trkpt lat="44.1142851" lon="19.8544943"><ele>686.5</ele></trkpt>
            <trkpt lat="44.1142870" lon="19.8543549"><ele>691.2</ele></trkpt>
            <trkpt lat="44.1144584" lon="19.8540974"><ele>694.2</ele></trkpt>
            <trkpt lat="44.1146779" lon="19.8536065"><ele>693.2</ele></trkpt>
            <trkpt lat="44.1146856" lon="19.8534161"><ele>690.8</ele></trkpt>
            <trkpt lat="44.1145855" lon="19.8533437"><ele>692.2</ele></trkpt>
            <trkpt lat="44.1143236" lon="19.8533759"><ele>699.5</ele></trkpt>
            <trkpt lat="44.1140155" lon="19.8535234"><ele>709.8</ele></trkpt>
            <trkpt lat="44.1136188" lon="19.8533705"><ele>719.0</ele></trkpt>
            <trkpt lat="44.1133665" lon="19.8535261"><ele>725.8</ele></trkpt>
            <trkpt lat="44.1131797" lon="19.8534644"><ele>731.0</ele></trkpt>
            <trkpt lat="44.1129679" lon="19.8532042"><ele>736.0</ele></trkpt>
            <trkpt lat="44.1124152" lon="19.8528153"><ele>748.0</ele></trkpt>
            <trkpt lat="44.1120185" lon="19.8525095"><ele>759.8</ele></trkpt>
            <trkpt lat="44.1116950" lon="19.8522708"><ele>770.0</ele></trkpt>
            <trkpt lat="44.1112520" lon="19.8518497"><ele>785.0</ele></trkpt>
            <trkpt lat="44.1110460" lon="19.8517075"><ele>789.5</ele></trkpt>
            <trkpt lat="44.1109555" lon="19.8516431"><ele>791.0</ele></trkpt>
            <trkpt lat="44.1108399" lon="19.8516324"><ele>793.0</ele></trkpt>
            <trkpt lat="44.1106743" lon="19.8516458"><ele>796.5</ele></trkpt>
            <trkpt lat="44.1103835" lon="19.8520160"><ele>805.8</ele></trkpt>
            <trkpt lat="44.1102641" lon="19.8523915"><ele>808.8</ele></trkpt>
            <trkpt lat="44.1103334" lon="19.8528448"><ele>805.0</ele></trkpt>
            <trkpt lat="44.1103026" lon="19.8531479"><ele>807.0</ele></trkpt>
            <trkpt lat="44.1101967" lon="19.8533303"><ele>810.0</ele></trkpt>
            <trkpt lat="44.1101120" lon="19.8533168"><ele>812.0</ele></trkpt>
            <trkpt lat="44.1097788" lon="19.8524907"><ele>823.0</ele></trkpt>
            <trkpt lat="44.1095689" lon="19.8521098"><ele>829.0</ele></trkpt>
            <trkpt lat="44.1092877" lon="19.8517317"><ele>836.0</ele></trkpt>
            <trkpt lat="44.1091837" lon="19.8513910"><ele>840.0</ele></trkpt>
            <trkpt lat="44.1091548" lon="19.8510477"><ele>844.5</ele></trkpt>
            <trkpt lat="44.1090142" lon="19.8506159"><ele>852.2</ele></trkpt>
            <trkpt lat="44.1088715" lon="19.8504036"><ele>855.0</ele></trkpt>
            <trkpt lat="44.1088715" lon="19.8504036"><ele>855.0</ele></trkpt>
            <trkpt lat="44.1087812" lon="19.8502699"><ele>856.8</ele></trkpt>
            <trkpt lat="44.1083017" lon="19.8497388"><ele>858.0</ele></trkpt>
            <trkpt lat="44.1081187" lon="19.8496020"><ele>858.5</ele></trkpt>
            <trkpt lat="44.1079184" lon="19.8495832"><ele>859.2</ele></trkpt>
            <trkpt lat="44.1075159" lon="19.8496181"><ele>859.5</ele></trkpt>
            <trkpt lat="44.1071191" lon="19.8499399"><ele>861.1</ele></trkpt>
            <trkpt lat="44.1067994" lon="19.8500714"><ele>862.2</ele></trkpt>
            <trkpt lat="44.1065914" lon="19.8500043"><ele>861.6</ele></trkpt>
            <trkpt lat="44.1063565" lon="19.8501867"><ele>860.8</ele></trkpt>
            <trkpt lat="44.1061562" lon="19.8504120"><ele>858.8</ele></trkpt>
            <trkpt lat="44.1059867" lon="19.8505139"><ele>855.5</ele></trkpt>
            <trkpt lat="44.1056650" lon="19.8505917"><ele>850.5</ele></trkpt>
            <trkpt lat="44.1054166" lon="19.8505193"><ele>849.2</ele></trkpt>
            <trkpt lat="44.1050718" lon="19.8505166"><ele>849.0</ele></trkpt>
            <trkpt lat="44.1048349" lon="19.8505139"><ele>848.8</ele></trkpt>
            <trkpt lat="44.1045884" lon="19.8506320"><ele>849.0</ele></trkpt>
            <trkpt lat="44.1045345" lon="19.8507419"><ele>848.8</ele></trkpt>
            <trkpt lat="44.1041897" lon="19.8512837"><ele>846.0</ele></trkpt>
            <trkpt lat="44.1038103" lon="19.8522493"><ele>835.5</ele></trkpt>
            <trkpt lat="44.1034713" lon="19.8526302"><ele>830.5</ele></trkpt>
            <trkpt lat="44.1030206" lon="19.8541054"><ele>832.2</ele></trkpt>
            <trkpt lat="44.1026913" lon="19.8554546"><ele>834.8</ele></trkpt>
            <trkpt lat="44.1025753" lon="19.8561940"><ele>833.3</ele></trkpt>
            <trkpt lat="44.1025753" lon="19.8561940"><ele>833.3</ele></trkpt>
            <trkpt lat="44.1024678" lon="19.8568788"><ele>832.0</ele></trkpt>
            <trkpt lat="44.1021308" lon="19.8580670"><ele>829.0</ele></trkpt>
            <trkpt lat="44.1017147" lon="19.8587108"><ele>827.0</ele></trkpt>
            <trkpt lat="44.1012313" lon="19.8591346"><ele>820.0</ele></trkpt>
            <trkpt lat="44.1012621" lon="19.8593009"><ele>819.8</ele></trkpt>
            <trkpt lat="44.1013334" lon="19.8595020"><ele>818.8</ele></trkpt>
            <trkpt lat="44.1015183" lon="19.8596522"><ele>817.0</ele></trkpt>
            <trkpt lat="44.1019093" lon="19.8599660"><ele>809.0</ele></trkpt>
            <trkpt lat="44.1022733" lon="19.8601538"><ele>801.8</ele></trkpt>
            <trkpt lat="44.1027548" lon="19.8603442"><ele>795.0</ele></trkpt>
            <trkpt lat="44.1039721" lon="19.8608351"><ele>786.5</ele></trkpt>
            <trkpt lat="44.1044998" lon="19.8613152"><ele>784.5</ele></trkpt>
            <trkpt lat="44.1048792" lon="19.8620233"><ele>788.0</ele></trkpt>
            <trkpt lat="44.1049832" lon="19.8621950"><ele>789.0</ele></trkpt>
            <trkpt lat="44.1050429" lon="19.8623693"><ele>790.2</ele></trkpt>
            <trkpt lat="44.1050237" lon="19.8625222"><ele>792.5</ele></trkpt>
            <trkpt lat="44.1049524" lon="19.8626885"><ele>795.0</ele></trkpt>
            <trkpt lat="44.1049428" lon="19.8628467"><ele>796.2</ele></trkpt>
            <trkpt lat="44.1049987" lon="19.8636433"><ele>801.8</ele></trkpt>
            <trkpt lat="44.1049216" lon="19.8643300"><ele>805.5</ele></trkpt>
            <trkpt lat="44.1050006" lon="19.8647645"><ele>805.0</ele></trkpt>
            <trkpt lat="44.1051778" lon="19.8652124"><ele>807.0</ele></trkpt>
            <trkpt lat="44.1054821" lon="19.8653680"><ele>805.5</ele></trkpt>
            <trkpt lat="44.1059982" lon="19.8655128"><ele>802.0</ele></trkpt>
            <trkpt lat="44.1065491" lon="19.8657972"><ele>799.8</ele></trkpt>
            <trkpt lat="44.1068014" lon="19.8659688"><ele>799.0</ele></trkpt>
            <trkpt lat="44.1071288" lon="19.8664033"><ele>801.2</ele></trkpt>
            <trkpt lat="44.1073503" lon="19.8666474"><ele>800.0</ele></trkpt>
            <trkpt lat="44.1075852" lon="19.8670605"><ele>800.5</ele></trkpt>
            <trkpt lat="44.1078009" lon="19.8674467"><ele>801.2</ele></trkpt>
            <trkpt lat="44.1079107" lon="19.8679483"><ele>801.8</ele></trkpt>
            <trkpt lat="44.1079893" lon="19.8682338"><ele>801.1</ele></trkpt>
            <trkpt lat="44.1081424" lon="19.8681521"><ele>801.1</ele></trkpt>
        </trkseg>
    </trk>
    <trk>
        <name>День 2</name>
        <trkseg>
            <trkpt lat="44.1081272" lon="19.8681624"><ele>801.1</ele></trkpt>
            <trkpt lat="44.1079898" lon="19.8682356"><ele>801.1</ele></trkpt>
            <trkpt lat="44.1080397" lon="19.8684177"><ele>800.8</ele></trkpt>
            <trkpt lat="44.1082092" lon="19.8686323"><ele>800.0</ele></trkpt>
            <trkpt lat="44.1085828" lon="19.8689568"><ele>797.8</ele></trkpt>
            <trkpt lat="44.1089006" lon="19.8692921"><ele>795.5</ele></trkpt>
            <trkpt lat="44.1092068" lon="19.8696113"><ele>793.0</ele></trkpt>
            <trkpt lat="44.1093590" lon="19.8696783"><ele>792.0</ele></trkpt>
            <trkpt lat="44.1096844" lon="19.8700002"><ele>790.8</ele></trkpt>
            <trkpt lat="44.1104066" lon="19.8703542"><ele>788.8</ele></trkpt>
            <trkpt lat="44.1112143" lon="19.8706444"><ele>782.0</ele></trkpt>
            <trkpt lat="44.1112143" lon="19.8706444"><ele>782.0</ele></trkpt>
            <trkpt lat="44.1112424" lon="19.8706546"><ele>781.0</ele></trkpt>
            <trkpt lat="44.1112963" lon="19.8705205"><ele>780.0</ele></trkpt>
            <trkpt lat="44.1113695" lon="19.8703542"><ele>776.8</ele></trkpt>
            <trkpt lat="44.1113907" lon="19.8701155"><ele>773.2</ele></trkpt>
            <trkpt lat="44.1114234" lon="19.8698607"><ele>769.0</ele></trkpt>
            <trkpt lat="44.1114408" lon="19.8696542"><ele>766.2</ele></trkpt>
            <trkpt lat="44.1114793" lon="19.8695576"><ele>763.8</ele></trkpt>
            <trkpt lat="44.1115544" lon="19.8695469"><ele>761.0</ele></trkpt>
            <trkpt lat="44.1116526" lon="19.8699439"><ele>759.8</ele></trkpt>
            <trkpt lat="44.1118856" lon="19.8701906"><ele>755.2</ele></trkpt>
            <trkpt lat="44.1122477" lon="19.8703381"><ele>753.0</ele></trkpt>
            <trkpt lat="44.1125597" lon="19.8704079"><ele>752.8</ele></trkpt>
            <trkpt lat="44.1127657" lon="19.8703891"><ele>752.2</ele></trkpt>
            <trkpt lat="44.1130835" lon="19.8702201"><ele>746.5</ele></trkpt>
            <trkpt lat="44.1134031" lon="19.8699921"><ele>738.0</ele></trkpt>
            <trkpt lat="44.1136458" lon="19.8700511"><ele>737.2</ele></trkpt>
            <trkpt lat="44.1138499" lon="19.8703086"><ele>742.0</ele></trkpt>
            <trkpt lat="44.1139847" lon="19.8704186"><ele>744.5</ele></trkpt>
            <trkpt lat="44.1141022" lon="19.8705500"><ele>749.2</ele></trkpt>
            <trkpt lat="44.1141850" lon="19.8705742"><ele>751.8</ele></trkpt>
            <trkpt lat="44.1141946" lon="19.8705579"><ele>751.6</ele></trkpt>
            <trkpt lat="44.1141946" lon="19.8705579"><ele>751.6</ele></trkpt>
            <trkpt lat="44.1142543" lon="19.8704562"><ele>750.8</ele></trkpt>
            <trkpt lat="44.1143024" lon="19.8702979"><ele>748.2</ele></trkpt>
            <trkpt lat="44.1144160" lon="19.8696086"><ele>737.8</ele></trkpt>
            <trkpt lat="44.1145720" lon="19.8681870"><ele>727.0</ele></trkpt>
            <trkpt lat="44.1146645" lon="19.8679188"><ele>723.2</ele></trkpt>
            <trkpt lat="44.1149418" lon="19.8677418"><ele>718.2</ele></trkpt>
            <trkpt lat="44.1153731" lon="19.8677230"><ele>711.2</ele></trkpt>
            <trkpt lat="44.1158545" lon="19.8679000"><ele>708.5</ele></trkpt>
            <trkpt lat="44.1162608" lon="19.8680422"><ele>702.8</ele></trkpt>
            <trkpt lat="44.1163590" lon="19.8680770"><ele>700.8</ele></trkpt>
            <trkpt lat="44.1168270" lon="19.8681951"><ele>691.8</ele></trkpt>
            <trkpt lat="44.1171389" lon="19.8681468"><ele>689.5</ele></trkpt>
            <trkpt lat="44.1176627" lon="19.8675540"><ele>681.2</ele></trkpt>
            <trkpt lat="44.1179534" lon="19.8672000"><ele>677.5</ele></trkpt>
            <trkpt lat="44.1180940" lon="19.8669130"><ele>673.0</ele></trkpt>
            <trkpt lat="44.1184214" lon="19.8665187"><ele>666.5</ele></trkpt>
            <trkpt lat="44.1188392" lon="19.8663980"><ele>661.2</ele></trkpt>
            <trkpt lat="44.1191935" lon="19.8661914"><ele>657.2</ele></trkpt>
            <trkpt lat="44.1194053" lon="19.8658964"><ele>656.8</ele></trkpt>
            <trkpt lat="44.1195054" lon="19.8654619"><ele>651.5</ele></trkpt>
            <trkpt lat="44.1195478" lon="19.8651347"><ele>647.0</ele></trkpt>
            <trkpt lat="44.1196325" lon="19.8648101"><ele>642.2</ele></trkpt>
            <trkpt lat="44.1196691" lon="19.8645231"><ele>635.8</ele></trkpt>
            <trkpt lat="44.1196248" lon="19.8640296"><ele>625.0</ele></trkpt>
            <trkpt lat="44.1195555" lon="19.8635763"><ele>616.5</ele></trkpt>
            <trkpt lat="44.1195054" lon="19.8633993"><ele>613.8</ele></trkpt>
            <trkpt lat="44.1195054" lon="19.8626080"><ele>604.5</ele></trkpt>
            <trkpt lat="44.1195054" lon="19.8622540"><ele>599.5</ele></trkpt>
            <trkpt lat="44.1196691" lon="19.8621038"><ele>594.5</ele></trkpt>
            <trkpt lat="44.1198097" lon="19.8620662"><ele>590.0</ele></trkpt>
            <trkpt lat="44.1199310" lon="19.8622325"><ele>590.8</ele></trkpt>
            <trkpt lat="44.1202487" lon="19.8627180"><ele>592.2</ele></trkpt>
            <trkpt lat="44.1203989" lon="19.8628548"><ele>591.5</ele></trkpt>
            <trkpt lat="44.1206242" lon="19.8630613"><ele>593.5</ele></trkpt>
            <trkpt lat="44.1208514" lon="19.8630533"><ele>592.0</ele></trkpt>
            <trkpt lat="44.1210651" lon="19.8628736"><ele>587.8</ele></trkpt>
            <trkpt lat="44.1211498" lon="19.8626670"><ele>583.5</ele></trkpt>
            <trkpt lat="44.1212057" lon="19.8619857"><ele>573.0</ele></trkpt>
            <trkpt lat="44.1213481" lon="19.8616907"><ele>569.0</ele></trkpt>
            <trkpt lat="44.1214617" lon="19.8611462"><ele>559.0</ele></trkpt>
            <trkpt lat="44.1214406" lon="19.8608619"><ele>556.2</ele></trkpt>
            <trkpt lat="44.1214194" lon="19.8604944"><ele>549.8</ele></trkpt>
            <trkpt lat="44.1212981" lon="19.8602477"><ele>546.8</ele></trkpt>
            <trkpt lat="44.1211344" lon="19.8601511"><ele>545.2</ele></trkpt>
            <trkpt lat="44.1208514" lon="19.8601699"><ele>542.0</ele></trkpt>
            <trkpt lat="44.1208013" lon="19.8600411"><ele>537.8</ele></trkpt>
            <trkpt lat="44.1209573" lon="19.8597649"><ele>532.8</ele></trkpt>
            <trkpt lat="44.1211710" lon="19.8596174"><ele>528.0</ele></trkpt>
            <trkpt lat="44.1214040" lon="19.8596576"><ele>525.5</ele></trkpt>
            <trkpt lat="44.1217602" lon="19.8597944"><ele>520.8</ele></trkpt>
            <trkpt lat="44.1220240" lon="19.8598856"><ele>516.0</ele></trkpt>
            <trkpt lat="44.1222050" lon="19.8599124"><ele>512.5</ele></trkpt>
            <trkpt lat="44.1223012" lon="19.8598748"><ele>510.5</ele></trkpt>
            <trkpt lat="44.1223725" lon="19.8597783"><ele>508.2</ele></trkpt>
            <trkpt lat="44.1224514" lon="19.8595557"><ele>504.8</ele></trkpt>
            <trkpt lat="44.1225246" lon="19.8587376"><ele>496.2</ele></trkpt>
            <trkpt lat="44.1225650" lon="19.8585203"><ele>492.5</ele></trkpt>
            <trkpt lat="44.1226266" lon="19.8584586"><ele>491.0</ele></trkpt>
            <trkpt lat="44.1227114" lon="19.8585042"><ele>491.5</ele></trkpt>
            <trkpt lat="44.1228307" lon="19.8589495"><ele>496.5</ele></trkpt>
            <trkpt lat="44.1229174" lon="19.8591989"><ele>498.8</ele></trkpt>
            <trkpt lat="44.1229617" lon="19.8592472"><ele>499.5</ele></trkpt>
            <trkpt lat="44.1230252" lon="19.8592150"><ele>500.2</ele></trkpt>
            <trkpt lat="44.1230483" lon="19.8591292"><ele>500.0</ele></trkpt>
            <trkpt lat="44.1230753" lon="19.8589951"><ele>499.2</ele></trkpt>
            <trkpt lat="44.1230406" lon="19.8587885"><ele>496.2</ele></trkpt>
            <trkpt lat="44.1229713" lon="19.8584613"><ele>496.2</ele></trkpt>
            <trkpt lat="44.1228596" lon="19.8577854"><ele>481.0</ele></trkpt>
            <trkpt lat="44.1228538" lon="19.8577264"><ele>480.0</ele></trkpt>
            <trkpt lat="44.1228731" lon="19.8576701"><ele>479.0</ele></trkpt>
            <trkpt lat="44.1230425" lon="19.8578256"><ele>481.5</ele></trkpt>
            <trkpt lat="44.1231196" lon="19.8578390"><ele>481.8</ele></trkpt>
            <trkpt lat="44.1232139" lon="19.8578551"><ele>482.0</ele></trkpt>
        </trkseg>
    </trk>
</gpx>
