<?xml version="1.0" encoding="UTF-8" standalone="yes"?>
<gpx version="1.1" creator="merge_gpx_days.py" xmlns="http://www.topografix.com/GPX/1/1" xmlns:xsi="http://www.w3.org/2001/XMLSchema-instance" xsi:schemaLocation="http://www.topografix.com/GPX/1/1 https://www.topografix.com/GPX/1/1/gpx.xsd">
    <metadata>
        <name>Samari - Taorske Stene Camp</name>
    </metadata>
    <trk>
        <name>День 1</name>
        <trkseg>
            <trkpt lat="44.1229739" lon="19.8577624"><ele>480.5</ele></trkpt>
            <trkpt lat="44.1228731" lon="19.8576701"><ele>479.0</ele></trkpt>
            <trkpt lat="44.1228538" lon="19.8577264"><ele>480.0</ele></trkpt>
            <trkpt lat="44.1228596" lon="19.8577854"><ele>480.0</ele></trkpt>
            <trkpt lat="44.1229713" lon="19.8584613"><ele>492.0</ele></trkpt>
            <trkpt lat="44.1230406" lon="19.8587885"><ele>496.2</ele></trkpt>
            <trkpt lat="44.1230753" lon="19.8589951"><ele>499.2</ele></trkpt>
            <trkpt lat="44.1230483" lon="19.8591292"><ele>500.0</ele></trkpt>
            <trkpt lat="44.1230252" lon="19.8592150"><ele>500.2</ele></trkpt>
            <trkpt lat="44.1229617" lon="19.8592472"><ele>499.5</ele></trkpt>
            <trkpt lat="44.1229174" lon="19.8591989"><ele>498.8</ele></trkpt>
            <trkpt lat="44.1228307" lon="19.8589495"><ele>496.5</ele></trkpt>
            <trkpt lat="44.1227114" lon="19.8585042"><ele>491.5</ele></trkpt>
            <trkpt lat="44.1226266" lon="19.8584586"><ele>491.0</ele></trkpt>
            <trkpt lat="44.1225650" lon="19.8585203"><ele>492.5</ele></trkpt>
            <trkpt lat="44.1225246" lon="19.8587376"><ele>496.2</ele></trkpt>
            <trkpt lat="44.1224514" lon="19.8595557"><ele>504.8</ele></trkpt>
            <trkpt lat="44.1223725" lon="19.8597783"><ele>508.2</ele></trkpt>
            <trkpt lat="44.1223012" lon="19.8598748"><ele>510.5</ele></trkpt>
            <trkpt lat="44.1222050" lon="19.8599124"><ele>512.5</ele></trkpt>
            <trkpt lat="44.1220240" lon="19.8598856"><ele>516.0</ele></trkpt>
            <trkpt lat="44.1217602" lon="19.8597944"><ele>520.8</ele></trkpt>
            <trkpt lat="44.1214040" lon="19.8596576"><ele>525.5</ele></trkpt>
            <trkpt lat="44.1211710" lon="19.8596174"><ele>528.0</ele></trkpt>
            <trkpt lat="44.1209573" lon="19.8597649"><ele>532.8</ele></trkpt>
            <trkpt lat="44.1208013" lon="19.8600411"><ele>537.8</ele></trkpt>
            <trkpt lat="44.1208514" lon="19.8601699"><ele>542.0</ele></trkpt>
            <trkpt lat="44.1211344" lon="19.8601511"><ele>545.2</ele></trkpt>
            <trkpt lat="44.1212981" lon="19.8602477"><ele>546.8</ele></trkpt>
            <trkpt lat="44.1214194" lon="19.8604944"><ele>549.8</ele></trkpt>
            <trkpt lat="44.1214406" lon="19.8608619"><ele>556.2</ele></trkpt>
            <trkpt lat="44.1214617" lon="19.8611462"><ele>559.0</ele></trkpt>
            <trkpt lat="44.1213481" lon="19.8616907"><ele>569.0</ele></trkpt>
            <trkpt lat="44.1212057" lon="19.8619857"><ele>573.0</ele></trkpt>
            <trkpt lat="44.1211498" lon="19.8626670"><ele>583.5</ele></trkpt>
            <trkpt lat="44.1210651" lon="19.8628736"><ele>587.8</ele></trkpt>
            <trkpt lat="44.1208514" lon="19.8630533"><ele>592.0</ele></trkpt>
            <trkpt lat="44.1206242" lon="19.8630613"><ele>593.5</ele></trkpt>
            <trkpt lat="44.1203989" lon="19.8628548"><ele>591.5</ele></trkpt>
            <trkpt lat="44.1202487" lon="19.8627180"><ele>592.2</ele></trkpt>
            <trkpt lat="44.1199310" lon="19.8622325"><ele>590.8</ele></trkpt>
            <trkpt lat="44.1198097" lon="19.8620662"><ele>590.0</ele></trkpt>
            <trkpt lat="44.1196691" lon="19.8621038"><ele>594.5</ele></trkpt>
            <trkpt lat="44.1195054" lon="19.8622540"><ele>599.5</ele></trkpt>
            <trkpt lat="44.1195054" lon="19.8626080"><ele>604.5</ele></trkpt>
            <trkpt lat="44.1195054" lon="19.8633993"><ele>613.8</ele></trkpt>
            <trkpt lat="44.1195555" lon="19.8635763"><ele>616.5</ele></trkpt>
            <trkpt lat="44.1196248" lon="19.8640296"><ele>625.0</ele></trkpt>
            <trkpt lat="44.1196691" lon="19.8645231"><ele>635.8</ele></trkpt>
            <trkpt lat="44.1196325" lon="19.8648101"><ele>642.2</ele></trkpt>
            <trkpt lat="44.1195478" lon="19.8651347"><ele>647.0</ele></trkpt>
            <trkpt lat="44.1195054" lon="19.8654619"><ele>651.5</ele></trkpt>
            <trkpt lat="44.1194053" lon="19.8658964"><ele>656.8</ele></trkpt>
            <trkpt lat="44.1191935" lon="19.8661914"><ele>657.2</ele></trkpt>
            <trkpt lat="44.1188392" lon="19.8663980"><ele>661.2</ele></trkpt>
            <trkpt lat="44.1184214" lon="19.8665187"><ele>666.5</ele></trkpt>
            <trkpt lat="44.1180940" lon="19.8669130"><ele>673.0</ele></trkpt>
            <trkpt lat="44.1179534" lon="19.8672000"><ele>677.5</ele></trkpt>
            <trkpt lat="44.1176627" lon="19.8675540"><ele>681.2</ele></trkpt>
            <trkpt lat="44.1171389" lon="19.8681468"><ele>689.5</ele></trkpt>
            <trkpt lat="44.1168270" lon="19.8681951"><ele>691.8</ele></trkpt>
            <trkpt lat="44.1163590" lon="19.8680770"><ele>700.8</ele></trkpt>
            <trkpt lat="44.1162608" lon="19.8680422"><ele>702.8</ele></trkpt>
            <trkpt lat="44.1158545" lon="19.8679000"><ele>708.5</ele></trkpt>
            <trkpt lat="44.1153731" lon="19.8677230"><ele>711.2</ele></trkpt>
            <trkpt lat="44.1149418" lon="19.8677418"><ele>718.2</ele></trkpt>
            <trkpt lat="44.1146645" lon="19.8679188"><ele>723.2</ele></trkpt>
            <trkpt lat="44.1145720" lon="19.8681870"><ele>727.0</ele></trkpt>
            <trkpt lat="44.1144160" lon="19.8696086"><ele>737.8</ele></trkpt>
            <trkpt lat="44.1143024" lon="19.8702979"><ele>748.2</ele></trkpt>
            <trkpt lat="44.1142543" lon="19.8704562"><ele>750.8</ele></trkpt>
            <trkpt lat="44.1141850" lon="19.8705742"><ele>751.8</ele></trkpt>
            <trkpt lat="44.1141022" lon="19.8705500"><ele>749.2</ele></trkpt>
            <trkpt lat="44.1139847" lon="19.8704186"><ele>744.5</ele></trkpt>
            <trkpt lat="44.1138499" lon="19.8703086"><ele>742.0</ele></trkpt>
            <trkpt lat="44.1136458" lon="19.8700511"><ele>737.2</ele></trkpt>
            <trkpt lat="44.1134031" lon="19.8699921"><ele>738.0</ele></trkpt>
            <trkpt lat="44.1130835" lon="19.8702201"><ele>746.5</ele></trkpt>
            <trkpt lat="44.1127657" lon="19.8703891"><ele>752.2</ele></trkpt>
            <trkpt lat="44.1125597" lon="19.8704079"><ele>752.8</ele></trkpt>
            <trkpt lat="44.1122477" lon="19.8703381"><ele>753.0</ele></trkpt>
            <trkpt lat="44.1118856" lon="19.8701906"><ele>755.2</ele></trkpt>
            <trkpt lat="44.1116526" lon="19.8699439"><ele>759.8</ele></trkpt>
            <trkpt lat="44.1115544" lon="19.8695469"><ele>761.0</ele></trkpt>
            <trkpt lat="44.1114793" lon="19.8695576"><ele>763.8</ele></trkpt>
            <trkpt lat="44.1114408" lon="19.8696542"><ele>766.2</ele></trkpt>
            <trkpt lat="44.1114234" lon="19.8698607"><ele>769.0</ele></trkpt>
            <trkpt lat="44.1113907" lon="19.8701155"><ele>773.2</ele></trkpt>
            <trkpt lat="44.1113695" lon="19.8703542"><ele>776.8</ele></trkpt>
            <trkpt lat="44.1112963" lon="19.8705205"><ele>780.0</ele></trkpt>
            <trkpt lat="44.1112424" lon="19.8706546"><ele>781.8</ele></trkpt>
            <trkpt lat="44.1113364" lon="19.8706969"><ele>780.5</ele></trkpt>
            <trkpt lat="44.1113364" lon="19.8706969"><ele>780.5</ele></trkpt>
            <trkpt lat="44.1112424" lon="19.8706546"><ele>781.8</ele></trkpt>
            <trkpt lat="44.1104066" lon="19.8703542"><ele>788.8</ele></trkpt>
            <trkpt lat="44.1096844" lon="19.8700002"><ele>790.8</ele></trkpt>
            <trkpt lat="44.1093590" lon="19.8696783"><ele>792.0</ele></trkpt>
            <trkpt lat="44.1087639" lon="19.8689139"><ele>793.5</ele></trkpt>
            <trkpt lat="44.1082920" lon="19.8679966"><ele>795.8</ele></trkpt>
            <trkpt lat="44.1080205" lon="19.8674306"><ele>797.0</ele></trkpt>
            <trkpt lat="44.1077345" lon="19.8669688"><ele>797.2</ele></trkpt>
            <trkpt lat="44.1077345" lon="19.8669688"><ele>797.2</ele></trkpt>
            <trkpt lat="44.1077297" lon="19.8669612"><ele>797.2</ele></trkpt>
            <trkpt lat="44.1073348" lon="19.8664382"><ele>798.5</ele></trkpt>
            <trkpt lat="44.1070806" lon="19.8661754"><ele>798.8</ele></trkpt>
            <trkpt lat="44.1068014" lon="19.8659688"><ele>799.0</ele></trkpt>
            <trkpt lat="44.1065491" lon="19.8657972"><ele>799.8</ele></trkpt>
            <trkpt lat="44.1059982" lon="19.8655128"><ele>802.0</ele></trkpt>
            <trkpt lat="44.1054821" lon="19.8653680"><ele>805.5</ele></trkpt>
            <trkpt lat="44.1051778" lon="19.8652124"><ele>807.0</ele></trkpt>
            <trkpt lat="44.1050006" lon="19.8647645"><ele>805.0</ele></trkpt>
            <trkpt lat="44.1049216" lon="19.8643300"><ele>805.5</ele></trkpt>
            <trkpt lat="44.1049987" lon="19.8636433"><ele>801.8</ele></trkpt>
            <trkpt lat="44.1049428" lon="19.8628467"><ele>796.2</ele></trkpt>
            <trkpt lat="44.1049524" lon="19.8626885"><ele>795.0</ele></trkpt>
            <trkpt lat="44.1050237" lon="19.8625222"><ele>792.5</ele></trkpt>
            <trkpt lat="44.1050429" lon="19.8623693"><ele>790.2</ele></trkpt>
            <trkpt lat="44.1049832" lon="19.8621950"><ele>789.0</ele></trkpt>
            <trkpt lat="44.1048792" lon="19.8620233"><ele>788.0</ele></trkpt>
            <trkpt lat="44.1044998" lon="19.8613152"><ele>784.5</ele></trkpt>
            <trkpt lat="44.1039721" lon="19.8608351"><ele>786.5</ele></trkpt>
            <trkpt lat="44.1027548" lon="19.8603442"><ele>795.0</ele></trkpt>
            <trkpt lat="44.1022733" lon="19.8601538"><ele>801.8</ele></trkpt>
            <trkpt lat="44.1019093" lon="19.8599660"><ele>809.0</ele></trkpt>
            <trkpt lat="44.1015183" lon="19.8596522"><ele>817.0</ele></trkpt>
            <trkpt lat="44.1013334" lon="19.8595020"><ele>818.8</ele></trkpt>
            <trkpt lat="44.1012621" lon="19.8593009"><ele>819.8</ele></trkpt>
            <trkpt lat="44.1012313" lon="19.8591346"><ele>820.0</ele></trkpt>
            <trkpt lat="44.1017147" lon="19.8587108"><ele>827.0</ele></trkpt>
            <trkpt lat="44.1021308" lon="19.8580670"><ele>829.0</ele></trkpt>
            <trkpt lat="44.1024578" lon="19.8569140"><ele>831.9</ele></trkpt>
            <trkpt lat="44.1024578" lon="19.8569140"><ele>831.9</ele></trkpt>
            <trkpt lat="44.1024678" lon="19.8568788"><ele>832.0</ele></trkpt>
            <trkpt lat="44.1026913" lon="19.8554546"><ele>834.8</ele></trkpt>
            <trkpt lat="44.1030206" lon="19.8541054"><ele>832.2</ele></trkpt>
            <trkpt lat="44.1034713" lon="19.8526302"><ele>830.5</ele></trkpt>
            <trkpt lat="44.1038103" lon="19.8522493"><ele>835.5</ele></trkpt>
            <trkpt lat="44.1041897" lon="19.8512837"><ele>846.0</ele></trkpt>
            <trkpt lat="44.1040973" lon="19.8510933"><ele>849.0</ele></trkpt>
            <trkpt lat="44.1039894" lon="19.8509458"><ele>851.0</ele></trkpt>
            <trkpt lat="44.1037737" lon="19.8507366"><ele>854.0</ele></trkpt>
            <trkpt lat="44.1035118" lon="19.8507231"><ele>855.0</ele></trkpt>
            <trkpt lat="44.1033538" lon="19.8506320"><ele>854.2</ele></trkpt>
            <trkpt lat="44.1032749" lon="19.8504066"><ele>854.0</ele></trkpt>
            <trkpt lat="44.1032190" lon="19.8498541"><ele>851.0</ele></trkpt>
            <trkpt lat="44.1032941" lon="19.8493794"><ele>847.0</ele></trkpt>
            <trkpt lat="44.1035079" lon="19.8488671"><ele>847.8</ele></trkpt>
            <trkpt lat="44.1035387" lon="19.8484701"><ele>844.5</ele></trkpt>
            <trkpt lat="44.1034752" lon="19.8476762"><ele>835.8</ele></trkpt>
            <trkpt lat="44.1036504" lon="19.8465148"><ele>829.0</ele></trkpt>
            <trkpt lat="44.1037544" lon="19.8463109"><ele>828.2</ele></trkpt>
            <trkpt lat="44.1039721" lon="19.8458603"><ele>826.8</ele></trkpt>
            <trkpt lat="44.1041088" lon="19.8454311"><ele>824.5</ele></trkpt>
            <trkpt lat="44.1041377" lon="19.8443475"><ele>823.3</ele></trkpt>
            <trkpt lat="44.1040260" lon="19.8431674"><ele>822.0</ele></trkpt>
            <trkpt lat="44.1037236" lon="19.8420972"><ele>820.2</ele></trkpt>
            <trkpt lat="44.1031747" lon="19.8409653"><ele>832.5</ele></trkpt>
            <trkpt lat="44.1031054" lon="19.8406032"><ele>834.0</ele></trkpt>
            <trkpt lat="44.1031150" lon="19.8404288"><ele>834.8</ele></trkpt>
            <trkpt lat="44.1031497" lon="19.8402599"><ele>835.2</ele></trkpt>
            <trkpt lat="44.1032883" lon="19.8399380"><ele>836.0</ele></trkpt>
            <trkpt lat="44.1035252" lon="19.8397851"><ele>834.8</ele></trkpt>
            <trkpt lat="44.1035561" lon="19.8397288"><ele>834.6</ele></trkpt>
            <trkpt lat="44.1035464" lon="19.8396510"><ele>834.5</ele></trkpt>
            <trkpt lat="44.1032960" lon="19.8392165"><ele>837.0</ele></trkpt>
            <trkpt lat="44.1024563" lon="19.8378673"><ele>855.5</ele></trkpt>
            <trkpt lat="44.1021577" lon="19.8377466"><ele>864.5</ele></trkpt>
            <trkpt lat="44.1017128" lon="19.8380980"><ele>873.0</ele></trkpt>
            <trkpt lat="44.1011619" lon="19.8380068"><ele>884.5</ele></trkpt>
            <trkpt lat="44.1014836" lon="19.8372665"><ele>886.8</ele></trkpt>
            <trkpt lat="44.1012968" lon="19.8366657"><ele>900.0</ele></trkpt>
            <trkpt lat="44.1012621" lon="19.8364913"><ele>903.8</ele></trkpt>
            <trkpt lat="44.1012563" lon="19.8363975"><ele>905.2</ele></trkpt>
            <trkpt lat="44.1012679" lon="19.8363090"><ele>905.7</ele></trkpt>
            <trkpt lat="44.1012987" lon="19.8362446"><ele>906.0</ele></trkpt>
            <trkpt lat="44.1013468" lon="19.8361507"><ele>906.2</ele></trkpt>
            <trkpt lat="44.1013777" lon="19.8360139"><ele>907.8</ele></trkpt>
            <trkpt lat="44.1014027" lon="19.8358047"><ele>909.0</ele></trkpt>
            <trkpt lat="44.1014200" lon="19.8356465"><ele>908.2</ele></trkpt>
            <trkpt lat="44.1014085" lon="19.8354909"><ele>907.7</ele></trkpt>
            <trkpt lat="44.1013642" lon="19.8353729"><ele>907.2</ele></trkpt>
            <trkpt lat="44.1010232" lon="19.8351261"><ele>914.0</ele></trkpt>
            <trkpt lat="44.1008537" lon="19.8349786"><ele>916.5</ele></trkpt>
            <trkpt lat="44.1007729" lon="19.8348767"><ele>917.0</ele></trkpt>
            <trkpt lat="44.1007401" lon="19.8347908"><ele>916.0</ele></trkpt>
            <trkpt lat="44.1007208" lon="19.8346943"><ele>915.5</ele></trkpt>
            <trkpt lat="44.1007248" lon="19.8346011"><ele>915.0</ele></trkpt>
            <trkpt lat="44.1008611" lon="19.8346121"><ele>915.0</ele></trkpt>
            <trkpt lat="44.1008611" lon="19.8346121"><ele>915.0</ele></trkpt>
            <trkpt lat="44.1007248" lon="19.8346011"><ele>915.0</ele></trkpt>
            <trkpt lat="44.1007382" lon="19.8342785"><ele>913.2</ele></trkpt>
            <trkpt lat="44.1007324" lon="19.8341176"><ele>912.2</ele></trkpt>
            <trkpt lat="44.1007170" lon="19.8339486"><ele>912.8</ele></trkpt>
            <trkpt lat="44.1006881" lon="19.8338306"><ele>913.5</ele></trkpt>
            <trkpt lat="44.1006477" lon="19.8337072"><ele>914.8</ele></trkpt>
            <trkpt lat="44.1005956" lon="19.8336214"><ele>916.5</ele></trkpt>
            <trkpt lat="44.1004936" lon="19.8334926"><ele>920.0</ele></trkpt>
            <trkpt lat="44.1002509" lon="19.8331815"><ele>927.0</ele></trkpt>
            <trkpt lat="44.1000660" lon="19.8330313"><ele>928.8</ele></trkpt>
            <trkpt lat="44.0999947" lon="19.8329401"><ele>928.9</ele></trkpt>
            <trkpt lat="44.0999234" lon="19.8328248"><ele>929.0</ele></trkpt>
            <trkpt lat="44.0998618" lon="19.8326987"><ele>928.5</ele></trkpt>
            <trkpt lat="44.0997944" lon="19.8325002"><ele>927.2</ele></trkpt>
            <trkpt lat="44.0997655" lon="19.8323607"><ele>926.5</ele></trkpt>
            <trkpt lat="44.0997501" lon="19.8321944"><ele>925.0</ele></trkpt>
            <trkpt lat="44.0997635" lon="19.8320416"><ele>923.5</ele></trkpt>
            <trkpt lat="44.0997963" lon="19.8319155"><ele>922.8</ele></trkpt>
            <trkpt lat="44.0998464" lon="19.8318055"><ele>922.6</ele></trkpt>
            <trkpt lat="44.0998984" lon="19.8317277"><ele>922.5</ele></trkpt>
            <trkpt lat="44.1003549" lon="19.8311940"><ele>921.5</ele></trkpt>
            <trkpt lat="44.1004801" lon="19.8310223"><ele>920.0</ele></trkpt>
            <trkpt lat="44.1009308" lon="19.8303571"><ele>912.2</ele></trkpt>
            <trkpt lat="44.1010117" lon="19.8302338"><ele>911.5</ele></trkpt>
            <trkpt lat="44.1010830" lon="19.8301050"><ele>911.0</ele></trkpt>
            <trkpt lat="44.1011350" lon="19.8300031"><ele>910.5</ele></trkpt>
            <trkpt lat="44.1012602" lon="19.8297161"><ele>910.2</ele></trkpt>
            <trkpt lat="44.1012794" lon="19.8296490"><ele>910.5</ele></trkpt>
            <trkpt lat="44.1012852" lon="19.8295820"><ele>910.8</ele></trkpt>
            <trkpt lat="44.1012813" lon="19.8295256"><ele>910.9</ele></trkpt>
            <trkpt lat="44.1012717" lon="19.8294666"><ele>910.0</ele></trkpt>
            <trkpt lat="44.1011446" lon="19.8295605"><ele>908.2</ele></trkpt>
            <trkpt lat="44.1007844" lon="19.8298824"><ele>906.5</ele></trkpt>
            <trkpt lat="44.1006496" lon="19.8300138"><ele>905.8</ele></trkpt>
            <trkpt lat="44.1005398" lon="19.8301560"><ele>905.2</ele></trkpt>
            <trkpt lat="44.1004011" lon="19.8302981"><ele>904.6</ele></trkpt>
            <trkpt lat="44.1001449" lon="19.8304966"><ele>903.5</ele></trkpt>
            <trkpt lat="44.0998252" lon="19.8307461"><ele>898.8</ele></trkpt>
            <trkpt lat="44.0997192" lon="19.8308372"><ele>897.8</ele></trkpt>
            <trkpt lat="44.0996172" lon="19.8309338"><ele>897.0</ele></trkpt>
            <trkpt lat="44.0995170" lon="19.8310357"><ele>895.8</ele></trkpt>
            <trkpt lat="44.0994168" lon="19.8311403"><ele>894.8</ele></trkpt>
            <trkpt lat="44.0992878" lon="19.8313066"><ele>894.5</ele></trkpt>
            <trkpt lat="44.0992358" lon="19.8313710"><ele>894.4</ele></trkpt>
            <trkpt lat="44.0991799" lon="19.8314273"><ele>894.3</ele></trkpt>
            <trkpt lat="44.0991279" lon="19.8314729"><ele>894.2</ele></trkpt>
            <trkpt lat="44.0990759" lon="19.8315132"><ele>893.8</ele></trkpt>
            <trkpt lat="44.0990200" lon="19.8315454"><ele>893.0</ele></trkpt>
            <trkpt lat="44.0986714" lon="19.8317304"><ele>888.0</ele></trkpt>
            <trkpt lat="44.0985809" lon="19.8317868"><ele>887.0</ele></trkpt>
            <trkpt lat="44.0984961" lon="19.8318484"><ele>886.5</ele></trkpt>
            <trkpt lat="44.0984152" lon="19.8319182"><ele>886.2</ele></trkpt>
            <trkpt lat="44.0983401" lon="19.8319933"><ele>886.0</ele></trkpt>
            <trkpt lat="44.0981667" lon="19.8321944"><ele>885.8</ele></trkpt>
            <trkpt lat="44.0981089" lon="19.8322561"><ele>885.6</ele></trkpt>
            <trkpt lat="44.0980473" lon="19.8323098"><ele>885.5</ele></trkpt>
            <trkpt lat="44.0979895" lon="19.8323473"><ele>885.2</ele></trkpt>
            <trkpt lat="44.0979317" lon="19.8323768"><ele>884.8</ele></trkpt>
            <trkpt lat="44.0978720" lon="19.8323983"><ele>884.2</ele></trkpt>
            <trkpt lat="44.0975253" lon="19.8325592"><ele>884.0</ele></trkpt>
            <trkpt lat="44.0968813" lon="19.8360935"><ele>884.0</ele></trkpt>
            <trkpt lat="44.0968813" lon="19.8360935"><ele>884.0</ele></trkpt>
            <trkpt lat="44.0975253" lon="19.8325592"><ele>884.0</ele></trkpt>
            <trkpt lat="44.0978720" lon="19.8323983"><ele>884.2</ele></trkpt>
            <trkpt lat="44.0979317" lon="19.8323768"><ele>884.8</ele></trkpt>
            <trkpt lat="44.0979895" lon="19.8323473"><ele>885.2</ele></trkpt>
            <trkpt lat="44.0980473" lon="19.8323098"><ele>885.5</ele></trkpt>
            <trkpt lat="44.0981089" lon="19.8322561"><ele>885.6</ele></trkpt>
            <trkpt lat="44.0981667" lon="19.8321944"><ele>885.8</ele></trkpt>
            <trkpt lat="44.0983401" lon="19.8319933"><ele>886.0</ele></trkpt>
            <trkpt lat="44.0984152" lon="19.8319182"><ele>886.2</ele></trkpt>
            <trkpt lat="44.0984961" lon="19.8318484"><ele>886.5</ele></trkpt>
            <trkpt lat="44.0985809" lon="19.8317868"><ele>887.0</ele></trkpt>
            <trkpt lat="44.0986714" lon="19.8317304"><ele>888.0</ele></trkpt>
            <trkpt lat="44.0990200" lon="19.8315454"><ele>893.0</ele></trkpt>
            <trkpt lat="44.0990759" lon="19.8315132"><ele>893.8</ele></trkpt>
            <trkpt lat="44.0991279" lon="19.8314729"><ele>894.2</ele></trkpt>
            <trkpt lat="44.0991799" lon="19.8314273"><ele>894.3</ele></trkpt>
            <trkpt lat="44.0992358" lon="19.8313710"><ele>894.4</ele></trkpt>
            <trkpt lat="44.0992878" lon="19.8313066"><ele>894.5</ele></trkpt>
            <trkpt lat="44.0994168" lon="19.8311403"><ele>894.8</ele></trkpt>
            <trkpt lat="44.0995170" lon="19.8310357"><ele>895.8</ele></trkpt>
            <trkpt lat="44.0996172" lon="19.8309338"><ele>897.0</ele></trkpt>
            <trkpt lat="44.0997192" lon="19.8308372"><ele>897.8</ele></trkpt>
            <trkpt lat="44.0998252" lon="19.8307461"><ele>898.8</ele></trkpt>
            <trkpt lat="44.1001449" lon="19.8304966"><ele>903.5</ele></trkpt>
            <trkpt lat="44.1004011" lon="19.8302981"><ele>904.6</ele></trkpt>
            <trkpt lat="44.1005398" lon="19.8301560"><ele>905.2</ele></trkpt>
            <trkpt lat="44.1006496" lon="19.8300138"><ele>905.8</ele></trkpt>
            <trkpt lat="44.1007844" lon="19.8298824"><ele>906.5</ele></trkpt>
            <trkpt lat="44.1011446" lon="19.8295605"><ele>908.2</ele></trkpt>
            <trkpt lat="44.1012717" lon="19.8294666"><ele>910.0</ele></trkpt>
            <trkpt lat="44.1013565" lon="19.8294130"><ele>912.0</ele></trkpt>
            <trkpt lat="44.1013622" lon="19.8292869"><ele>912.8</ele></trkpt>
            <trkpt lat="44.1013160" lon="19.8284528"><ele>913.8</ele></trkpt>
            <trkpt lat="44.1013257" lon="19.8283106"><ele>914.5</ele></trkpt>
            <trkpt lat="44.1013430" lon="19.8281872"><ele>915.5</ele></trkpt>
            <trkpt lat="44.1013969" lon="19.8279512"><ele>919.0</ele></trkpt>
            <trkpt lat="44.1014046" lon="19.8278332"><ele>920.2</ele></trkpt>
            <trkpt lat="44.1013911" lon="19.8277259"><ele>920.5</ele></trkpt>
            <trkpt lat="44.1013507" lon="19.8276025"><ele>919.8</ele></trkpt>
            <trkpt lat="44.1012216" lon="19.8273262"><ele>914.8</ele></trkpt>
            <trkpt lat="44.1011966" lon="19.8272055"><ele>913.2</ele></trkpt>
            <trkpt lat="44.1011850" lon="19.8270687"><ele>912.0</ele></trkpt>
            <trkpt lat="44.1011947" lon="19.8269320"><ele>911.5</ele></trkpt>
            <trkpt lat="44.1012197" lon="19.8266289"><ele>911.2</ele></trkpt>
            <trkpt lat="44.1012448" lon="19.8263606"><ele>914.0</ele></trkpt>
            <trkpt lat="44.1011850" lon="19.8261756"><ele>916.0</ele></trkpt>
            <trkpt lat="44.1010001" lon="19.8260039"><ele>914.2</ele></trkpt>
            <trkpt lat="44.1007844" lon="19.8257491"><ele>913.7</ele></trkpt>
            <trkpt lat="44.1006881" lon="19.8254889"><ele>913.2</ele></trkpt>
            <trkpt lat="44.1006727" lon="19.8251939"><ele>914.5</ele></trkpt>
            <trkpt lat="44.1006842" lon="19.8248452"><ele>913.5</ele></trkpt>
            <trkpt lat="44.1006380" lon="19.8246950"><ele>911.8</ele></trkpt>
            <trkpt lat="44.1005359" lon="19.8245770"><ele>910.8</ele></trkpt>
            <trkpt lat="44.1003876" lon="19.8243436"><ele>910.2</ele></trkpt>
            <trkpt lat="44.1003318" lon="19.8242524"><ele>910.8</ele></trkpt>
            <trkpt lat="44.1002894" lon="19.8241585"><ele>911.8</ele></trkpt>
            <trkpt lat="44.1002643" lon="19.8240754"><ele>912.5</ele></trkpt>
            <trkpt lat="44.1002451" lon="19.8239413"><ele>913.0</ele></trkpt>
            <trkpt lat="44.1002297" lon="19.8238581"><ele>913.2</ele></trkpt>
            <trkpt lat="44.1002046" lon="19.8237482"><ele>913.8</ele></trkpt>
            <trkpt lat="44.1001738" lon="19.8236382"><ele>914.2</ele></trkpt>
            <trkpt lat="44.1000968" lon="19.8233780"><ele>915.8</ele></trkpt>
            <trkpt lat="44.1000351" lon="19.8232225"><ele>917.0</ele></trkpt>
            <trkpt lat="44.0998502" lon="19.8227826"><ele>919.6</ele></trkpt>
            <trkpt lat="44.0998156" lon="19.8226753"><ele>920.2</ele></trkpt>
            <trkpt lat="44.0996942" lon="19.8222354"><ele>918.5</ele></trkpt>
            <trkpt lat="44.0996326" lon="19.8221067"><ele>918.4</ele></trkpt>
            <trkpt lat="44.0995613" lon="19.8220101"><ele>918.2</ele></trkpt>
            <trkpt lat="44.0994611" lon="19.8219189"><ele>918.5</ele></trkpt>
            <trkpt lat="44.0993629" lon="19.8218518"><ele>918.4</ele></trkpt>
            <trkpt lat="44.0992570" lon="19.8218116"><ele>918.2</ele></trkpt>
            <trkpt lat="44.0991606" lon="19.8217902"><ele>918.5</ele></trkpt>
            <trkpt lat="44.0987947" lon="19.8218063"><ele>920.0</ele></trkpt>
            <trkpt lat="44.0988005" lon="19.8217607"><ele>918.8</ele></trkpt>
            <trkpt lat="44.0988005" lon="19.8217607"><ele>918.8</ele></trkpt>
            <trkpt lat="44.0987966" lon="19.8217097"><ele>918.2</ele></trkpt>
            <trkpt lat="44.0987831" lon="19.8216614"><ele>917.8</ele></trkpt>
            <trkpt lat="44.0987639" lon="19.8216265"><ele>917.5</ele></trkpt>
            <trkpt lat="44.0987369" lon="19.8215836"><ele>917.4</ele></trkpt>
            <trkpt lat="44.0986656" lon="19.8215085"><ele>917.2</ele></trkpt>
            <trkpt lat="44.0986078" lon="19.8214039"><ele>917.0</ele></trkpt>
            <trkpt lat="44.0985693" lon="19.8212940"><ele>916.5</ele></trkpt>
            <trkpt lat="44.0984884" lon="19.8210418"><ele>915.8</ele></trkpt>
            <trkpt lat="44.0984595" lon="19.8208809"><ele>915.0</ele></trkpt>
            <trkpt lat="44.0984576" lon="19.8207548"><ele>914.2</ele></trkpt>
            <trkpt lat="44.0985000" lon="19.8202747"><ele>911.2</ele></trkpt>
            <trkpt lat="44.0985096" lon="19.8200843"><ele>910.2</ele></trkpt>
            <trkpt lat="44.0985096" lon="19.8199099"><ele>909.5</ele></trkpt>
            <trkpt lat="44.0985019" lon="19.8197329"><ele>909.0</ele></trkpt>
            <trkpt lat="44.0984865" lon="19.8195666"><ele>908.8</ele></trkpt>
            <trkpt lat="44.0984133" lon="19.8192608"><ele>909.2</ele></trkpt>
            <trkpt lat="44.0983786" lon="19.8191079"><ele>909.8</ele></trkpt>
            <trkpt lat="44.0983632" lon="19.8189873"><ele>910.0</ele></trkpt>
            <trkpt lat="44.0983940" lon="19.8183516"><ele>908.9</ele></trkpt>
            <trkpt lat="44.0984229" lon="19.8181236"><ele>908.5</ele></trkpt>
            <trkpt lat="44.0984730" lon="19.8179036"><ele>907.8</ele></trkpt>
            <trkpt lat="44.0985423" lon="19.8176998"><ele>907.5</ele></trkpt>
            <trkpt lat="44.0986290" lon="19.8175496"><ele>906.8</ele></trkpt>
            <trkpt lat="44.0987388" lon="19.8173887"><ele>905.5</ele></trkpt>
            <trkpt lat="44.0989295" lon="19.8171338"><ele>903.5</ele></trkpt>
            <trkpt lat="44.0990239" lon="19.8169756"><ele>902.8</ele></trkpt>
            <trkpt lat="44.0990855" lon="19.8168334"><ele>902.0</ele></trkpt>
            <trkpt lat="44.0991491" lon="19.8166645"><ele>901.8</ele></trkpt>
            <trkpt lat="44.0992454" lon="19.8163185"><ele>901.0</ele></trkpt>
            <trkpt lat="44.0992897" lon="19.8161843"><ele>900.2</ele></trkpt>
            <trkpt lat="44.0997019" lon="19.8151866"><ele>899.2</ele></trkpt>
            <trkpt lat="44.0998521" lon="19.8149318"><ele>900.3</ele></trkpt>
            <trkpt lat="44.0998945" lon="19.8149076"><ele>900.5</ele></trkpt>
            <trkpt lat="44.0999369" lon="19.8148996"><ele>900.6</ele></trkpt>
            <trkpt lat="44.0999812" lon="19.8149076"><ele>900.7</ele></trkpt>
            <trkpt lat="44.1000197" lon="19.8149291"><ele>900.8</ele></trkpt>
            <trkpt lat="44.1001160" lon="19.8149934"><ele>900.6</ele></trkpt>
            <trkpt lat="44.1001565" lon="19.8149961"><ele>900.5</ele></trkpt>
            <trkpt lat="44.1002027" lon="19.8149693"><ele>900.8</ele></trkpt>
            <trkpt lat="44.1002393" lon="19.8149130"><ele>901.2</ele></trkpt>
            <trkpt lat="44.1002509" lon="19.8148459"><ele>902.0</ele></trkpt>
            <trkpt lat="44.1003106" lon="19.8132822"><ele>919.5</ele></trkpt>
            <trkpt lat="44.1003491" lon="19.8128048"><ele>926.2</ele></trkpt>
            <trkpt lat="44.1003587" lon="19.8126787"><ele>928.2</ele></trkpt>
            <trkpt lat="44.1003626" lon="19.8125446"><ele>930.2</ele></trkpt>
            <trkpt lat="44.1003549" lon="19.8124346"><ele>932.0</ele></trkpt>
            <trkpt lat="44.1003414" lon="19.8123059"><ele>934.0</ele></trkpt>
            <trkpt lat="44.1002894" lon="19.8119035"><ele>939.8</ele></trkpt>
            <trkpt lat="44.1002836" lon="19.8117507"><ele>941.8</ele></trkpt>
            <trkpt lat="44.1002913" lon="19.8115817"><ele>944.0</ele></trkpt>
            <trkpt lat="44.1003183" lon="19.8112035"><ele>949.5</ele></trkpt>
            <trkpt lat="44.1003202" lon="19.8110828"><ele>951.2</ele></trkpt>
            <trkpt lat="44.1003144" lon="19.8109433"><ele>953.2</ele></trkpt>
            <trkpt lat="44.1002971" lon="19.8107636"><ele>956.2</ele></trkpt>
            <trkpt lat="44.1002952" lon="19.8106617"><ele>958.0</ele></trkpt>
            <trkpt lat="44.1003029" lon="19.8105705"><ele>959.5</ele></trkpt>
            <trkpt lat="44.1003202" lon="19.8104846"><ele>960.8</ele></trkpt>
            <trkpt lat="44.1004512" lon="19.8101091"><ele>965.5</ele></trkpt>
            <trkpt lat="44.1005436" lon="19.8099428"><ele>968.0</ele></trkpt>
            <trkpt lat="44.1006034" lon="19.8098302"><ele>970.0</ele></trkpt>
            <trkpt lat="44.1006419" lon="19.8097202"><ele>971.8</ele></trkpt>
            <trkpt lat="44.1006977" lon="19.8095512"><ele>974.5</ele></trkpt>
            <trkpt lat="44.1007149" lon="19.8094969"><ele>975.2</ele></trkpt>
            <trkpt lat="44.1007149" lon="19.8094969"><ele>975.2</ele></trkpt>
            <trkpt lat="44.1007401" lon="19.8094171"><ele>976.2</ele></trkpt>
            <trkpt lat="44.1008730" lon="19.8091865"><ele>978.0</ele></trkpt>
            <trkpt lat="44.1009327" lon="19.8090845"><ele>978.5</ele></trkpt>
            <trkpt lat="44.1009867" lon="19.8089638"><ele>979.0</ele></trkpt>
            <trkpt lat="44.1010348" lon="19.8088190"><ele>980.0</ele></trkpt>
            <trkpt lat="44.1010984" lon="19.8085776"><ele>982.2</ele></trkpt>
            <trkpt lat="44.1011465" lon="19.8084167"><ele>983.5</ele></trkpt>
            <trkpt lat="44.1011773" lon="19.8082718"><ele>984.2</ele></trkpt>
            <trkpt lat="44.1012139" lon="19.8081002"><ele>985.0</ele></trkpt>
            <trkpt lat="44.1012274" lon="19.8079956"><ele>985.5</ele></trkpt>
            <trkpt lat="44.1012351" lon="19.8078963"><ele>986.0</ele></trkpt>
            <trkpt lat="44.1012448" lon="19.8077005"><ele>986.8</ele></trkpt>
            <trkpt lat="44.1012467" lon="19.8076066"><ele>986.8</ele></trkpt>
            <trkpt lat="44.1012698" lon="19.8075181"><ele>986.9</ele></trkpt>
            <trkpt lat="44.1013045" lon="19.8074564"><ele>987.0</ele></trkpt>
            <trkpt lat="44.1013334" lon="19.8074216"><ele>987.0</ele></trkpt>
            <trkpt lat="44.1014990" lon="19.8072553"><ele>986.5</ele></trkpt>
            <trkpt lat="44.1015260" lon="19.8071963"><ele>986.2</ele></trkpt>
            <trkpt lat="44.1015414" lon="19.8071212"><ele>986.0</ele></trkpt>
            <trkpt lat="44.1015510" lon="19.8069870"><ele>985.5</ele></trkpt>
            <trkpt lat="44.1015664" lon="19.8068824"><ele>984.8</ele></trkpt>
            <trkpt lat="44.1015857" lon="19.8068047"><ele>984.2</ele></trkpt>
            <trkpt lat="44.1016281" lon="19.8066759"><ele>983.5</ele></trkpt>
            <trkpt lat="44.1016589" lon="19.8065767"><ele>983.4</ele></trkpt>
            <trkpt lat="44.1017263" lon="19.8062575"><ele>983.2</ele></trkpt>
            <trkpt lat="44.1017571" lon="19.8061636"><ele>983.5</ele></trkpt>
            <trkpt lat="44.1017975" lon="19.8060805"><ele>984.0</ele></trkpt>
            <trkpt lat="44.1018476" lon="19.8060134"><ele>984.5</ele></trkpt>
            <trkpt lat="44.1019054" lon="19.8059598"><ele>985.2</ele></trkpt>
            <trkpt lat="44.1023580" lon="19.8055682"><ele>989.5</ele></trkpt>
            <trkpt lat="44.1024659" lon="19.8054501"><ele>990.8</ele></trkpt>
            <trkpt lat="44.1025622" lon="19.8053294"><ele>992.5</ele></trkpt>
            <trkpt lat="44.1026566" lon="19.8051980"><ele>994.2</ele></trkpt>
            <trkpt lat="44.1033577" lon="19.8039991"><ele>998.8</ele></trkpt>
            <trkpt lat="44.1033962" lon="19.8039320"><ele>999.5</ele></trkpt>
            <trkpt lat="44.1034424" lon="19.8038757"><ele>1000.2</ele></trkpt>
            <trkpt lat="44.1035252" lon="19.8037952"><ele>1001.8</ele></trkpt>
            <trkpt lat="44.1035927" lon="19.8036960"><ele>1002.8</ele></trkpt>
            <trkpt lat="44.1038045" lon="19.8034573"><ele>1004.5</ele></trkpt>
            <trkpt lat="44.1038642" lon="19.8033580"><ele>1004.8</ele></trkpt>
            <trkpt lat="44.1039278" lon="19.8032480"><ele>1005.0</ele></trkpt>
            <trkpt lat="44.1040087" lon="19.8030764"><ele>1005.8</ele></trkpt>
            <trkpt lat="44.1040510" lon="19.8029771"><ele>1006.2</ele></trkpt>
            <trkpt lat="44.1040953" lon="19.8028940"><ele>1006.5</ele></trkpt>
            <trkpt lat="44.1041570" lon="19.8028082"><ele>1007.0</ele></trkpt>
            <trkpt lat="44.1043737" lon="19.8025269"><ele>1009.1</ele></trkpt>
            <trkpt lat="44.1043357" lon="19.8024704"><ele>1009.1</ele></trkpt>
            <trkpt lat="44.1050919" lon="19.8029307"><ele>1009.1</ele></trkpt>
        </trkseg>
    </trk>
    <trk>
        <name>День 2</name>
        <trkseg>
            <trkpt lat="44.1050857" lon="19.8029574"><ele>1012.6</ele></trkpt>
            <trkpt lat="44.1046580" lon="19.8021795"><ele>1012.6</ele></trkpt>
            <trkpt lat="44.1045942" lon="19.8022476"><ele>1011.8</ele></trkpt>
            <trkpt lat="44.1044998" lon="19.8023629"><ele>1010.2</ele></trkpt>
            <trkpt lat="44.1043803" lon="19.8025182"><ele>1009.1</ele></trkpt>
            <trkpt lat="44.1043803" lon="19.8025182"><ele>1009.1</ele></trkpt>
            <trkpt lat="44.1041570" lon="19.8028082"><ele>1007.0</ele></trkpt>
            <trkpt lat="44.1040953" lon="19.8028940"><ele>1006.5</ele></trkpt>
            <trkpt lat="44.1040510" lon="19.8029771"><ele>1006.2</ele></trkpt>
            <trkpt lat="44.1040087" lon="19.8030764"><ele>1005.8</ele></trkpt>
            <trkpt lat="44.1039278" lon="19.8032480"><ele>1005.0</ele></trkpt>
            <trkpt lat="44.1038642" lon="19.8033580"><ele>1004.8</ele></trkpt>
            <trkpt lat="44.1038045" lon="19.8034573"><ele>1004.5</ele></trkpt>
            <trkpt lat="44.1035927" lon="19.8036960"><ele>1002.8</ele></trkpt>
            <trkpt lat="44.1035252" lon="19.8037952"><ele>1001.8</ele></trkpt>
            <trkpt lat="44.1034424" lon="19.8038757"><ele>1000.2</ele></trkpt>
            <trkpt lat="44.1033962" lon="19.8039320"><ele>999.5</ele></trkpt>
            <trkpt lat="44.1033577" lon="19.8039991"><ele>998.8</ele></trkpt>
            <trkpt lat="44.1026566" lon="19.8051980"><ele>994.2</ele></trkpt>
            <trkpt lat="44.1025622" lon="19.8053294"><ele>992.5</ele></trkpt>
            <trkpt lat="44.1024659" lon="19.8054501"><ele>990.8</ele></trkpt>
            <trkpt lat="44.1023580" lon="19.8055682"><ele>989.5</ele></trkpt>
            <trkpt lat="44.1019054" lon="19.8059598"><ele>985.2</ele></trkpt>
            <trkpt lat="44.1018476" lon="19.8060134"><ele>984.5</ele></trkpt>
            <trkpt lat="44.1017975" lon="19.8060805"><ele>984.0</ele></trkpt>
            <trkpt lat="44.1017571" lon="19.8061636"><ele>983.5</ele></trkpt>
            <trkpt lat="44.1017263" lon="19.8062575"><ele>983.2</ele></trkpt>
            <trkpt lat="44.1016589" lon="19.8065767"><ele>983.4</ele></trkpt>
            <trkpt lat="44.1016281" lon="19.8066759"><ele>983.5</ele></trkpt>
            <trkpt lat="44.1015857" lon="19.8068047"><ele>984.2</ele></trkpt>
            <trkpt lat="44.1015664" lon="19.8068824"><ele>984.8</ele></trkpt>
            <trkpt lat="44.1015510" lon="19.8069870"><ele>985.5</ele></trkpt>
            <trkpt lat="44.1015414" lon="19.8071212"><ele>986.0</ele></trkpt>
            <trkpt lat="44.1015260" lon="19.8071963"><ele>986.2</ele></trkpt>
            <trkpt lat="44.1014990" lon="19.8072553"><ele>986.5</ele></trkpt>
            <trkpt lat="44.1013334" lon="19.8074216"><ele>987.0</ele></trkpt>
            <trkpt lat="44.1013045" lon="19.8074564"><ele>987.0</ele></trkpt>
            <trkpt lat="44.1012698" lon="19.8075181"><ele>986.9</ele></trkpt>
            <trkpt lat="44.1012467" lon="19.8076066"><ele>986.8</ele></trkpt>
            <trkpt lat="44.1012456" lon="19.8076618"><ele>986.8</ele></trkpt>
            <trkpt lat="44.1012456" lon="19.8076618"><ele>986.8</ele></trkpt>
            <trkpt lat="44.1012448" lon="19.8077005"><ele>986.8</ele></trkpt>
            <trkpt lat="44.1012351" lon="19.8078963"><ele>986.0</ele></trkpt>
            <trkpt lat="44.1012274" lon="19.8079956"><ele>985.5</ele></trkpt>
            <trkpt lat="44.1012139" lon="19.8081002"><ele>985.0</ele></trkpt>
            <trkpt lat="44.1011773" lon="19.8082718"><ele>984.2</ele></trkpt>
            <trkpt lat="44.1011465" lon="19.8084167"><ele>983.5</ele></trkpt>
            <trkpt lat="44.1010984" lon="19.8085776"><ele>982.2</ele></trkpt>
            <trkpt lat="44.1010348" lon="19.8088190"><ele>980.0</ele></trkpt>
            <trkpt lat="44.1009867" lon="19.8089638"><ele>979.0</ele></trkpt>
            <trkpt lat="44.1009327" lon="19.8090845"><ele>978.5</ele></trkpt>
            <trkpt lat="44.1008730" lon="19.8091865"><ele>978.0</ele></trkpt>
            <trkpt lat="44.1007401" lon="19.8094171"><ele>976.2</ele></trkpt>
            <trkpt lat="44.1006977" lon="19.8095512"><ele>974.5</ele></trkpt>
            <trkpt lat="44.1006419" lon="19.8097202"><ele>971.8</ele></trkpt>
            <trkpt lat="44.1006034" lon="19.8098302"><ele>970.0</ele></trkpt>
            <trkpt lat="44.1005436" lon="19.8099428"><ele>968.0</ele></trkpt>
            <trkpt lat="44.1004512" lon="19.8101091"><ele>965.5</ele></trkpt>
            <trkpt lat="44.1003202" lon="19.8104846"><ele>960.8</ele></trkpt>
            <trkpt lat="44.1003029" lon="19.8105705"><ele>959.5</ele></trkpt>
            <trkpt lat="44.1002952" lon="19.8106617"><ele>958.0</ele></trkpt>
            <trkpt lat="44.1002971" lon="19.8107636"><ele>956.2</ele></trkpt>
            <trkpt lat="44.1003144" lon="19.8109433"><ele>953.2</ele></trkpt>
            <trkpt lat="44.1003202" lon="19.8110828"><ele>951.2</ele></trkpt>
            <trkpt lat="44.1003183" lon="19.8112035"><ele>949.5</ele></trkpt>
            <trkpt lat="44.1002913" lon="19.8115817"><ele>944.0</ele></trkpt>
            <trkpt lat="44.1002836" lon="19.8117507"><ele>941.8</ele></trkpt>
            <trkpt lat="44.1002894" lon="19.8119035"><ele>939.8</ele></trkpt>
            <trkpt lat="44.1003414" lon="19.8123059"><ele>934.0</ele></trkpt>
            <trkpt lat="44.1003549" lon="19.8124346"><ele>932.0</ele></trkpt>
            <trkpt lat="44.1003626" lon="19.8125446"><ele>930.2</ele></trkpt>
            <trkpt lat="44.1003587" lon="19.8126787"><ele>928.2</ele></trkpt>
            <trkpt lat="44.1003491" lon="19.8128048"><ele>926.2</ele></trkpt>
            <trkpt lat="44.1003106" lon="19.8132822"><ele>919.5</ele></trkpt>
            <trkpt lat="44.1002509" lon="19.8148459"><ele>902.0</ele></trkpt>
            <trkpt lat="44.1002393" lon="19.8149130"><ele>901.2</ele></trkpt>
            <trkpt lat="44.1002027" lon="19.8149693"><ele>900.8</ele></trkpt>
            <trkpt lat="44.1001565" lon="19.8149961"><ele>900.5</ele></trkpt>
            <trkpt lat="44.1001160" lon="19.8149934"><ele>900.6</ele></trkpt>
            <trkpt lat="44.1000197" lon="19.8149291"><ele>900.8</ele></trkpt>
            <trkpt lat="44.0999812" lon="19.8149076"><ele>900.7</ele></trkpt>
            <trkpt lat="44.0999369" lon="19.8148996"><ele>900.6</ele></trkpt>
            <trkpt lat="44.0998945" lon="19.8149076"><ele>900.5</ele></trkpt>
            <trkpt lat="44.0998521" lon="19.8149318"><ele>900.3</ele></trkpt>
            <trkpt lat="44.0997019" lon="19.8151866"><ele>899.2</ele></trkpt>
            <trkpt lat="44.0992897" lon="19.8161843"><ele>900.2</ele></trkpt>
            <trkpt lat="44.0992454" lon="19.8163185"><ele>901.0</ele></trkpt>
            <trkpt lat="44.0991491" lon="19.8166645"><ele>901.8</ele></trkpt>
            <trkpt lat="44.0990855" lon="19.8168334"><ele>902.0</ele></trkpt>
            <trkpt lat="44.0990239" lon="19.8169756"><ele>902.8</ele></trkpt>
            <trkpt lat="44.0989295" lon="19.8171338"><ele>903.5</ele></trkpt>
            <trkpt lat="44.0987388" lon="19.8173887"><ele>905.5</ele></trkpt>
            <trkpt lat="44.0986290" lon="19.8175496"><ele>906.8</ele></trkpt>
            <trkpt lat="44.0985423" lon="19.8176998"><ele>907.5</ele></trkpt>
            <trkpt lat="44.0984730" lon="19.8179036"><ele>907.8</ele></trkpt>
            <trkpt lat="44.0984229" lon="19.8181236"><ele>908.5</ele></trkpt>
            <trkpt lat="44.0983940" lon="19.8183516"><ele>908.9</ele></trkpt>
            <trkpt lat="44.0983632" lon="19.8189873"><ele>910.0</ele></trkpt>
            <trkpt lat="44.0983786" lon="19.8191079"><ele>909.8</ele></trkpt>
            <trkpt lat="44.0984133" lon="19.8192608"><ele>909.2</ele></trkpt>
            <trkpt lat="44.0984865" lon="19.8195666"><ele>908.8</ele></trkpt>
            <trkpt lat="44.0985019" lon="19.8197329"><ele>909.0</ele></trkpt>
            <trkpt lat="44.0985096" lon="19.8199099"><ele>909.5</ele></trkpt>
            <trkpt lat="44.0985096" lon="19.8200843"><ele>910.2</ele></trkpt>
            <trkpt lat="44.0985000" lon="19.8202747"><ele>911.2</ele></trkpt>
            <trkpt lat="44.0984576" lon="19.8207548"><ele>914.2</ele></trkpt>
            <trkpt lat="44.0984595" lon="19.8208809"><ele>915.0</ele></trkpt>
            <trkpt lat="44.0984884" lon="19.8210418"><ele>915.8</ele></trkpt>
            <trkpt lat="44.0985693" lon="19.8212940"><ele>916.5</ele></trkpt>
            <trkpt lat="44.0986078" lon="19.8214039"><ele>917.0</ele></trkpt>
            <trkpt lat="44.0986656" lon="19.8215085"><ele>917.2</ele></trkpt>
            <trkpt lat="44.0987369" lon="19.8215836"><ele>917.4</ele></trkpt>
            <trkpt lat="44.0987639" lon="19.8216265"><ele>917.5</ele></trkpt>
            <trkpt lat="44.0987831" lon="19.8216614"><ele>917.8</ele></trkpt>
            <trkpt lat="44.0987966" lon="19.8217097"><ele>918.2</ele></trkpt>
            <trkpt lat="44.0988005" lon="19.8217607"><ele>918.8</ele></trkpt>
            <trkpt lat="44.0987947" lon="19.8218063"><ele>920.0</ele></trkpt>
            <trkpt lat="44.0991606" lon="19.8217902"><ele>918.5</ele></trkpt>
            <trkpt lat="44.0992570" lon="19.8218116"><ele>918.2</ele></trkpt>
            <trkpt lat="44.0993629" lon="19.8218518"><ele>918.4</ele></trkpt>
            <trkpt lat="44.0994611" lon="19.8219189"><ele>918.5</ele></trkpt>
            <trkpt lat="44.0995613" lon="19.8220101"><ele>918.2</ele></trkpt>
            <trkpt lat="44.0996326" lon="19.8221067"><ele>918.4</ele></trkpt>
            <trkpt lat="44.0996942" lon="19.8222354"><ele>918.5</ele></trkpt>
            <trkpt lat="44.0998156" lon="19.8226753"><ele>920.2</ele></trkpt>
            <trkpt lat="44.0998502" lon="19.8227826"><ele>919.6</ele></trkpt>
            <trkpt lat="44.1000351" lon="19.8232225"><ele>917.0</ele></trkpt>
            <trkpt lat="44.1000968" lon="19.8233780"><ele>915.8</ele></trkpt>
            <trkpt lat="44.1001738" lon="19.8236382"><ele>914.2</ele></trkpt>
            <trkpt lat="44.1002046" lon="19.8237482"><ele>913.8</ele></trkpt>
            <trkpt lat="44.1002297" lon="19.8238581"><ele>913.2</ele></trkpt>
            <trkpt lat="44.1002451" lon="19.8239413"><ele>913.0</ele></trkpt>
            <trkpt lat="44.1002643" lon="19.8240754"><ele>912.5</ele></trkpt>
            <trkpt lat="44.1002894" lon="19.8241585"><ele>911.8</ele></trkpt>
            <trkpt lat="44.1003318" lon="19.8242524"><ele>910.8</ele></trkpt>
            <trkpt lat="44.1003876" lon="19.8243436"><ele>910.2</ele></trkpt>
            <trkpt lat="44.1005359" lon="19.8245770"><ele>910.8</ele></trkpt>
            <trkpt lat="44.1006380" lon="19.8246950"><ele>911.8</ele></trkpt>
            <trkpt lat="44.1006842" lon="19.8248452"><ele>913.5</ele></trkpt>
            <trkpt lat="44.1006727" lon="19.8251939"><ele>914.5</ele></trkpt>
            <trkpt lat="44.1006881" lon="19.8254889"><ele>913.2</ele></trkpt>
            <trkpt lat="44.1007844" lon="19.8257491"><ele>913.7</ele></trkpt>
            <trkpt lat="44.1010001" lon="19.8260039"><ele>914.2</ele></trkpt>
            <trkpt lat="44.1011850" lon="19.8261756"><ele>916.0</ele></trkpt>
            <trkpt lat="44.1012448" lon="19.8263606"><ele>914.0</ele></trkpt>
            <trkpt lat="44.1012197" lon="19.8266289"><ele>911.2</ele></trkpt>
            <trkpt lat="44.1011947" lon="19.8269320"><ele>911.5</ele></trkpt>
            <trkpt lat="44.1011850" lon="19.8270687"><ele>912.0</ele></trkpt>
            <trkpt lat="44.1011966" lon="19.8272055"><ele>913.2</ele></trkpt>
            <trkpt lat="44.1012216" lon="19.8273262"><ele>914.8</ele></trkpt>
            <trkpt lat="44.1013507" lon="19.8276025"><ele>919.8</ele></trkpt>
            <trkpt lat="44.1013911" lon="19.8277259"><ele>920.5</ele></trkpt>
            <trkpt lat="44.1014046" lon="19.8278332"><ele>920.2</ele></trkpt>
            <trkpt lat="44.1013969" lon="19.8279512"><ele>919.0</ele></trkpt>
            <trkpt lat="44.1013430" lon="19.8281872"><ele>915.5</ele></trkpt>
            <trkpt lat="44.1013257" lon="19.8283106"><ele>914.5</ele></trkpt>
            <trkpt lat="44.1013160" lon="19.8284528"><ele>913.8</ele></trkpt>
            <trkpt lat="44.1013622" lon="19.8292869"><ele>912.8</ele></trkpt>
            <trkpt lat="44.1013595" lon="19.8293476"><ele>912.4</ele></trkpt>
            <trkpt lat="44.1013595" lon="19.8293476"><ele>912.4</ele></trkpt>
            <trkpt lat="44.1013565" lon="19.8294130"><ele>911.0</ele></trkpt>
            <trkpt lat="44.1023388" lon="19.8287988"><ele>922.8</ele></trkpt>
            <trkpt lat="44.1025468" lon="19.8286191"><ele>927.5</ele></trkpt>
            <trkpt lat="44.1028087" lon="19.8286325"><ele>924.0</ele></trkpt>
            <trkpt lat="44.1030071" lon="19.8285708"><ele>921.0</ele></trkpt>
            <trkpt lat="44.1031265" lon="19.8284099"><ele>921.2</ele></trkpt>
            <trkpt lat="44.1032652" lon="19.8282623"><ele>919.2</ele></trkpt>
            <trkpt lat="44.1035734" lon="19.8280451"><ele>911.8</ele></trkpt>
            <trkpt lat="44.1039547" lon="19.8278251"><ele>905.2</ele></trkpt>
            <trkpt lat="44.1042109" lon="19.8277205"><ele>901.2</ele></trkpt>
            <trkpt lat="44.1045306" lon="19.8277017"><ele>900.0</ele></trkpt>
            <trkpt lat="44.1051932" lon="19.8272565"><ele>892.5</ele></trkpt>
            <trkpt lat="44.1059154" lon="19.8266315"><ele>877.0</ele></trkpt>
            <trkpt lat="44.1064123" lon="19.8267308"><ele>874.5</ele></trkpt>
            <trkpt lat="44.1067744" lon="19.8268434"><ele>865.8</ele></trkpt>
            <trkpt lat="44.1070055" lon="19.8268300"><ele>858.5</ele></trkpt>
            <trkpt lat="44.1071345" lon="19.8265296"><ele>853.5</ele></trkpt>
            <trkpt lat="44.1071519" lon="19.8265082"><ele>853.0</ele></trkpt>
            <trkpt lat="44.1071731" lon="19.8264974"><ele>852.5</ele></trkpt>
            <trkpt lat="44.1071904" lon="19.8264921"><ele>852.0</ele></trkpt>
            <trkpt lat="44.1072154" lon="19.8265001"><ele>852.0</ele></trkpt>
            <trkpt lat="44.1072385" lon="19.8265189"><ele>851.8</ele></trkpt>
            <trkpt lat="44.1072848" lon="19.8265699"><ele>851.2</ele></trkpt>
            <trkpt lat="44.1073117" lon="19.8266074"><ele>851.0</ele></trkpt>
            <trkpt lat="44.1074023" lon="19.8267710"><ele>850.0</ele></trkpt>
            <trkpt lat="44.1075101" lon="19.8269990"><ele>847.5</ele></trkpt>
            <trkpt lat="44.1075640" lon="19.8270822"><ele>846.5</ele></trkpt>
            <trkpt lat="44.1076276" lon="19.8271519"><ele>845.5</ele></trkpt>
            <trkpt lat="44.1077008" lon="19.8272082"><ele>844.2</ele></trkpt>
            <trkpt lat="44.1078625" lon="19.8273370"><ele>842.2</ele></trkpt>
            <trkpt lat="44.1080185" lon="19.8274550"><ele>841.0</ele></trkpt>
            <trkpt lat="44.1082458" lon="19.8275810"><ele>838.8</ele></trkpt>
            <trkpt lat="44.1084076" lon="19.8276696"><ele>837.5</ele></trkpt>
            <trkpt lat="44.1084865" lon="19.8277232"><ele>836.8</ele></trkpt>
            <trkpt lat="44.1085616" lon="19.8278064"><ele>835.8</ele></trkpt>
            <trkpt lat="44.1086560" lon="19.8279244"><ele>834.5</ele></trkpt>
            <trkpt lat="44.1087022" lon="19.8279861"><ele>834.0</ele></trkpt>
            <trkpt lat="44.1087234" lon="19.8281336"><ele>834.5</ele></trkpt>
            <trkpt lat="44.1087735" lon="19.8283616"><ele>834.8</ele></trkpt>
            <trkpt lat="44.1089738" lon="19.8285708"><ele>834.5</ele></trkpt>
            <trkpt lat="44.1091240" lon="19.8287746"><ele>834.3</ele></trkpt>
            <trkpt lat="44.1093609" lon="19.8292038"><ele>834.0</ele></trkpt>
            <trkpt lat="44.1094803" lon="19.8295256"><ele>831.5</ele></trkpt>
            <trkpt lat="44.1094495" lon="19.8296437"><ele>830.0</ele></trkpt>
            <trkpt lat="44.1096652" lon="19.8297027"><ele>827.8</ele></trkpt>
            <trkpt lat="44.1099560" lon="19.8296651"><ele>830.5</ele></trkpt>
            <trkpt lat="44.1102641" lon="19.8298100"><ele>830.2</ele></trkpt>
            <trkpt lat="44.1104085" lon="19.8300889"><ele>822.5</ele></trkpt>
            <trkpt lat="44.1105048" lon="19.8305503"><ele>809.8</ele></trkpt>
            <trkpt lat="44.1105780" lon="19.8309660"><ele>801.0</ele></trkpt>
            <trkpt lat="44.1106974" lon="19.8313361"><ele>794.8</ele></trkpt>
            <trkpt lat="44.1109767" lon="19.8314890"><ele>790.0</ele></trkpt>
            <trkpt lat="44.1109690" lon="19.8315802"><ele>789.0</ele></trkpt>
            <trkpt lat="44.1108053" lon="19.8317546"><ele>788.6</ele></trkpt>
            <trkpt lat="44.1106262" lon="19.8317546"><ele>788.2</ele></trkpt>
            <trkpt lat="44.1104971" lon="19.8317197"><ele>787.2</ele></trkpt>
            <trkpt lat="44.1103200" lon="19.8316419"><ele>784.0</ele></trkpt>
            <trkpt lat="44.1104085" lon="19.8319477"><ele>780.2</ele></trkpt>
            <trkpt lat="44.1104875" lon="19.8321354"><ele>779.0</ele></trkpt>
            <trkpt lat="44.1107359" lon="19.8322105"><ele>780.0</ele></trkpt>
            <trkpt lat="44.1111596" lon="19.8322159"><ele>776.5</ele></trkpt>
            <trkpt lat="44.1114677" lon="19.8321033"><ele>774.0</ele></trkpt>
            <trkpt lat="44.1116353" lon="19.8320711"><ele>771.8</ele></trkpt>
            <trkpt lat="44.1118125" lon="19.8321488"><ele>768.8</ele></trkpt>
            <trkpt lat="44.1119954" lon="19.8321810"><ele>766.2</ele></trkpt>
            <trkpt lat="44.1123459" lon="19.8324332"><ele>761.0</ele></trkpt>
            <trkpt lat="44.1126964" lon="19.8327550"><ele>752.2</ele></trkpt>
            <trkpt lat="44.1129063" lon="19.8332298"><ele>743.0</ele></trkpt>
            <trkpt lat="44.1127511" lon="19.8332819"><ele>742.3</ele></trkpt>
            <trkpt lat="44.1127511" lon="19.8332819"><ele>742.3</ele></trkpt>
            <trkpt lat="44.1118202" lon="19.8335946"><ele>738.0</ele></trkpt>
            <trkpt lat="44.1116334" lon="19.8336402"><ele>737.2</ele></trkpt>
            <trkpt lat="44.1112270" lon="19.8339915"><ele>732.0</ele></trkpt>
            <trkpt lat="44.1109208" lon="19.8342061"><ele>726.2</ele></trkpt>
            <trkpt lat="44.1106936" lon="19.8344475"><ele>718.0</ele></trkpt>
            <trkpt lat="44.1105414" lon="19.8345387"><ele>715.5</ele></trkpt>
            <trkpt lat="44.1104836" lon="19.8346514"><ele>713.0</ele></trkpt>
            <trkpt lat="44.1106050" lon="19.8347667"><ele>711.5</ele></trkpt>
            <trkpt lat="44.1107610" lon="19.8348364"><ele>710.5</ele></trkpt>
            <trkpt lat="44.1113406" lon="19.8349008"><ele>707.2</ele></trkpt>
            <trkpt lat="44.1116199" lon="19.8350134"><ele>703.8</ele></trkpt>
            <trkpt lat="44.1118202" lon="19.8349947"><ele>704.8</ele></trkpt>
            <trkpt lat="44.1119473" lon="19.8350403"><ele>705.0</ele></trkpt>
            <trkpt lat="44.1119453" lon="19.8351717"><ele>702.5</ele></trkpt>
            <trkpt lat="44.1118567" lon="19.8356035"><ele>693.0</ele></trkpt>
            <trkpt lat="44.1118144" lon="19.8361561"><ele>680.8</ele></trkpt>
            <trkpt lat="44.1120628" lon="19.8366871"><ele>675.8</ele></trkpt>
            <trkpt lat="44.1123324" lon="19.8370358"><ele>666.8</ele></trkpt>
            <trkpt lat="44.1128485" lon="19.8370412"><ele>663.8</ele></trkpt>
            <trkpt lat="44.1131008" lon="19.8370197"><ele>661.5</ele></trkpt>
            <trkpt lat="44.1133203" lon="19.8371136"><ele>657.0</ele></trkpt>
            <trkpt lat="44.1134705" lon="19.8371914"><ele>654.2</ele></trkpt>
            <trkpt lat="44.1137305" lon="19.8372504"><ele>652.0</ele></trkpt>
            <trkpt lat="44.1139558" lon="19.8372880"><ele>651.5</ele></trkpt>
            <trkpt lat="44.1143852" lon="19.8374408"><ele>649.5</ele></trkpt>
            <trkpt lat="44.1149321" lon="19.8378190"><ele>646.8</ele></trkpt>
            <trkpt lat="44.1152980" lon="19.8380309"><ele>642.5</ele></trkpt>
            <trkpt lat="44.1155676" lon="19.8380470"><ele>642.8</ele></trkpt>
            <trkpt lat="44.1156677" lon="19.8381141"><ele>642.5</ele></trkpt>
            <trkpt lat="44.1156889" lon="19.8382053"><ele>641.5</ele></trkpt>
            <trkpt lat="44.1156369" lon="19.8385406"><ele>637.8</ele></trkpt>
            <trkpt lat="44.1156966" lon="19.8386452"><ele>636.8</ele></trkpt>
            <trkpt lat="44.1158680" lon="19.8386934"><ele>635.2</ele></trkpt>
            <trkpt lat="44.1164611" lon="19.8386639"><ele>623.2</ele></trkpt>
            <trkpt lat="44.1166729" lon="19.8384333"><ele>620.0</ele></trkpt>
            <trkpt lat="44.1167538" lon="19.8383528"><ele>619.0</ele></trkpt>
            <trkpt lat="44.1168886" lon="19.8382938"><ele>616.8</ele></trkpt>
            <trkpt lat="44.1171216" lon="19.8384494"><ele>611.8</ele></trkpt>
            <trkpt lat="44.1173892" lon="19.8386291"><ele>608.0</ele></trkpt>
            <trkpt lat="44.1177455" lon="19.8391226"><ele>597.8</ele></trkpt>
            <trkpt lat="44.1179342" lon="19.8395330"><ele>595.2</ele></trkpt>
            <trkpt lat="44.1180497" lon="19.8396671"><ele>594.8</ele></trkpt>
            <trkpt lat="44.1181499" lon="19.8397502"><ele>594.5</ele></trkpt>
            <trkpt lat="44.1182269" lon="19.8398548"><ele>594.8</ele></trkpt>
            <trkpt lat="44.1182635" lon="19.8399138"><ele>594.5</ele></trkpt>
            <trkpt lat="44.1182904" lon="19.8399755"><ele>594.2</ele></trkpt>
            <trkpt lat="44.1183000" lon="19.8400426"><ele>594.2</ele></trkpt>
            <trkpt lat="44.1182615" lon="19.8401392"><ele>594.0</ele></trkpt>
            <trkpt lat="44.1179438" lon="19.8405442"><ele>588.8</ele></trkpt>
            <trkpt lat="44.1178514" lon="19.8407400"><ele>585.2</ele></trkpt>
            <trkpt lat="44.1177936" lon="19.8410699"><ele>578.5</ele></trkpt>
            <trkpt lat="44.1178283" lon="19.8413005"><ele>572.2</ele></trkpt>
            <trkpt lat="44.1178129" lon="19.8414481"><ele>569.8</ele></trkpt>
            <trkpt lat="44.1177609" lon="19.8415098"><ele>570.2</ele></trkpt>
            <trkpt lat="44.1176492" lon="19.8415205"><ele>572.2</ele></trkpt>
            <trkpt lat="44.1175529" lon="19.8413837"><ele>574.5</ele></trkpt>
            <trkpt lat="44.1174008" lon="19.8410591"><ele>577.2</ele></trkpt>
            <trkpt lat="44.1172583" lon="19.8409706"><ele>575.0</ele></trkpt>
            <trkpt lat="44.1170927" lon="19.8409814"><ele>571.8</ele></trkpt>
            <trkpt lat="44.1170176" lon="19.8410270"><ele>570.5</ele></trkpt>
            <trkpt lat="44.1169733" lon="19.8411772"><ele>567.8</ele></trkpt>
            <trkpt lat="44.1170041" lon="19.8413891"><ele>564.0</ele></trkpt>
            <trkpt lat="44.1171254" lon="19.8415983"><ele>561.2</ele></trkpt>
            <trkpt lat="44.1172718" lon="19.8418102"><ele>561.0</ele></trkpt>
            <trkpt lat="44.1173161" lon="19.8422742"><ele>548.5</ele></trkpt>
            <trkpt lat="44.1173661" lon="19.8423305"><ele>546.8</ele></trkpt>
            <trkpt lat="44.1174239" lon="19.8423654"><ele>545.5</ele></trkpt>
            <trkpt lat="44.1175914" lon="19.8423198"><ele>546.8</ele></trkpt>
            <trkpt lat="44.1181364" lon="19.8423091"><ele>531.8</ele></trkpt>
            <trkpt lat="44.1183020" lon="19.8423359"><ele>525.5</ele></trkpt>
            <trkpt lat="44.1183520" lon="19.8424298"><ele>523.2</ele></trkpt>
            <trkpt lat="44.1183366" lon="19.8425397"><ele>522.7</ele></trkpt>
            <trkpt lat="44.1182769" lon="19.8426068"><ele>522.2</ele></trkpt>
            <trkpt lat="44.1180324" lon="19.8426551"><ele>525.5</ele></trkpt>
            <trkpt lat="44.1179034" lon="19.8427624"><ele>524.0</ele></trkpt>
            <trkpt lat="44.1176973" lon="19.8428696"><ele>522.0</ele></trkpt>
            <trkpt lat="44.1176569" lon="19.8429286"><ele>520.5</ele></trkpt>
            <trkpt lat="44.1176415" lon="19.8430225"><ele>520.5</ele></trkpt>
            <trkpt lat="44.1176463" lon="19.8431524"><ele>520.5</ele></trkpt>
            <trkpt lat="44.1176463" lon="19.8431524"><ele>517.2</ele></trkpt>
            <trkpt lat="44.1176492" lon="19.8432317"><ele>514.0</ele></trkpt>
            <trkpt lat="44.1176935" lon="19.8433712"><ele>515.0</ele></trkpt>
            <trkpt lat="44.1177493" lon="19.8434731"><ele>515.8</ele></trkpt>
            <trkpt lat="44.1178572" lon="19.8435777"><ele>516.2</ele></trkpt>
            <trkpt lat="44.1179862" lon="19.8436689"><ele>517.2</ele></trkpt>
            <trkpt lat="44.1181961" lon="19.8437011"><ele>518.5</ele></trkpt>
            <trkpt lat="44.1184926" lon="19.8437279"><ele>521.0</ele></trkpt>
            <trkpt lat="44.1186929" lon="19.8437977"><ele>522.0</ele></trkpt>
            <trkpt lat="44.1190010" lon="19.8439908"><ele>519.4</ele></trkpt>
            <trkpt lat="44.1192320" lon="19.8440820"><ele>517.5</ele></trkpt>
            <trkpt lat="44.1195285" lon="19.8441947"><ele>519.5</ele></trkpt>
            <trkpt lat="44.1197442" lon="19.8444200"><ele>518.0</ele></trkpt>
            <trkpt lat="44.1197769" lon="19.8445916"><ele>515.8</ele></trkpt>
            <trkpt lat="44.1197712" lon="19.8447418"><ele>514.5</ele></trkpt>
            <trkpt lat="44.1196556" lon="19.8450261"><ele>511.8</ele></trkpt>
            <trkpt lat="44.1195016" lon="19.8452675"><ele>510.5</ele></trkpt>
            <trkpt lat="44.1193437" lon="19.8454767"><ele>510.2</ele></trkpt>
            <trkpt lat="44.1192128" lon="19.8458630"><ele>512.5</ele></trkpt>
            <trkpt lat="44.1191704" lon="19.8461902"><ele>514.8</ele></trkpt>
            <trkpt lat="44.1192243" lon="19.8465335"><ele>517.8</ele></trkpt>
            <trkpt lat="44.1193167" lon="19.8467749"><ele>517.2</ele></trkpt>
            <trkpt lat="44.1195728" lon="19.8469386"><ele>520.2</ele></trkpt>
            <trkpt lat="44.1197519" lon="19.8470244"><ele>521.2</ele></trkpt>
            <trkpt lat="44.1199137" lon="19.8471102"><ele>521.5</ele></trkpt>
            <trkpt lat="44.1202506" lon="19.8472819"><ele>521.8</ele></trkpt>
            <trkpt lat="44.1204027" lon="19.8475045"><ele>518.2</ele></trkpt>
            <trkpt lat="44.1205125" lon="19.8477834"><ele>513.8</ele></trkpt>
            <trkpt lat="44.1205760" lon="19.8480007"><ele>512.2</ele></trkpt>
            <trkpt lat="44.1205934" lon="19.8483440"><ele>511.8</ele></trkpt>
            <trkpt lat="44.1205337" lon="19.8486069"><ele>510.0</ele></trkpt>
            <trkpt lat="44.1204432" lon="19.8489475"><ele>507.2</ele></trkpt>
            <trkpt lat="44.1203007" lon="19.8492077"><ele>505.5</ele></trkpt>
            <trkpt lat="44.1202776" lon="19.8492989"><ele>505.0</ele></trkpt>
            <trkpt lat="44.1203315" lon="19.8494866"><ele>507.8</ele></trkpt>
            <trkpt lat="44.1203219" lon="19.8495671"><ele>508.0</ele></trkpt>
            <trkpt lat="44.1201832" lon="19.8498246"><ele>507.0</ele></trkpt>
            <trkpt lat="44.1200773" lon="19.8501626"><ele>507.5</ele></trkpt>
            <trkpt lat="44.1200099" lon="19.8505408"><ele>508.0</ele></trkpt>
            <trkpt lat="44.1200273" lon="19.8508117"><ele>507.5</ele></trkpt>
            <trkpt lat="44.1201293" lon="19.8510370"><ele>508.5</ele></trkpt>
            <trkpt lat="44.1203353" lon="19.8512301"><ele>513.0</ele></trkpt>
            <trkpt lat="44.1205587" lon="19.8516083"><ele>514.0</ele></trkpt>
            <trkpt lat="44.1206184" lon="19.8518792"><ele>511.5</ele></trkpt>
            <trkpt lat="44.1206184" lon="19.8519918"><ele>510.0</ele></trkpt>
            <trkpt lat="44.1205780" lon="19.8521313"><ele>507.0</ele></trkpt>
            <trkpt lat="44.1205529" lon="19.8522761"><ele>505.0</ele></trkpt>
            <trkpt lat="44.1205741" lon="19.8524290"><ele>504.0</ele></trkpt>
            <trkpt lat="44.1207185" lon="19.8526543"><ele>507.2</ele></trkpt>
            <trkpt lat="44.1207089" lon="19.8528662"><ele>506.0</ele></trkpt>
            <trkpt lat="44.1206723" lon="19.8530620"><ele>503.5</ele></trkpt>
            <trkpt lat="44.1206242" lon="19.8532578"><ele>500.5</ele></trkpt>
            <trkpt lat="44.1205741" lon="19.8534670"><ele>498.9</ele></trkpt>
            <trkpt lat="44.1205799" lon="19.8536709"><ele>497.5</ele></trkpt>
            <trkpt lat="44.1206434" lon="19.8538104"><ele>500.0</ele></trkpt>
            <trkpt lat="44.1206723" lon="19.8539498"><ele>500.2</ele></trkpt>
            <trkpt lat="44.1206819" lon="19.8540893"><ele>499.8</ele></trkpt>
            <trkpt lat="44.1206665" lon="19.8543844"><ele>496.5</ele></trkpt>
            <trkpt lat="44.1206954" lon="19.8545882"><ele>495.5</ele></trkpt>
            <trkpt lat="44.1207378" lon="19.8548269"><ele>493.8</ele></trkpt>
            <trkpt lat="44.1207975" lon="19.8550925"><ele>491.0</ele></trkpt>
            <trkpt lat="44.1209130" lon="19.8553339"><ele>489.2</ele></trkpt>
            <trkpt lat="44.1210632" lon="19.8554948"><ele>488.0</ele></trkpt>
            <trkpt lat="44.1212384" lon="19.8556075"><ele>487.8</ele></trkpt>
            <trkpt lat="44.1213867" lon="19.8556289"><ele>489.0</ele></trkpt>
            <trkpt lat="44.1215195" lon="19.8556316"><ele>490.5</ele></trkpt>
            <trkpt lat="44.1216851" lon="19.8556826"><ele>491.0</ele></trkpt>
            <trkpt lat="44.1218141" lon="19.8557416"><ele>490.5</ele></trkpt>
            <trkpt lat="44.1219335" lon="19.8557898"><ele>490.2</ele></trkpt>
            <trkpt lat="44.1221491" lon="19.8558435"><ele>489.8</ele></trkpt>
            <trkpt lat="44.1223744" lon="19.8558649"><ele>491.2</ele></trkpt>
            <trkpt lat="44.1224591" lon="19.8558971"><ele>491.8</ele></trkpt>
            <trkpt lat="44.1225323" lon="19.8559642"><ele>490.0</ele></trkpt>
            <trkpt lat="44.1226382" lon="19.8560849"><ele>486.5</ele></trkpt>
            <trkpt lat="44.1226863" lon="19.8561117"><ele>486.2</ele></trkpt>
            <trkpt lat="44.1227441" lon="19.8561466"><ele>486.0</ele></trkpt>
            <trkpt lat="44.1227672" lon="19.8561761"><ele>486.0</ele></trkpt>
            <trkpt lat="44.1228384" lon="19.8563370"><ele>480.0</ele></trkpt>
            <trkpt lat="44.1228692" lon="19.8563853"><ele>478.5</ele></trkpt>
            <trkpt lat="44.1229886" lon="19.8564363"><ele>477.8</ele></trkpt>
            <trkpt lat="44.1231696" lon="19.8565543"><ele>476.0</ele></trkpt>
            <trkpt lat="44.1232447" lon="19.8567501"><ele>473.0</ele></trkpt>
            <trkpt lat="44.1232466" lon="19.8569593"><ele>472.8</ele></trkpt>
            <trkpt lat="44.1232043" lon="19.8570693"><ele>473.2</ele></trkpt>
            <trkpt lat="44.1231176" lon="19.8573026"><ele>475.2</ele></trkpt>
            <trkpt lat="44.1230117" lon="19.8575333"><ele>477.5</ele></trkpt>
            <trkpt lat="44.1229174" lon="19.8576379"><ele>478.5</ele></trkpt>
            <trkpt lat="44.1228731" lon="19.8576701"><ele>479.0</ele></trkpt>
            <trkpt lat="44.1228538" lon="19.8577264"><ele>480.0</ele></trkpt>
            <trkpt lat="44.1228596" lon="19.8577854"><ele>480.0</ele></trkpt>
            <trkpt lat="44.1228773" lon="19.8578917"><ele>480.0</ele></trkpt>
        </trkseg>
    </trk>
</gpx>
