{"type":"FeatureCollection","features":[{"type":"Feature","properties":{"kind":"cave","name":"Shpella e Gadimës","nameSr":"Мермерна пећина","length":1260.0,"wikipedia":"sq:Shpella e Gadimës","fee":true},"geometry":{"type":"Point","coordinates":[21.207569,42.478085]}},{"type":"Feature","properties":{"kind":"cave","name":"Магурата","length":2500.0,"depth":56.0},"geometry":{"type":"Point","coordinates":[22.582675,43.727842]}},{"type":"Feature","properties":{"kind":"cave","name":"Лазарева пећина","nameSr":"Лазарева пећина","length":16041.0,"wikipedia":"sr:Лазарева пећина","fee":true},"geometry":{"type":"Point","coordinates":[21.962532,44.029414]}},{"type":"Feature","properties":{"kind":"cave","name":"Петничка пећина","nameSr":"Петничка пећина","length":600.0,"wikipedia":"sr:Петничка пећина"},"geometry":{"type":"Point","coordinates":[19.935823,44.244964]}},{"type":"Feature","properties":{"kind":"cave","name":"Дегурићка пећина","nameSr":"Дегурићка пећина","length":236.0,"wikipedia":"sr:Дегурићка пећина"},"geometry":{"type":"Point","coordinates":[19.884571,44.237941]}},{"type":"Feature","properties":{"kind":"cave","name":"Peștera Românești","wikipedia":"ro:Peștera Românești"},"geometry":{"type":"Point","coordinates":[22.350915,45.796949]}},{"type":"Feature","properties":{"kind":"cave","name":"Ledena pećina","nameSr":"Ледена пећина","ele":2180.0,"wikipedia":"fr:Grotte de Ledena"},"geometry":{"type":"Point","coordinates":[19.049651,43.139613]}},{"type":"Feature","properties":{"kind":"cave","name":"Васића понор","nameSr":"Васића понор"},"geometry":{"type":"Point","coordinates":[19.448213,43.908393]}},{"type":"Feature","properties":{"kind":"cave","name":"Peșteră"},"geometry":{"type":"Point","coordinates":[21.854301,45.162287]}},{"type":"Feature","properties":{"kind":"cave","name":"Šuplja stijena","nameSr":"Шупља стијена"},"geometry":{"type":"Point","coordinates":[19.064301,44.610273]}},{"type":"Feature","properties":{"kind":"cave","name":"Obodska pećina","nameSr":"Ободска пећина"},"geometry":{"type":"Point","coordinates":[19.00521,42.352114]}},{"type":"Feature","properties":{"kind":"cave","name":"Grota cu Aburi","ele":392.0},"geometry":{"type":"Point","coordinates":[22.427076,44.898303]}},{"type":"Feature","properties":{"kind":"cave","name":"Šušov krš","nameSr":"Шушов крш"},"geometry":{"type":"Point","coordinates":[20.60642,42.932484]}},{"type":"Feature","properties":{"kind":"cave","name":"Магурата"},"geometry":{"type":"Point","coordinates":[22.576996,43.732152]}},{"type":"Feature","properties":{"kind":"cave","name":"Ресавска пећина","nameSr":"Ресавска пећина","length":2304.0,"wikipedia":"en:Resava cave"},"geometry":{"type":"Point","coordinates":[21.629747,44.072689]}},{"type":"Feature","properties":{"kind":"cave","name":"Filipova díra"},"geometry":{"type":"Point","coordinates":[21.787445,44.754099]}},{"type":"Feature","properties":{"kind":"cave","name":"Gaura Turceasca"},"geometry":{"type":"Point","coordinates":[21.739338,44.731367]}},{"type":"Feature","properties":{"kind":"cave","name":"Vranovec"},"geometry":{"type":"Point","coordinates":[21.729538,44.703977]}},{"type":"Feature","properties":{"kind":"cave","name":"Мокра пећина","nameSr":"Мокра пећина"},"geometry":{"type":"Point","coordinates":[20.142126,44.115301]}},{"type":"Feature","properties":{"kind":"cave","name":"Shpella e Rratheve"},"geometry":{"type":"Point","coordinates":[19.801113,42.380265]}},{"type":"Feature","properties":{"kind":"cave","name":"Shpella e Majës së Harapit"},"geometry":{"type":"Point","coordinates":[19.759602,42.439506]}},{"type":"Feature","properties":{"kind":"cave","name":"Grota Haiducilor"},"geometry":{"type":"Point","coordinates":[22.428472,44.896252]}},{"type":"Feature","properties":{"kind":"cave","name":"Peștera Comarnic","nameSr":"Pećina Komarnik","wikipedia":"ro:Peștera Comarnic"},"geometry":{"type":"Point","coordinates":[21.94742,45.178264]}},{"type":"Feature","properties":{"kind":"cave","name":"Pećina Terem","nameSr":"Пећина Терем"},"geometry":{"type":"Point","coordinates":[18.831383,42.426717]}},{"type":"Feature","properties":{"kind":"cave","name":"Žestoka jama","nameSr":"Жестока јама"},"geometry":{"type":"Point","coordinates":[18.829801,42.431401]}},{"type":"Feature","properties":{"kind":"cave","name":"Bojanovica","nameSr":"Бојановица"},"geometry":{"type":"Point","coordinates":[18.833668,42.429505]}},{"type":"Feature","properties":{"kind":"cave","name":"Prelazna pećina","nameSr":"Прелазна пећина"},"geometry":{"type":"Point","coordinates":[18.833734,42.430533]}},{"type":"Feature","properties":{"kind":"cave","name":"Pećina Njegoš","nameSr":"Пећина Његош"},"geometry":{"type":"Point","coordinates":[18.831589,42.433011]}},{"type":"Feature","properties":{"kind":"cave","name":"pećina Buba","nameSr":"Пећина Буба"},"geometry":{"type":"Point","coordinates":[18.833302,42.433018]}},{"type":"Feature","properties":{"kind":"cave","name":"Zečja rupa","nameSr":"Зечја рупа"},"geometry":{"type":"Point","coordinates":[18.825151,42.452517]}},{"type":"Feature","properties":{"kind":"cave","name":"Ponornica podno Kape","nameSr":"Понорница подно Капе"},"geometry":{"type":"Point","coordinates":[18.846201,42.427934]}},{"type":"Feature","properties":{"kind":"cave","name":"Jama Dinja","nameSr":"Јама Диња"},"geometry":{"type":"Point","coordinates":[18.855479,42.405233]}},{"type":"Feature","properties":{"kind":"cave","name":"Miloševa pećina","nameSr":"Милошева пећина"},"geometry":{"type":"Point","coordinates":[18.847964,42.398869]}},{"type":"Feature","properties":{"kind":"cave","name":"Peștera Ponicova","wikipedia":"ro:Peștera Ponicova"},"geometry":{"type":"Point","coordinates":[22.261159,44.595316]}},{"type":"Feature","properties":{"kind":"cave","name":"Peștera Buhui","wikipedia":"ro:Peștera Buhui"},"geometry":{"type":"Point","coordinates":[21.886946,45.086817]}},{"type":"Feature","properties":{"kind":"cave","name":"Пећина Грза"},"geometry":{"type":"Point","coordinates":[21.652358,43.897586]}},{"type":"Feature","properties":{"kind":"cave","name":"Peștera de după Cârșă"},"geometry":{"type":"Point","coordinates":[21.876262,45.202907]}},{"type":"Feature","properties":{"kind":"cave","name":"Peștera Țolosu"},"geometry":{"type":"Point","coordinates":[21.922458,45.199306]}},{"type":"Feature","properties":{"kind":"cave","name":"Jama Lahner","nameSr":"јама Лахнер"},"geometry":{"type":"Point","coordinates":[18.848168,42.397098]}},{"type":"Feature","properties":{"kind":"cave","name":"Рибничка пећина","nameSr":"Рибничка пећина","length":52.0,"wikipedia":"sr:Рибничка пећина"},"geometry":{"type":"Point","coordinates":[20.092347,44.205571]}},{"type":"Feature","properties":{"kind":"cave","name":"Ленчина пећина","nameSr":"Ленчина пећина"},"geometry":{"type":"Point","coordinates":[19.824156,44.178344]}},{"type":"Feature","properties":{"kind":"cave","name":"Драгов понор","nameSr":"Драгов понор"},"geometry":{"type":"Point","coordinates":[19.797107,44.178933]}},{"type":"Feature","properties":{"kind":"cave","name":"Шупља липа","nameSr":"Шупља липа"},"geometry":{"type":"Point","coordinates":[19.966591,44.210655]}},{"type":"Feature","properties":{"kind":"cave","name":"Бели Коп","nameSr":"Бели Коп"},"geometry":{"type":"Point","coordinates":[19.85712,45.136415]}},{"type":"Feature","properties":{"kind":"cave","name":"Прераст Касоње"},"geometry":{"type":"Point","coordinates":[21.660086,44.291698]}},{"type":"Feature","properties":{"kind":"cave","name":"Shpella e Dragobisë"},"geometry":{"type":"Point","coordinates":[19.941869,42.446018]}},{"type":"Feature","properties":{"kind":"cave","name":"Гргуревачка пећина","nameSr":"Гргуревачка пећина","wikipedia":"sr:Гргуревачка пећина"},"geometry":{"type":"Point","coordinates":[19.650707,45.135102]}},{"type":"Feature","properties":{"kind":"cave","name":"Jama Tami","nameSr":"Јама Тами"},"geometry":{"type":"Point","coordinates":[18.820584,42.446651]}},{"type":"Feature","properties":{"kind":"cave","name":"Jama Mahovina","nameSr":"Јама Маховина"},"geometry":{"type":"Point","coordinates":[18.837933,42.43105]}},{"type":"Feature","properties":{"kind":"cave","name":"Pećina Kosac","nameSr":"Пећина Косац"},"geometry":{"type":"Point","coordinates":[18.836683,42.432083]}},{"type":"Feature","properties":{"kind":"cave","name":"jama ER-1 (Fehérjefeldolgozó-barlang)","nameSr":"јама"},"geometry":{"type":"Point","coordinates":[18.831949,42.432501]}},{"type":"Feature","properties":{"kind":"cave","name":"Jama Frižider","nameSr":"Јама Фрижидер"},"geometry":{"type":"Point","coordinates":[18.825215,42.403449]}},{"type":"Feature","properties":{"kind":"cave","name":"Jama Vindi","nameSr":"јама Винди"},"geometry":{"type":"Point","coordinates":[18.84573,42.416535]}},{"type":"Feature","properties":{"kind":"cave","name":"Đurđevačka jama","nameSr":"Ђурђевачка јама"},"geometry":{"type":"Point","coordinates":[18.833267,42.359567]}},{"type":"Feature","properties":{"kind":"cave","name":"Jama Golubišnica","nameSr":"Голубишница"},"geometry":{"type":"Point","coordinates":[18.831983,42.387084]}},{"type":"Feature","properties":{"kind":"cave","name":"Lipska Pećina","nameSr":"Липска Пећина","fee":true},"geometry":{"type":"Point","coordinates":[18.953541,42.373994]}},{"type":"Feature","properties":{"kind":"cave","name":"Peștera Buhui (Exurgență)"},"geometry":{"type":"Point","coordinates":[21.879874,45.096162]}},{"type":"Feature","properties":{"kind":"cave","name":"Peștera Veterani","fee":true},"geometry":{"type":"Point","coordinates":[22.263132,44.599257]}},{"type":"Feature","properties":{"kind":"cave","name":"Shpella Zezë"},"geometry":{"type":"Point","coordinates":[19.927178,42.366503]}},{"type":"Feature","properties":{"kind":"cave","name":"Čađa","nameSr":"Чађа"},"geometry":{"type":"Point","coordinates":[19.827779,42.830918]}},{"type":"Feature","properties":{"kind":"cave","name":"Tmušina pećina","nameSr":"Тмушина пећина"},"geometry":{"type":"Point","coordinates":[19.851333,42.855747]}},{"type":"Feature","properties":{"kind":"cave","name":"Župan pećina","nameSr":"Жупан пећина"},"geometry":{"type":"Point","coordinates":[19.74727,42.854809]}},{"type":"Feature","properties":{"kind":"cave","name":"Bracanovića pećina","nameSr":"Брацановића пећина"},"geometry":{"type":"Point","coordinates":[19.760015,42.856896]}},{"type":"Feature","properties":{"kind":"cave","name":"Njevaštica","nameSr":"Њеваштица"},"geometry":{"type":"Point","coordinates":[19.748281,42.879555]}},{"type":"Feature","properties":{"kind":"cave","name":"Jama","nameSr":"Јама"},"geometry":{"type":"Point","coordinates":[19.676116,42.839363]}},{"type":"Feature","properties":{"kind":"cave","name":"Lučanska jama","nameSr":"Лучанска јама"},"geometry":{"type":"Point","coordinates":[19.752853,42.854789]}},{"type":"Feature","properties":{"kind":"cave","name":"Tunelska","nameSr":"Тунелска"},"geometry":{"type":"Point","coordinates":[19.825787,42.839379]}},{"type":"Feature","properties":{"kind":"cave","name":"Žara","nameSr":"Жара"},"geometry":{"type":"Point","coordinates":[19.827334,42.829918]}},{"type":"Feature","properties":{"kind":"cave","name":"Vilino vreteno","nameSr":"Вилино вретено"},"geometry":{"type":"Point","coordinates":[19.828281,42.830974]}},{"type":"Feature","properties":{"kind":"cave","name":"Velika Zidanica","nameSr":"Велика Зиданица"},"geometry":{"type":"Point","coordinates":[19.828334,42.830945]}},{"type":"Feature","properties":{"kind":"cave","name":"Velika pećina","nameSr":"Велика пећина","length":168.0,"depth":6.0},"geometry":{"type":"Point","coordinates":[19.831722,42.83075]}},{"type":"Feature","properties":{"kind":"cave","name":"Velika okapina","nameSr":"Велика окапина"},"geometry":{"type":"Point","coordinates":[19.826167,42.830949]}},{"type":"Feature","properties":{"kind":"cave","name":"Mala zidanica","nameSr":"Мала зиданица"},"geometry":{"type":"Point","coordinates":[19.831336,42.831142]}},{"type":"Feature","properties":{"kind":"cave","name":"Uroševica","nameSr":"Урошевица"},"geometry":{"type":"Point","coordinates":[19.865087,42.888726]}},{"type":"Feature","properties":{"kind":"cave","name":"Torina pećina","nameSr":"Торина пећина"},"geometry":{"type":"Point","coordinates":[19.861948,42.887027]}},{"type":"Feature","properties":{"kind":"cave","name":"Džabadinska pećina","nameSr":"Џабадинска пећина"},"geometry":{"type":"Point","coordinates":[19.853018,42.855079]}},{"type":"Feature","properties":{"kind":"cave","name":"Crvena pećina","nameSr":"Црвена пећина"},"geometry":{"type":"Point","coordinates":[19.856698,42.856612]}},{"type":"Feature","properties":{"kind":"cave","name":"Orlova pećina","nameSr":"Орлова пећина"},"geometry":{"type":"Point","coordinates":[19.872143,42.906168]}},{"type":"Feature","properties":{"kind":"cave","name":"Zidanica","nameSr":"Зиданица"},"geometry":{"type":"Point","coordinates":[19.86265,42.881867]}},{"type":"Feature","properties":{"kind":"cave","name":"Goveđa pećina","nameSr":"Говеђа пећина"},"geometry":{"type":"Point","coordinates":[19.871641,42.906057]}},{"type":"Feature","properties":{"kind":"cave","name":"Koźa pećina","nameSr":"Козја пећина"},"geometry":{"type":"Point","coordinates":[19.871641,42.905697]}},{"type":"Feature","properties":{"kind":"cave","name":"Ovčja pećina","nameSr":"Овчја пећина"},"geometry":{"type":"Point","coordinates":[19.871807,42.906529]}},{"type":"Feature","properties":{"kind":"cave","name":"Golublja pećina","nameSr":"Голубља пећина"},"geometry":{"type":"Point","coordinates":[19.871946,42.906528]}},{"type":"Feature","properties":{"kind":"cave","name":"Velika pećina","nameSr":"Велика пећина"},"geometry":{"type":"Point","coordinates":[19.921455,42.871255]}},{"type":"Feature","properties":{"kind":"cave","name":"Mala pećina","nameSr":"Мала пећина"},"geometry":{"type":"Point","coordinates":[19.919594,42.871039]}},{"type":"Feature","properties":{"kind":"cave","name":"Đato","nameSr":"Ђато"},"geometry":{"type":"Point","coordinates":[19.907033,42.835163]}},{"type":"Feature","properties":{"kind":"cave","name":"Đato pećina"},"geometry":{"type":"Point","coordinates":[19.9068,42.828473]}},{"type":"Feature","properties":{"kind":"cave","name":"Zvečka","nameSr":"Звечка"},"geometry":{"type":"Point","coordinates":[19.918537,42.840456]}},{"type":"Feature","properties":{"kind":"cave","name":"Minina pećina","nameSr":"Минина пећина"},"geometry":{"type":"Point","coordinates":[19.890476,42.800891]}},{"type":"Feature","properties":{"kind":"cave","name":"Zagorsko vrelo","nameSr":"Загорско врело"},"geometry":{"type":"Point","coordinates":[19.908197,42.820333]}},{"type":"Feature","properties":{"kind":"cave","name":"Jama","nameSr":"Јама"},"geometry":{"type":"Point","coordinates":[19.922292,42.761027]}},{"type":"Feature","properties":{"kind":"cave","name":"Moskovača","nameSr":"Московача"},"geometry":{"type":"Point","coordinates":[19.886683,42.777472]}},{"type":"Feature","properties":{"kind":"cave","name":"Kemelj","nameSr":"Кемељ"},"geometry":{"type":"Point","coordinates":[19.929802,42.76378]}},{"type":"Feature","properties":{"kind":"cave","name":"Lisičja pećina","nameSr":"Лисичја пећина"},"geometry":{"type":"Point","coordinates":[19.930467,42.764001]}},{"type":"Feature","properties":{"kind":"cave","name":"Snježara","nameSr":"Сњежара"},"geometry":{"type":"Point","coordinates":[20.037917,42.774606]}},{"type":"Feature","properties":{"kind":"cave","name":"Ržanica","nameSr":"Ржаница"},"geometry":{"type":"Point","coordinates":[19.948546,42.766588]}},{"type":"Feature","properties":{"kind":"cave","name":"Komitska pećina","nameSr":"Комитска пећина"},"geometry":{"type":"Point","coordinates":[19.95568,42.759436]}},{"type":"Feature","properties":{"kind":"cave","name":"Jama","nameSr":"Јама"},"geometry":{"type":"Point","coordinates":[20.023428,42.772167]}},{"type":"Feature","properties":{"kind":"cave","name":"Jama","nameSr":"Јама"},"geometry":{"type":"Point","coordinates":[20.037203,42.768841]}},{"type":"Feature","properties":{"kind":"cave","name":"Jama","nameSr":"Јама"},"geometry":{"type":"Point","coordinates":[20.038508,42.799432]}},{"type":"Feature","properties":{"kind":"cave","name":"Bezdanica","nameSr":"Безданица"},"geometry":{"type":"Point","coordinates":[20.037497,42.802879]}},{"type":"Feature","properties":{"kind":"cave","name":"Jama","nameSr":"Јама"},"geometry":{"type":"Point","coordinates":[20.014559,42.818605]}},{"type":"Feature","properties":{"kind":"cave","name":"Tromeđa","nameSr":"Тромеђа"},"geometry":{"type":"Point","coordinates":[20.024236,42.820178]}},{"type":"Feature","properties":{"kind":"cave","name":"Lazovića pećina","nameSr":"Лазовића пећина"},"geometry":{"type":"Point","coordinates":[19.881952,42.698366]}},{"type":"Feature","properties":{"kind":"cave","name":"Prašnica","nameSr":"Прашница"},"geometry":{"type":"Point","coordinates":[19.983955,42.78467]}},{"type":"Feature","properties":{"kind":"cave","name":"Jama","nameSr":"Јама"},"geometry":{"type":"Point","coordinates":[19.979156,42.723246]}},{"type":"Feature","properties":{"kind":"cave","name":"Tojina pećina","nameSr":"Тојина пећина"},"geometry":{"type":"Point","coordinates":[19.971678,42.698864]}},{"type":"Feature","properties":{"kind":"cave","name":"Đevojačka pećina","nameSr":"Ђевојачка пећина"},"geometry":{"type":"Point","coordinates":[19.917582,42.71903]}},{"type":"Feature","properties":{"kind":"cave","name":"Navotinsko vrelo","nameSr":"Навотинско врело"},"geometry":{"type":"Point","coordinates":[19.846009,42.792551]}},{"type":"Feature","properties":{"kind":"cave","name":"Vranjaštička pećina","nameSr":"Врањаштичка пећина"},"geometry":{"type":"Point","coordinates":[19.805958,42.814088]}},{"type":"Feature","properties":{"kind":"cave","name":"Zamonica"},"geometry":{"type":"Point","coordinates":[22.097318,44.684648]}},{"type":"Feature","properties":{"kind":"cave","name":"Gaura cu Muscă"},"geometry":{"type":"Point","coordinates":[21.699283,44.664931]}},{"type":"Feature","properties":{"kind":"cave","name":"Velebný žlábek"},"geometry":{"type":"Point","coordinates":[21.732501,44.665428]}},{"type":"Feature","properties":{"kind":"cave","name":"Shpella e Pëllumbave"},"geometry":{"type":"Point","coordinates":[19.535505,42.242078]}},{"type":"Feature","properties":{"kind":"cave","name":"Šuplja vrata","nameSr":"Шупља врата"},"geometry":{"type":"Point","coordinates":[19.756933,42.549844]}},{"type":"Feature","properties":{"kind":"cave","name":"Mirakova pećina","nameSr":"Миракова пећина"},"geometry":{"type":"Point","coordinates":[19.777838,42.596893]}},{"type":"Feature","properties":{"kind":"cave","name":"Jama","nameSr":"Јама"},"geometry":{"type":"Point","coordinates":[20.114804,42.761704]}},{"type":"Feature","properties":{"kind":"cave","name":"Ledena pećina","nameSr":"Ледена пећина"},"geometry":{"type":"Point","coordinates":[20.19964,42.809605]}},{"type":"Feature","properties":{"kind":"cave","name":"Jama","nameSr":"Јама"},"geometry":{"type":"Point","coordinates":[19.755027,42.560143]}},{"type":"Feature","properties":{"kind":"cave","name":"Jama","nameSr":"Јама"},"geometry":{"type":"Point","coordinates":[19.811505,42.517455]}},{"type":"Feature","properties":{"kind":"cave","name":"Baćke pećine","nameSr":"Баћке пећине"},"geometry":{"type":"Point","coordinates":[20.309826,42.841682]}},{"type":"Feature","properties":{"kind":"cave","name":"Shpella","nameSr":"пећина"},"geometry":{"type":"Point","coordinates":[20.296436,42.772133]}},{"type":"Feature","properties":{"kind":"cave","name":"Musina jama","nameSr":"Мусина јама"},"geometry":{"type":"Point","coordinates":[20.106076,42.941949]}},{"type":"Feature","properties":{"kind":"cave","name":"Годовска пећина","nameSr":"Годовска пећина"},"geometry":{"type":"Point","coordinates":[20.29563,42.946621]}},{"type":"Feature","properties":{"kind":"cave","name":"Преконошка пећина","wikipedia":"sr:Преконошка пећина"},"geometry":{"type":"Point","coordinates":[22.102023,43.380351]}},{"type":"Feature","properties":{"kind":"cave","name":"Пандирало","ele":470.0,"wikipedia":"sr:Понор Пандирало"},"geometry":{"type":"Point","coordinates":[22.323273,43.37243]}},{"type":"Feature","properties":{"kind":"cave","name":"Церјанска пећина","nameSr":"Церјанска пећина","length":7149.0,"wikipedia":"sr:Церјанска пећина"},"geometry":{"type":"Point","coordinates":[21.939623,43.430121]}},{"type":"Feature","properties":{"kind":"cave","name":"Леденица"},"geometry":{"type":"Point","coordinates":[22.154902,43.70612]}},{"type":"Feature","properties":{"kind":"cave","name":"Баланица","length":25.0,"wikipedia":"sr:Мала Баланица"},"geometry":{"type":"Point","coordinates":[22.084294,43.337407]}},{"type":"Feature","properties":{"kind":"cave","name":"Рисовача","nameSr":"Рисовача","length":800.0,"wikipedia":"sr:Рисовача"},"geometry":{"type":"Point","coordinates":[20.582408,44.301965]}},{"type":"Feature","properties":{"kind":"cave","name":"Сува пећина","nameSr":"Сува пећина"},"geometry":{"type":"Point","coordinates":[20.16794,44.10568]}},{"type":"Feature","properties":{"kind":"cave","name":"Jama od Karimana","nameSr":"Јама од Каримана"},"geometry":{"type":"Point","coordinates":[19.578329,42.565673]}},{"type":"Feature","properties":{"kind":"cave","name":"Korina pećina","nameSr":"Корина пећина"},"geometry":{"type":"Point","coordinates":[19.577449,42.557756]}},{"type":"Feature","properties":{"kind":"cave","name":"Špela","nameSr":"Шпела"},"geometry":{"type":"Point","coordinates":[19.562858,42.567949]}},{"type":"Feature","properties":{"kind":"cave","name":"Jareća pećina","nameSr":"Јарећа пећина"},"geometry":{"type":"Point","coordinates":[19.581612,42.561802]}},{"type":"Feature","properties":{"kind":"cave","name":"Понор Бигра"},"geometry":{"type":"Point","coordinates":[21.971398,43.444875]}},{"type":"Feature","properties":{"kind":"cave","name":"Самар","nameSr":"Самар","length":3463.0,"wikipedia":"sr:Самар пећина"},"geometry":{"type":"Point","coordinates":[21.97623,43.445789]}},{"type":"Feature","properties":{"kind":"cave","name":"Језава"},"geometry":{"type":"Point","coordinates":[21.97563,43.446518]}},{"type":"Feature","properties":{"kind":"cave","name":"Ponor Sudveka"},"geometry":{"type":"Point","coordinates":[21.981969,43.435574]}},{"type":"Feature","properties":{"kind":"cave","name":"Буронов понор"},"geometry":{"type":"Point","coordinates":[22.261096,44.559417]}},{"type":"Feature","properties":{"kind":"cave","name":"Ракин понор","wikipedia":"sr:Ракин понор"},"geometry":{"type":"Point","coordinates":[22.279162,44.512612]}},{"type":"Feature","properties":{"kind":"cave","name":"Vrelska pećina","ele":345.0},"geometry":{"type":"Point","coordinates":[22.313506,43.214822]}},{"type":"Feature","properties":{"kind":"cave","name":"Потпећка пећина","nameSr":"Потпећка пећина","ele":551.0,"wikipedia":"sr:Потпећка пећина","fee":true},"geometry":{"type":"Point","coordinates":[19.933422,43.795477]}},{"type":"Feature","properties":{"kind":"cave","name":"Микина дувка","ele":560.0},"geometry":{"type":"Point","coordinates":[22.094369,43.347972]}},{"type":"Feature","properties":{"kind":"cave","name":"Бисерна пећина","wikipedia":"sr:Бисерна пећина"},"geometry":{"type":"Point","coordinates":[21.877931,43.44526]}},{"type":"Feature","properties":{"kind":"cave","name":"Bukovička jama","nameSr":"Буковичка јама"},"geometry":{"type":"Point","coordinates":[18.854001,42.443241]}},{"type":"Feature","properties":{"kind":"cave","name":"Shpella e Radacit (Bukuroshja e Fjetur)","nameSr":"Радовачка пећина","wikipedia":"sq:Shpella e Radacit","fee":true},"geometry":{"type":"Point","coordinates":[20.306427,42.73717]}},{"type":"Feature","properties":{"kind":"cave","name":"Peștera Ponicova","wikipedia":"ro:Peștera Ponicova"},"geometry":{"type":"Point","coordinates":[22.255697,44.595135]}},{"type":"Feature","properties":{"kind":"cave","name":"Pećina Ivanovići"},"geometry":{"type":"Point","coordinates":[18.874,42.292282]}},{"type":"Feature","properties":{"kind":"cave","name":"Козја дувка"},"geometry":{"type":"Point","coordinates":[22.227236,43.470226]}},{"type":"Feature","properties":{"kind":"cave","name":"Shpella e Errët"},"geometry":{"type":"Point","coordinates":[19.60297,42.478742]}},{"type":"Feature","properties":{"kind":"cave","name":"Shpella"},"geometry":{"type":"Point","coordinates":[19.526613,42.358407]}},{"type":"Feature","properties":{"kind":"cave","name":"Jelovačka pećina","nameSr":"Јеловачка пећина"},"geometry":{"type":"Point","coordinates":[19.052968,43.153465]}},{"type":"Feature","properties":{"kind":"cave","name":"V. Datlo","nameSr":"В. Датло","ele":1152.0},"geometry":{"type":"Point","coordinates":[19.069407,43.220771]}},{"type":"Feature","properties":{"kind":"cave","name":"Bijela vrela","nameSr":"Бијела врела"},"geometry":{"type":"Point","coordinates":[19.039515,43.239095]}},{"type":"Feature","properties":{"kind":"cave","name":"Arapova pećina","nameSr":"Арапова пећина"},"geometry":{"type":"Point","coordinates":[19.079252,43.046362]}},{"type":"Feature","properties":{"kind":"cave","name":"Radonjica","nameSr":"Радоњица"},"geometry":{"type":"Point","coordinates":[19.320799,43.131082]}},{"type":"Feature","properties":{"kind":"cave","name":"Zmajeva pećina","nameSr":"Змајева пећина"},"geometry":{"type":"Point","coordinates":[19.33348,43.133306]}},{"type":"Feature","properties":{"kind":"cave","name":"Šolintrača","nameSr":"Шолинтрача"},"geometry":{"type":"Point","coordinates":[19.398643,43.023054]}},{"type":"Feature","properties":{"kind":"cave","name":"Pušljenska pećina","nameSr":"Пушљенска пећина"},"geometry":{"type":"Point","coordinates":[18.988531,43.16034]}},{"type":"Feature","properties":{"kind":"cave","name":"Grotna pećina","nameSr":"Гротна пећина"},"geometry":{"type":"Point","coordinates":[18.949049,43.135432]}},{"type":"Feature","properties":{"kind":"cave","name":"Shpella Bravnikut"},"geometry":{"type":"Point","coordinates":[19.847146,42.350846]}},{"type":"Feature","properties":{"kind":"cave","name":"Shpella Kakverrit"},"geometry":{"type":"Point","coordinates":[19.862424,42.344233]}},{"type":"Feature","properties":{"kind":"cave","name":"Shpella Drelës"},"geometry":{"type":"Point","coordinates":[19.895006,42.359281]}},{"type":"Feature","properties":{"kind":"cave","name":"Shpella Lumit"},"geometry":{"type":"Point","coordinates":[19.878029,42.359841]}},{"type":"Feature","properties":{"kind":"cave","name":"Shpella Gjapit"},"geometry":{"type":"Point","coordinates":[20.10101,42.473384]}},{"type":"Feature","properties":{"kind":"cave","name":"Shpella Madhe"},"geometry":{"type":"Point","coordinates":[20.062193,42.440408]}},{"type":"Feature","properties":{"kind":"cave","name":"Shpella e Gjatë"},"geometry":{"type":"Point","coordinates":[19.663317,42.49648]}},{"type":"Feature","properties":{"kind":"cave","name":"Shpellë"},"geometry":{"type":"Point","coordinates":[19.620187,42.467211]}},{"type":"Feature","properties":{"kind":"cave","name":"Shpella e Kiremanicës"},"geometry":{"type":"Point","coordinates":[19.432248,42.344556]}},{"type":"Feature","properties":{"kind":"cave","name":"Shpellë"},"geometry":{"type":"Point","coordinates":[19.53276,42.44653]}},{"type":"Feature","properties":{"kind":"cave","name":"Shpellë"},"geometry":{"type":"Point","coordinates":[19.530389,42.43634]}},{"type":"Feature","properties":{"kind":"cave","name":"Shpella Make Grud"},"geometry":{"type":"Point","coordinates":[19.547834,42.479891]}},{"type":"Feature","properties":{"kind":"cave","name":"Shpella Dragines"},"geometry":{"type":"Point","coordinates":[19.687481,42.482122]}},{"type":"Feature","properties":{"kind":"cave","name":"Shpellë"},"geometry":{"type":"Point","coordinates":[19.683597,42.482423]}},{"type":"Feature","properties":{"kind":"cave","name":"Shpellë"},"geometry":{"type":"Point","coordinates":[19.717607,42.468678]}},{"type":"Feature","properties":{"kind":"cave","name":"Извор Пећура","nameSr":"Извор Пећура"},"geometry":{"type":"Point","coordinates":[21.747109,43.826178]}},{"type":"Feature","properties":{"kind":"cave","name":"Фаца Шора","wikipedia":"sr:Фаца Шора"},"geometry":{"type":"Point","coordinates":[22.278611,44.503861]}},{"type":"Feature","properties":{"kind":"cave","name":"Безимена пећина"},"geometry":{"type":"Point","coordinates":[22.233734,44.48623]}},{"type":"Feature","properties":{"kind":"cave","name":"Дисина пећина"},"geometry":{"type":"Point","coordinates":[22.235556,44.484187]}},{"type":"Feature","properties":{"kind":"cave","name":"Ибрин понор","wikipedia":"sr:Ибрин понор"},"geometry":{"type":"Point","coordinates":[22.266487,44.543104]}},{"type":"Feature","properties":{"kind":"cave","name":"Суви понор","wikipedia":"sr:Суви понор"},"geometry":{"type":"Point","coordinates":[22.268847,44.532829]}},{"type":"Feature","properties":{"kind":"cave","name":"Galerie"},"geometry":{"type":"Point","coordinates":[22.255435,44.591195]}},{"type":"Feature","properties":{"kind":"cave","name":"Гаупа Мику"},"geometry":{"type":"Point","coordinates":[21.945704,44.062275]}},{"type":"Feature","properties":{"kind":"cave","name":"Гаупа бурћи"},"geometry":{"type":"Point","coordinates":[21.946326,44.064002]}},{"type":"Feature","properties":{"kind":"cave","name":"Ledena pećina","nameSr":"Ледена пећина"},"geometry":{"type":"Point","coordinates":[19.890962,42.495988]}},{"type":"Feature","properties":{"kind":"cave","name":"Velika pećina","nameSr":"Велика пећина"},"geometry":{"type":"Point","coordinates":[18.837946,43.274598]}},{"type":"Feature","properties":{"kind":"cave","name":"Crijemuša","nameSr":"Цријемуша"},"geometry":{"type":"Point","coordinates":[18.996474,43.253036]}},{"type":"Feature","properties":{"kind":"cave","name":"Šušnjarica","nameSr":"Шушњарица"},"geometry":{"type":"Point","coordinates":[19.000143,43.261085]}},{"type":"Feature","properties":{"kind":"cave","name":"Varda","nameSr":"Варда"},"geometry":{"type":"Point","coordinates":[19.009691,43.25438]}},{"type":"Feature","properties":{"kind":"cave","name":"Gubavica","nameSr":"Губавица","ele":743.0},"geometry":{"type":"Point","coordinates":[18.995293,43.262163]}},{"type":"Feature","properties":{"kind":"cave","name":"Velika Lastva","nameSr":"Велика Ластва"},"geometry":{"type":"Point","coordinates":[19.098245,43.278583]}},{"type":"Feature","properties":{"kind":"cave","name":"Konjska pećina","nameSr":"Коњска пећина"},"geometry":{"type":"Point","coordinates":[19.116248,43.269476]}},{"type":"Feature","properties":{"kind":"cave","name":"Skorupna jama","nameSr":"Скорупна јама"},"geometry":{"type":"Point","coordinates":[19.090048,43.283051]}},{"type":"Feature","properties":{"kind":"cave","name":"Žujova jama","nameSr":"Жујова јама"},"geometry":{"type":"Point","coordinates":[19.092089,43.281848]}},{"type":"Feature","properties":{"kind":"cave","name":"Shpella e Keqe","nameSr":"пећина"},"geometry":{"type":"Point","coordinates":[20.340813,42.831913]}},{"type":"Feature","properties":{"kind":"cave","name":"Стопића пећина","nameSr":"Стопића пећина","length":1691.5,"wikipedia":"sr:Стопића пећина","fee":true},"geometry":{"type":"Point","coordinates":[19.855159,43.702253]}},{"type":"Feature","properties":{"kind":"cave","name":"Ршумска пећина","nameSr":"Ршумска пећина"},"geometry":{"type":"Point","coordinates":[19.804159,43.623563]}},{"type":"Feature","properties":{"kind":"cave","name":"Кораћева пећина","nameSr":"Кораћева пећина"},"geometry":{"type":"Point","coordinates":[19.651964,43.638927]}},{"type":"Feature","properties":{"kind":"cave","name":"Црвена пећина","nameSr":"Црвена пећина"},"geometry":{"type":"Point","coordinates":[19.480459,43.821946]}},{"type":"Feature","properties":{"kind":"cave","name":"Хајдучка пећина","nameSr":"Хајдучка пећина"},"geometry":{"type":"Point","coordinates":[19.475483,43.826146]}},{"type":"Feature","properties":{"kind":"cave","name":"Муњића пећина","nameSr":"Муњића пећина"},"geometry":{"type":"Point","coordinates":[19.871075,43.680809]}},{"type":"Feature","properties":{"kind":"cave","name":"Gropa"},"geometry":{"type":"Point","coordinates":[20.240998,42.755907]}},{"type":"Feature","properties":{"kind":"cave","name":"Okno","nameSr":"Окно"},"geometry":{"type":"Point","coordinates":[19.077598,43.121065]}},{"type":"Feature","properties":{"kind":"cave","name":"Šupljika","nameSr":"Шупљика"},"geometry":{"type":"Point","coordinates":[19.088794,43.114233]}},{"type":"Feature","properties":{"kind":"cave","name":"Urljača","nameSr":"Урљача"},"geometry":{"type":"Point","coordinates":[19.03991,43.147899]}},{"type":"Feature","properties":{"kind":"cave","name":"Rutušina pećina","nameSr":"Рутушина пећина"},"geometry":{"type":"Point","coordinates":[19.027333,43.155519]}},{"type":"Feature","properties":{"kind":"cave","name":"Peștera Popovăț","ele":421.0,"length":1121.0,"wikipedia":"ro:Peștera Popovăț"},"geometry":{"type":"Point","coordinates":[21.928817,45.171053]}},{"type":"Feature","properties":{"kind":"cave","name":"Peștera de la Haldină"},"geometry":{"type":"Point","coordinates":[21.901289,45.142425]}},{"type":"Feature","properties":{"kind":"cave","name":"Shpellë"},"geometry":{"type":"Point","coordinates":[20.074732,42.393687]}},{"type":"Feature","properties":{"kind":"cave","name":"Бабина Пећина"},"geometry":{"type":"Point","coordinates":[21.809898,44.191429]}},{"type":"Feature","properties":{"kind":"cave","name":"Девојачка пећина"},"geometry":{"type":"Point","coordinates":[21.81325,44.190786]}},{"type":"Feature","properties":{"kind":"cave","name":"Кракаста пећина"},"geometry":{"type":"Point","coordinates":[21.813185,44.18867]}},{"type":"Feature","properties":{"kind":"cave","name":"Пасерара кладе пећина"},"geometry":{"type":"Point","coordinates":[21.824333,44.191609]}},{"type":"Feature","properties":{"kind":"cave","name":"Кљанц пећина"},"geometry":{"type":"Point","coordinates":[21.826532,44.192271]}},{"type":"Feature","properties":{"kind":"cave","name":"Говеђа пећина"},"geometry":{"type":"Point","coordinates":[21.817465,44.195145]}},{"type":"Feature","properties":{"kind":"cave","name":"Верњикица","nameSr":"Верњикица","ele":454.0,"wikipedia":"sr:Пећина Верњикица"},"geometry":{"type":"Point","coordinates":[21.94948,44.026464]}},{"type":"Feature","properties":{"kind":"cave","name":"Девојачка пећина","nameSr":"Девојачка пећина"},"geometry":{"type":"Point","coordinates":[21.92754,43.951082]}},{"type":"Feature","properties":{"kind":"cave","name":"Пејкова пећина"},"geometry":{"type":"Point","coordinates":[21.678801,44.072821]}},{"type":"Feature","properties":{"kind":"cave","name":"Велика крстата пећина"},"geometry":{"type":"Point","coordinates":[21.719065,44.069714]}},{"type":"Feature","properties":{"kind":"cave","name":"Јагина пећина"},"geometry":{"type":"Point","coordinates":[21.878033,44.257586]}},{"type":"Feature","properties":{"kind":"cave","name":"Коркан пећина"},"geometry":{"type":"Point","coordinates":[21.878892,44.261597]}},{"type":"Feature","properties":{"kind":"cave","name":"Рајкова пећина","nameSr":"Рајкова пећина"},"geometry":{"type":"Point","coordinates":[21.961116,44.440299]}},{"type":"Feature","properties":{"kind":"cave","name":"Рајкова пећина","nameSr":"Рајкова пећина","ele":427.0,"wikipedia":"sr:Рајкова пећина","fee":true},"geometry":{"type":"Point","coordinates":[21.953401,44.441026]}},{"type":"Feature","properties":{"kind":"cave","name":"Паскова пећина"},"geometry":{"type":"Point","coordinates":[21.952098,44.442044]}},{"type":"Feature","properties":{"kind":"cave","name":"Римски бунар","ele":458.0},"geometry":{"type":"Point","coordinates":[21.953213,44.449451]}},{"type":"Feature","properties":{"kind":"cave","name":"Метође","nameSr":"Метође"},"geometry":{"type":"Point","coordinates":[20.85076,43.301337]}},{"type":"Feature","properties":{"kind":"cave","name":"Pestera din valea seaca"},"geometry":{"type":"Point","coordinates":[22.501267,45.79465]}},{"type":"Feature","properties":{"kind":"cave","name":"Avenul Gorun"},"geometry":{"type":"Point","coordinates":[21.741463,45.059567]}},{"type":"Feature","properties":{"kind":"cave","name":"Avenul Albota"},"geometry":{"type":"Point","coordinates":[22.425344,45.753247]}},{"type":"Feature","properties":{"kind":"cave","name":"Avenul Negoita"},"geometry":{"type":"Point","coordinates":[22.420994,45.76201]}},{"type":"Feature","properties":{"kind":"cave","name":"Av Groazei"},"geometry":{"type":"Point","coordinates":[21.966983,45.216496]}},{"type":"Feature","properties":{"kind":"cave","name":"Pestera Pietroasa"},"geometry":{"type":"Point","coordinates":[22.414839,45.826758]}},{"type":"Feature","properties":{"kind":"cave","name":"Peștera Liliecilor"},"geometry":{"type":"Point","coordinates":[21.876364,45.205362]}},{"type":"Feature","properties":{"kind":"cave","name":"Pestera Dambu Steniului"},"geometry":{"type":"Point","coordinates":[22.18504,45.542328]}},{"type":"Feature","properties":{"kind":"cave","name":"Pestera Zanelor"},"geometry":{"type":"Point","coordinates":[22.175486,45.547656]}},{"type":"Feature","properties":{"kind":"cave","name":"Pestera Paleontologica"},"geometry":{"type":"Point","coordinates":[22.42692,45.758425]}},{"type":"Feature","properties":{"kind":"cave","name":"Турчиновац","nameSr":"Турчиновац"},"geometry":{"type":"Point","coordinates":[20.1947,43.908907]}},{"type":"Feature","properties":{"kind":"cave","name":"Сесалачка пећина"},"geometry":{"type":"Point","coordinates":[21.987902,43.698711]}},{"type":"Feature","properties":{"kind":"cave","name":"Av Tomita"},"geometry":{"type":"Point","coordinates":[22.177833,45.552133]}},{"type":"Feature","properties":{"kind":"cave","name":"Avenul Ștefania"},"geometry":{"type":"Point","coordinates":[22.302785,45.697378]}},{"type":"Feature","properties":{"kind":"cave","name":"Боговинска пећина","nameSr":"Боговинска пећина","wikipedia":"sr:Боговинска пећина"},"geometry":{"type":"Point","coordinates":[21.925125,43.897019]}},{"type":"Feature","properties":{"kind":"cave","name":"Stočarska pećina","nameSr":"Сточарска пећина"},"geometry":{"type":"Point","coordinates":[19.990598,42.791692]}},{"type":"Feature","properties":{"kind":"cave","name":"Пећина II"},"geometry":{"type":"Point","coordinates":[21.625055,44.073611]}},{"type":"Feature","properties":{"kind":"cave","name":"Zakharov’s crack"},"geometry":{"type":"Point","coordinates":[19.082529,43.094817]}},{"type":"Feature","properties":{"kind":"cave","name":"Peștera Sf. Elena"},"geometry":{"type":"Point","coordinates":[21.774887,45.025594]}},{"type":"Feature","properties":{"kind":"cave","name":"Jama Pavičevič","nameSr":"Јама Павићевић"},"geometry":{"type":"Point","coordinates":[18.826691,42.483728]}},{"type":"Feature","properties":{"kind":"cave","name":"Перина пећина","nameSr":"Перина пећина","wikipedia":"sr:Перина пећина"},"geometry":{"type":"Point","coordinates":[19.818199,45.177715]}},{"type":"Feature","properties":{"kind":"cave","name":"Ледена пећина","nameSr":"Ледена пећина","length":2500.0,"wikipedia":"sr:Ледена пећина"},"geometry":{"type":"Point","coordinates":[19.954497,43.356941]}},{"type":"Feature","properties":{"kind":"cave","name":"Пећина"},"geometry":{"type":"Point","coordinates":[20.846053,43.30612]}},{"type":"Feature","properties":{"kind":"cave","name":"Пећина плана"},"geometry":{"type":"Point","coordinates":[19.787968,45.18081]}},{"type":"Feature","properties":{"kind":"cave","name":"Peștera Topolnița"},"geometry":{"type":"Point","coordinates":[22.560786,44.81989]}},{"type":"Feature","properties":{"kind":"cave","name":"Canetova cave"},"geometry":{"type":"Point","coordinates":[22.295597,44.308505]}},{"type":"Feature","properties":{"kind":"cave","name":"Peștera Racoviță"},"geometry":{"type":"Point","coordinates":[21.927217,45.181883]}},{"type":"Feature","properties":{"kind":"cave","name":"Pesteruta"},"geometry":{"type":"Point","coordinates":[22.423415,45.761131]}},{"type":"Feature","properties":{"kind":"cave","name":"Pestera Mare de la Șoroniște"},"geometry":{"type":"Point","coordinates":[22.429106,44.872913]}},{"type":"Feature","properties":{"kind":"cave","name":"Avenul Mare"},"geometry":{"type":"Point","coordinates":[21.924882,45.194553]}},{"type":"Feature","properties":{"kind":"cave","name":"Kučka pećina (Smoljanovica)","nameSr":"Кучка пећина (Смољановица)"},"geometry":{"type":"Point","coordinates":[19.401745,42.567762]}},{"type":"Feature","properties":{"kind":"cave","name":"Peștera Cuptorul Ciumei"},"geometry":{"type":"Point","coordinates":[21.922977,45.193636]}},{"type":"Feature","properties":{"kind":"cave","name":"Pestera Cerbului"},"geometry":{"type":"Point","coordinates":[21.930651,45.168951]}},{"type":"Feature","properties":{"kind":"cave","name":"Peștera Cuptorul Porcului"},"geometry":{"type":"Point","coordinates":[21.927381,45.186861]}},{"type":"Feature","properties":{"kind":"cave","name":"Shpella e Qirave"},"geometry":{"type":"Point","coordinates":[20.449693,42.321619]}},{"type":"Feature","properties":{"kind":"cave","name":"Shpella e Kusarit","wikipedia":"sq:Shpella e Kusarit"},"geometry":{"type":"Point","coordinates":[20.446875,42.319544]}},{"type":"Feature","properties":{"kind":"cave","name":"P. Zidita nr 1"},"geometry":{"type":"Point","coordinates":[21.923668,45.176579]}},{"type":"Feature","properties":{"kind":"cave","name":"Дубочка пећина","nameSr":"Дубочка пећина","wikipedia":"sr:Дубочка пећина"},"geometry":{"type":"Point","coordinates":[21.765875,44.550962]}},{"type":"Feature","properties":{"kind":"cave","name":"Av Mamut"},"geometry":{"type":"Point","coordinates":[22.189414,45.546762]}},{"type":"Feature","properties":{"kind":"cave","name":"Раковичка пећина"},"geometry":{"type":"Point","coordinates":[19.795128,43.660609]}},{"type":"Feature","properties":{"kind":"cave","name":"Чичина пећина","nameSr":"Чичина пећина"},"geometry":{"type":"Point","coordinates":[19.810011,43.612763]}},{"type":"Feature","properties":{"kind":"cave","name":"Церјанска пропаст"},"geometry":{"type":"Point","coordinates":[21.946582,43.433415]}},{"type":"Feature","properties":{"kind":"cave","name":"Попшички пештер","length":530.0,"wikipedia":"sr:Пећина Попшички пештер"},"geometry":{"type":"Point","coordinates":[21.960472,43.454613]}},{"type":"Feature","properties":{"kind":"cave","name":"Avenul cu Gheață"},"geometry":{"type":"Point","coordinates":[21.765586,45.018074]}},{"type":"Feature","properties":{"kind":"cave","name":"Peștera Bijuteria"},"geometry":{"type":"Point","coordinates":[21.765427,45.017716]}},{"type":"Feature","properties":{"kind":"cave","name":"Pestera cu 2 intrari"},"geometry":{"type":"Point","coordinates":[22.512588,44.994574]}},{"type":"Feature","properties":{"kind":"cave","name":"Pestera Salitrari"},"geometry":{"type":"Point","coordinates":[22.511664,44.993845]}},{"type":"Feature","properties":{"kind":"cave","name":"Мала Пропаст","nameSr":"Мала Пропаст"},"geometry":{"type":"Point","coordinates":[22.004357,43.612364]}},{"type":"Feature","properties":{"kind":"cave","name":"Велика Пропаст","nameSr":"Велика Пропаст"},"geometry":{"type":"Point","coordinates":[22.004349,43.615895]}},{"type":"Feature","properties":{"kind":"cave","name":"Пећина"},"geometry":{"type":"Point","coordinates":[21.884398,43.639917]}},{"type":"Feature","properties":{"kind":"cave","name":"ponor uscata"},"geometry":{"type":"Point","coordinates":[21.833189,45.030322]}},{"type":"Feature","properties":{"kind":"cave","name":"Маркова пећина","nameSr":"Маркова пећина","wikipedia":"sr:Маркова пећина"},"geometry":{"type":"Point","coordinates":[21.994243,43.629399]}},{"type":"Feature","properties":{"kind":"cave","name":"Grota"},"geometry":{"type":"Point","coordinates":[21.802519,44.878712]}},{"type":"Feature","properties":{"kind":"cave","name":"Puțul Vodarului"},"geometry":{"type":"Point","coordinates":[21.731592,45.034481]}},{"type":"Feature","properties":{"kind":"cave","name":"Avenul Uteris"},"geometry":{"type":"Point","coordinates":[21.851349,45.03895]}},{"type":"Feature","properties":{"kind":"cave","name":"Pestera Ponorul cu Tug"},"geometry":{"type":"Point","coordinates":[22.223029,45.563132]}},{"type":"Feature","properties":{"kind":"cave","name":"Avenul mare din dealul Simionului"},"geometry":{"type":"Point","coordinates":[21.755533,45.033659]}},{"type":"Feature","properties":{"kind":"cave","name":"Ковачевића пећина","nameSr":"Ковачевића пећина","length":960.0,"wikipedia":"sr:Ковачевића пећина"},"geometry":{"type":"Point","coordinates":[19.383271,44.393966]}},{"type":"Feature","properties":{"kind":"cave","name":"Peștera Lenuța"},"geometry":{"type":"Point","coordinates":[21.77481,45.024188]}},{"type":"Feature","properties":{"kind":"cave","name":"P Gaura Parsului de la C.B."},"geometry":{"type":"Point","coordinates":[21.950322,45.244161]}},{"type":"Feature","properties":{"kind":"cave","name":"Gaura Turcului"},"geometry":{"type":"Point","coordinates":[21.955574,45.252862]}},{"type":"Feature","properties":{"kind":"cave","name":"P Gaura de la capul Baciului"},"geometry":{"type":"Point","coordinates":[21.949984,45.243291]}},{"type":"Feature","properties":{"kind":"cave","name":"Pestera Roland"},"geometry":{"type":"Point","coordinates":[22.51205,44.997819]}},{"type":"Feature","properties":{"kind":"cave","name":"Sniježnica","nameSr":"Снијежница"},"geometry":{"type":"Point","coordinates":[19.282353,43.920266]}},{"type":"Feature","properties":{"kind":"cave","name":"Avenul Dosul Simionului"},"geometry":{"type":"Point","coordinates":[21.756137,45.040673]}},{"type":"Feature","properties":{"kind":"cave","name":"Церемошња","nameSr":"Церемошња","length":775.5,"wikipedia":"sr:Церемошња (пећина)"},"geometry":{"type":"Point","coordinates":[21.637329,44.38249]}},{"type":"Feature","properties":{"kind":"cave","name":"Avenul albastru"},"geometry":{"type":"Point","coordinates":[21.875921,45.087951]}},{"type":"Feature","properties":{"kind":"cave","name":"Стубна пећина"},"geometry":{"type":"Point","coordinates":[19.915455,43.357914]}},{"type":"Feature","properties":{"kind":"cave","name":"Ђаволска пећина"},"geometry":{"type":"Point","coordinates":[19.892475,43.348833]}},{"type":"Feature","properties":{"kind":"cave","name":"Велика пећина"},"geometry":{"type":"Point","coordinates":[19.891967,43.34729]}},{"type":"Feature","properties":{"kind":"cave","name":"Шиљата пећина"},"geometry":{"type":"Point","coordinates":[19.890433,43.342999]}},{"type":"Feature","properties":{"kind":"cave","name":"Pestera Cristal"},"geometry":{"type":"Point","coordinates":[22.397706,45.645303]}},{"type":"Feature","properties":{"kind":"cave","name":"Градишница","nameSr":"Градишница","wikipedia":"sr:Градашница (пећина)"},"geometry":{"type":"Point","coordinates":[22.22831,44.462493]}},{"type":"Feature","properties":{"kind":"cave","name":"Велика Рајачка пећина","nameSr":"Велика Рајачка пећина"},"geometry":{"type":"Point","coordinates":[20.133649,44.180075]}},{"type":"Feature","properties":{"kind":"cave","name":"Шалитрена пећина","nameSr":"Шалитрена пећина","wikipedia":"sr:Шалитрена пећина"},"geometry":{"type":"Point","coordinates":[20.078251,44.190734]}},{"type":"Feature","properties":{"kind":"cave","name":"Kođa pećina","nameSr":"Кођа пећина"},"geometry":{"type":"Point","coordinates":[18.828553,42.63945]}},{"type":"Feature","properties":{"kind":"cave","name":"Srpska jama","nameSr":"Српска јама"},"geometry":{"type":"Point","coordinates":[18.820248,42.503287]}},{"type":"Feature","properties":{"kind":"cave","name":"P nr 3 din valea Toplita"},"geometry":{"type":"Point","coordinates":[21.969751,45.202871]}},{"type":"Feature","properties":{"kind":"cave","name":"Av lui George"},"geometry":{"type":"Point","coordinates":[21.966973,45.208808]}},{"type":"Feature","properties":{"kind":"cave","name":"Av Verde"},"geometry":{"type":"Point","coordinates":[21.967119,45.20866]}},{"type":"Feature","properties":{"kind":"cave","name":"P alba din v Minisului"},"geometry":{"type":"Point","coordinates":[21.929522,45.01324]}},{"type":"Feature","properties":{"kind":"cave","name":"P Strategica"},"geometry":{"type":"Point","coordinates":[21.950914,45.180518]}},{"type":"Feature","properties":{"kind":"cave","name":"Peștera Gramei"},"geometry":{"type":"Point","coordinates":[22.581237,44.843349]}},{"type":"Feature","properties":{"kind":"cave","name":"Av Dibaci"},"geometry":{"type":"Point","coordinates":[21.917082,45.193143]}},{"type":"Feature","properties":{"kind":"cave","name":"Av 2238/83"},"geometry":{"type":"Point","coordinates":[21.918199,45.196136]}},{"type":"Feature","properties":{"kind":"cave","name":"P nr3 Socolovat"},"geometry":{"type":"Point","coordinates":[21.921689,45.186025]}},{"type":"Feature","properties":{"kind":"cave","name":"P din Socolovat"},"geometry":{"type":"Point","coordinates":[21.921898,45.185707]}},{"type":"Feature","properties":{"kind":"cave","name":"Av nr 5 Socolovat"},"geometry":{"type":"Point","coordinates":[21.917658,45.188582]}},{"type":"Feature","properties":{"kind":"cave","name":"Av Mortii"},"geometry":{"type":"Point","coordinates":[21.918097,45.179108]}},{"type":"Feature","properties":{"kind":"cave","name":"P cu apa din Garliste"},"geometry":{"type":"Point","coordinates":[21.853526,45.164825]}},{"type":"Feature","properties":{"kind":"cave","name":"Pestera Galatiului"},"geometry":{"type":"Point","coordinates":[21.854431,45.165715]}},{"type":"Feature","properties":{"kind":"cave","name":"Peștera Porcilor"},"geometry":{"type":"Point","coordinates":[21.910129,45.159878]}},{"type":"Feature","properties":{"kind":"cave","name":"Peștera Iederei"},"geometry":{"type":"Point","coordinates":[21.910406,45.160273]}},{"type":"Feature","properties":{"kind":"cave","name":"Peștera cu Oase"},"geometry":{"type":"Point","coordinates":[21.927353,45.188808]}},{"type":"Feature","properties":{"kind":"cave","name":"Peștera cu puț"},"geometry":{"type":"Point","coordinates":[21.927563,45.189064]}},{"type":"Feature","properties":{"kind":"cave","name":"Peștera Fugarilor"},"geometry":{"type":"Point","coordinates":[21.923135,45.187012]}},{"type":"Feature","properties":{"kind":"cave","name":"Av Bizonului"},"geometry":{"type":"Point","coordinates":[21.956287,45.246819]}},{"type":"Feature","properties":{"kind":"cave","name":"Av Incepatorilor"},"geometry":{"type":"Point","coordinates":[21.957574,45.249491]}},{"type":"Feature","properties":{"kind":"cave","name":"Av Calului"},"geometry":{"type":"Point","coordinates":[21.959858,45.223738]}},{"type":"Feature","properties":{"kind":"cave","name":"Av din Cioaca mare"},"geometry":{"type":"Point","coordinates":[21.972508,45.220474]}},{"type":"Feature","properties":{"kind":"cave","name":"Велика пећина","nameSr":"Велика пећина"},"geometry":{"type":"Point","coordinates":[19.620877,43.526742]}},{"type":"Feature","properties":{"kind":"cave","name":"Đalovića pećina","nameSr":"Ђаловића пећина"},"geometry":{"type":"Point","coordinates":[19.923372,43.076157]}},{"type":"Feature","properties":{"kind":"cave","name":"Peștera din valea seacă"},"geometry":{"type":"Point","coordinates":[21.920008,45.080758]}},{"type":"Feature","properties":{"kind":"cave","name":"Korenatac","length":218.0,"wikipedia":"sr:Пећина Коренатац"},"geometry":{"type":"Point","coordinates":[22.390613,43.459395]}},{"type":"Feature","properties":{"kind":"cave","name":"Izbucul Zanelor"},"geometry":{"type":"Point","coordinates":[22.170091,45.548687]}},{"type":"Feature","properties":{"kind":"cave","name":"Av de la Fagul Gaunos"},"geometry":{"type":"Point","coordinates":[21.92356,45.196275]}},{"type":"Feature","properties":{"kind":"cave","name":"Av Manusa lui Ioji"},"geometry":{"type":"Point","coordinates":[21.953349,45.208959]}},{"type":"Feature","properties":{"kind":"cave","name":"Мечја рупа"},"geometry":{"type":"Point","coordinates":[21.895008,43.423876]}},{"type":"Feature","properties":{"kind":"cave","name":"Av P cu tug"},"geometry":{"type":"Point","coordinates":[22.222265,45.562618]}},{"type":"Feature","properties":{"kind":"cave","name":"Av Mare Maciova"},"geometry":{"type":"Point","coordinates":[22.226685,45.56841]}},{"type":"Feature","properties":{"kind":"cave","name":"Водена пећина","nameSr":"Водена пећина","wikipedia":"sr:Водена пећина"},"geometry":{"type":"Point","coordinates":[20.034124,43.650479]}},{"type":"Feature","properties":{"kind":"cave","name":"Av din Padina cu Spini"},"geometry":{"type":"Point","coordinates":[21.931627,45.183931]}},{"type":"Feature","properties":{"kind":"cave","name":"Av Spiralat"},"geometry":{"type":"Point","coordinates":[21.929009,45.17996]}},{"type":"Feature","properties":{"kind":"cave","name":"Av din Poiana Gropii"},"geometry":{"type":"Point","coordinates":[21.976678,45.233103]}},{"type":"Feature","properties":{"kind":"cave","name":"Rajska prerast","wikipedia":"de:Rajska prerast"},"geometry":{"type":"Point","coordinates":[22.279114,44.30123]}},{"type":"Feature","properties":{"kind":"cave","name":"Av Groapa iepii"},"geometry":{"type":"Point","coordinates":[21.921069,45.203974]}},{"type":"Feature","properties":{"kind":"cave","name":"Av Tolosu"},"geometry":{"type":"Point","coordinates":[21.921659,45.200198]}},{"type":"Feature","properties":{"kind":"cave","name":"Pestera Ursului"},"geometry":{"type":"Point","coordinates":[21.966527,45.230978]}},{"type":"Feature","properties":{"kind":"cave","name":"Ponor spre Tolosu"},"geometry":{"type":"Point","coordinates":[21.966169,45.232182]}},{"type":"Feature","properties":{"kind":"cave","name":"Avenul 110"},"geometry":{"type":"Point","coordinates":[21.958184,45.23518]}},{"type":"Feature","properties":{"kind":"cave","name":"Peștera Văleaga"},"geometry":{"type":"Point","coordinates":[21.875274,45.201476]}},{"type":"Feature","properties":{"kind":"cave","name":"Av de la fantana"},"geometry":{"type":"Point","coordinates":[21.909341,45.169827]}},{"type":"Feature","properties":{"kind":"cave","name":"Av cu Sala de pe Teria"},"geometry":{"type":"Point","coordinates":[21.912567,45.170997]}},{"type":"Feature","properties":{"kind":"cave","name":"AVLC-52"},"geometry":{"type":"Point","coordinates":[19.984646,42.462506]}},{"type":"Feature","properties":{"kind":"cave","name":"AVLC-51"},"geometry":{"type":"Point","coordinates":[19.985903,42.462215]}},{"type":"Feature","properties":{"kind":"cave","name":"AVLC-71"},"geometry":{"type":"Point","coordinates":[19.981982,42.470259]}},{"type":"Feature","properties":{"kind":"cave","name":"Ташмајданска пећина","nameSr":"Ташмајданска пећина"},"geometry":{"type":"Point","coordinates":[20.470693,44.810563]}},{"type":"Feature","properties":{"kind":"cave","name":"AVLC-53"},"geometry":{"type":"Point","coordinates":[19.979258,42.46282]}},{"type":"Feature","properties":{"kind":"cave","name":"AVLC-54"},"geometry":{"type":"Point","coordinates":[19.989328,42.46497]}},{"type":"Feature","properties":{"kind":"cave","name":"AVLC-38"},"geometry":{"type":"Point","coordinates":[19.995106,42.470294]}},{"type":"Feature","properties":{"kind":"cave","name":"AVLC-55"},"geometry":{"type":"Point","coordinates":[19.982323,42.471058]}},{"type":"Feature","properties":{"kind":"cave","name":"AVLC-59"},"geometry":{"type":"Point","coordinates":[19.982138,42.469854]}},{"type":"Feature","properties":{"kind":"cave","name":"AVLC-60"},"geometry":{"type":"Point","coordinates":[19.982485,42.469614]}},{"type":"Feature","properties":{"kind":"cave","name":"AVLC-56"},"geometry":{"type":"Point","coordinates":[19.982196,42.471616]}},{"type":"Feature","properties":{"kind":"cave","name":"AVLC-58"},"geometry":{"type":"Point","coordinates":[19.982538,42.470294]}},{"type":"Feature","properties":{"kind":"cave","name":"AVLC-64"},"geometry":{"type":"Point","coordinates":[19.982575,42.469048]}},{"type":"Feature","properties":{"kind":"cave","name":"AVLC-61"},"geometry":{"type":"Point","coordinates":[19.98264,42.469676]}},{"type":"Feature","properties":{"kind":"cave","name":"AVLC-62"},"geometry":{"type":"Point","coordinates":[19.982433,42.469464]}},{"type":"Feature","properties":{"kind":"cave","name":"AVLC-66"},"geometry":{"type":"Point","coordinates":[19.981302,42.466904]}},{"type":"Feature","properties":{"kind":"cave","name":"AVLC-68"},"geometry":{"type":"Point","coordinates":[19.97977,42.467206]}},{"type":"Feature","properties":{"kind":"cave","name":"AVLC-63"},"geometry":{"type":"Point","coordinates":[19.982654,42.46911]}},{"type":"Feature","properties":{"kind":"cave","name":"AVLC-65"},"geometry":{"type":"Point","coordinates":[19.982583,42.469034]}},{"type":"Feature","properties":{"kind":"cave","name":"AVLC-67"},"geometry":{"type":"Point","coordinates":[19.980696,42.466464]}},{"type":"Feature","properties":{"kind":"cave","name":"AVLC-70"},"geometry":{"type":"Point","coordinates":[19.981793,42.469492]}},{"type":"Feature","properties":{"kind":"cave","name":"AVLC-69"},"geometry":{"type":"Point","coordinates":[19.979858,42.46754]}},{"type":"Feature","properties":{"kind":"cave","name":"AVLC-73"},"geometry":{"type":"Point","coordinates":[19.987093,42.46683]}},{"type":"Feature","properties":{"kind":"cave","name":"AVLC-75"},"geometry":{"type":"Point","coordinates":[19.988158,42.466946]}},{"type":"Feature","properties":{"kind":"cave","name":"AVLC-72"},"geometry":{"type":"Point","coordinates":[19.988163,42.466358]}},{"type":"Feature","properties":{"kind":"cave","name":"AVLC-74"},"geometry":{"type":"Point","coordinates":[19.988475,42.466884]}},{"type":"Feature","properties":{"kind":"cave","name":"Av de la cant Pin"},"geometry":{"type":"Point","coordinates":[21.968854,45.249602]}},{"type":"Feature","properties":{"kind":"cave","name":"Intr 3"},"geometry":{"type":"Point","coordinates":[22.221607,45.563049]}},{"type":"Feature","properties":{"kind":"cave","name":"Peștera Buhui (intrarea 2)"},"geometry":{"type":"Point","coordinates":[21.885549,45.093459]}},{"type":"Feature","properties":{"kind":"cave","name":"Равништарка","nameSr":"Равништарка","length":589.0,"wikipedia":"sr:Пећина Равништарка"},"geometry":{"type":"Point","coordinates":[21.617148,44.409181]}},{"type":"Feature","properties":{"kind":"cave","name":"Мегара","wikipedia":"sr:Пећина Мегара"},"geometry":{"type":"Point","coordinates":[19.733354,43.856918]}},{"type":"Feature","properties":{"kind":"cave","name":"Кађеница","nameSr":"Кађеница","wikipedia":"sr:Кађеница"},"geometry":{"type":"Point","coordinates":[20.166982,43.897734]}},{"type":"Feature","properties":{"kind":"cave","name":"PESTERA CURECEA"},"geometry":{"type":"Point","coordinates":[22.609963,44.879291]}},{"type":"Feature","properties":{"kind":"cave","name":"PESTERA CURECEA EXIT"},"geometry":{"type":"Point","coordinates":[22.601767,44.875599]}},{"type":"Feature","properties":{"kind":"cave","name":"P nr1 de la Bogda"},"geometry":{"type":"Point","coordinates":[21.566832,45.969094]}},{"type":"Feature","properties":{"kind":"cave","name":"P nr 2 de la Bogda"},"geometry":{"type":"Point","coordinates":[21.593859,45.993451]}},{"type":"Feature","properties":{"kind":"cave","name":"Велика пећина","nameSr":"Велика пећина"},"geometry":{"type":"Point","coordinates":[20.174514,43.912147]}},{"type":"Feature","properties":{"kind":"cave","name":"Врелска пећина","nameSr":"Врелска пећина"},"geometry":{"type":"Point","coordinates":[20.195624,43.882806]}},{"type":"Feature","properties":{"kind":"cave","name":"Јама Бездан","nameSr":"Јама Бездан"},"geometry":{"type":"Point","coordinates":[20.173858,43.910963]}},{"type":"Feature","properties":{"kind":"cave","name":"Paunova cave","nameSr":"Паунова пећина"},"geometry":{"type":"Point","coordinates":[19.267864,42.828146]}},{"type":"Feature","properties":{"kind":"cave","name":"P de la Carsa rosie"},"geometry":{"type":"Point","coordinates":[21.896799,45.020693]}},{"type":"Feature","properties":{"kind":"cave","name":"Av Socolovat"},"geometry":{"type":"Point","coordinates":[21.91538,45.182336]}},{"type":"Feature","properties":{"kind":"cave","name":"Av de pe Șareneac"},"geometry":{"type":"Point","coordinates":[21.877984,45.187159]}},{"type":"Feature","properties":{"kind":"cave","name":"P cu nisip"},"geometry":{"type":"Point","coordinates":[21.739488,44.865607]}},{"type":"Feature","properties":{"kind":"cave","name":"Ћебића пећина","nameSr":"Ћебића пећина"},"geometry":{"type":"Point","coordinates":[19.806125,44.250503]}},{"type":"Feature","properties":{"kind":"cave","name":"Зимоња","ele":1272.0},"geometry":{"type":"Point","coordinates":[19.813094,43.586225]}},{"type":"Feature","properties":{"kind":"cave","name":"пећина Мратишић","nameSr":"пећина Мратишић"},"geometry":{"type":"Point","coordinates":[19.945525,44.179171]}},{"type":"Feature","properties":{"kind":"cave","name":"Тодосина пећина"},"geometry":{"type":"Point","coordinates":[19.40821,43.951345]}},{"type":"Feature","properties":{"kind":"cave","name":"Попова пећина"},"geometry":{"type":"Point","coordinates":[19.709998,43.546129]}},{"type":"Feature","properties":{"kind":"cave","name":"Мијуцића пећина","nameSr":"Мијуцића пећина"},"geometry":{"type":"Point","coordinates":[21.595043,44.314597]}},{"type":"Feature","properties":{"kind":"cave","name":"Хајдучка пећина","nameSr":"Хајдучка пећина","length":840.0,"wikipedia":"sr:Хајдучка пећина"},"geometry":{"type":"Point","coordinates":[21.592599,44.328784]}},{"type":"Feature","properties":{"kind":"cave","name":"Пештурина","nameSr":"Пештурина","wikipedia":"en:Pešturina"},"geometry":{"type":"Point","coordinates":[22.046221,43.293931]}},{"type":"Feature","properties":{"kind":"cave","name":"Izbuc D Steniului"},"geometry":{"type":"Point","coordinates":[22.18377,45.539656]}},{"type":"Feature","properties":{"kind":"cave","name":"Av dintre doline"},"geometry":{"type":"Point","coordinates":[21.925986,45.196584]}},{"type":"Feature","properties":{"kind":"cave","name":"Баџарска пећина"},"geometry":{"type":"Point","coordinates":[19.957627,43.386964]}},{"type":"Feature","properties":{"kind":"cave","name":"Црквиште"},"geometry":{"type":"Point","coordinates":[21.944553,43.525328]}},{"type":"Feature","properties":{"kind":"cave","name":"Говеђи пештар"},"geometry":{"type":"Point","coordinates":[21.966106,43.532026]}},{"type":"Feature","properties":{"kind":"cave","name":"Кулиште"},"geometry":{"type":"Point","coordinates":[21.977176,43.533593]}},{"type":"Feature","properties":{"kind":"cave","name":"Кулска пећина","nameSr":"Кулска пећина","wikipedia":"sr:Кулска пећина"},"geometry":{"type":"Point","coordinates":[22.093655,43.473199]}},{"type":"Feature","properties":{"kind":"cave","name":"Држинска пећина","length":1440.0,"wikipedia":"sr:Велика пећина (Пирот)"},"geometry":{"type":"Point","coordinates":[22.594457,43.095004]}},{"type":"Feature","properties":{"kind":"cave","name":"Добра леденица"},"geometry":{"type":"Point","coordinates":[21.674983,43.978104]}},{"type":"Feature","properties":{"kind":"cave","name":"Влашка пећина","length":650.0,"wikipedia":"sr:Влашка пећина"},"geometry":{"type":"Point","coordinates":[21.707827,44.076063]}},{"type":"Feature","properties":{"kind":"cave","name":"Велика Атула"},"geometry":{"type":"Point","coordinates":[21.661113,44.107159]}},{"type":"Feature","properties":{"kind":"cave","name":"Радошева пећина"},"geometry":{"type":"Point","coordinates":[21.648027,44.106768]}},{"type":"Feature","properties":{"kind":"cave","name":"Ледена пећина"},"geometry":{"type":"Point","coordinates":[21.756126,44.158888]}},{"type":"Feature","properties":{"kind":"cave","name":"Пешћера маре","wikipedia":"sr:Пешћера Маре"},"geometry":{"type":"Point","coordinates":[22.018582,44.261735]}},{"type":"Feature","properties":{"kind":"cave","name":"Планинска пећина"},"geometry":{"type":"Point","coordinates":[21.872488,44.265999]}},{"type":"Feature","properties":{"kind":"cave","name":"Корњету пешћера"},"geometry":{"type":"Point","coordinates":[21.862048,44.308109]}},{"type":"Feature","properties":{"kind":"cave","name":"Соколовица"},"geometry":{"type":"Point","coordinates":[22.344991,44.507483]}},{"type":"Feature","properties":{"kind":"cave","name":"Граорара","wikipedia":"sr:Гаура Ра"},"geometry":{"type":"Point","coordinates":[22.318837,44.584154]}},{"type":"Feature","properties":{"kind":"cave","name":"Пешчера Пиштољ"},"geometry":{"type":"Point","coordinates":[21.921629,44.368538]}},{"type":"Feature","properties":{"kind":"cave","name":"Дебелолушка пећина"},"geometry":{"type":"Point","coordinates":[21.921343,44.3691]}},{"type":"Feature","properties":{"kind":"cave","name":"Ваља Фундата"},"geometry":{"type":"Point","coordinates":[21.920572,44.369362]}},{"type":"Feature","properties":{"kind":"cave","name":"Јовина пештера"},"geometry":{"type":"Point","coordinates":[21.628677,44.384797]}},{"type":"Feature","properties":{"kind":"cave","name":"Погана пећина","wikipedia":"sr:Погана пећ"},"geometry":{"type":"Point","coordinates":[21.587507,44.325262]}},{"type":"Feature","properties":{"kind":"cave","name":"Шумећа"},"geometry":{"type":"Point","coordinates":[21.684985,44.535573]}},{"type":"Feature","properties":{"kind":"cave","name":"Фундури"},"geometry":{"type":"Point","coordinates":[21.692196,44.572202]}},{"type":"Feature","properties":{"kind":"cave","name":"Гаура Вел"},"geometry":{"type":"Point","coordinates":[21.729363,44.604594]}},{"type":"Feature","properties":{"kind":"cave","name":"Орловача"},"geometry":{"type":"Point","coordinates":[19.184628,44.477042]}},{"type":"Feature","properties":{"kind":"cave","name":"Бобарна пећина"},"geometry":{"type":"Point","coordinates":[19.314148,44.426537]}},{"type":"Feature","properties":{"kind":"cave","name":"Шупља пећина"},"geometry":{"type":"Point","coordinates":[19.322477,44.427272]}},{"type":"Feature","properties":{"kind":"cave","name":"Црвена пећина"},"geometry":{"type":"Point","coordinates":[19.632872,44.244987]}},{"type":"Feature","properties":{"kind":"cave","name":"Јањина пећина"},"geometry":{"type":"Point","coordinates":[19.651534,44.237155]}},{"type":"Feature","properties":{"kind":"cave","name":"Буцурска пећина"},"geometry":{"type":"Point","coordinates":[19.651697,44.234665]}},{"type":"Feature","properties":{"kind":"cave","name":"Башка пећина"},"geometry":{"type":"Point","coordinates":[20.189477,44.148833]}},{"type":"Feature","properties":{"kind":"cave","name":"Кадиљача"},"geometry":{"type":"Point","coordinates":[20.750203,43.327453]}},{"type":"Feature","properties":{"kind":"cave","name":"Цинцаруша"},"geometry":{"type":"Point","coordinates":[20.431165,42.926692]}},{"type":"Feature","properties":{"kind":"cave","name":"Смолућка пећина","wikipedia":"sr:Смолућка пећина"},"geometry":{"type":"Point","coordinates":[20.361396,43.04533]}},{"type":"Feature","properties":{"kind":"cave","name":"Тубића пећина"},"geometry":{"type":"Point","coordinates":[19.990524,43.327616]}},{"type":"Feature","properties":{"kind":"cave","name":"Ушачка пећина","length":2110.0,"wikipedia":"sr:Ушачка пећина"},"geometry":{"type":"Point","coordinates":[19.955957,43.344864]}},{"type":"Feature","properties":{"kind":"cave","name":"Велика пећина"},"geometry":{"type":"Point","coordinates":[19.809592,43.364658]}},{"type":"Feature","properties":{"kind":"cave","name":"Велика пећина"},"geometry":{"type":"Point","coordinates":[19.606715,43.519325]}},{"type":"Feature","properties":{"kind":"cave","name":"Рикача"},"geometry":{"type":"Point","coordinates":[19.763502,43.505389]}},{"type":"Feature","properties":{"kind":"cave","name":"Гњилата пећина"},"geometry":{"type":"Point","coordinates":[19.935882,43.425614]}},{"type":"Feature","properties":{"kind":"cave","name":"Стуричка пећина"},"geometry":{"type":"Point","coordinates":[19.931317,43.42978]}},{"type":"Feature","properties":{"kind":"cave","name":"Драгачевска пећина","ele":405.0,"wikipedia":"sr:Драгачевска пећина"},"geometry":{"type":"Point","coordinates":[20.241528,43.73371]}},{"type":"Feature","properties":{"kind":"cave","name":"Жунска пећина"},"geometry":{"type":"Point","coordinates":[19.837817,43.755908]}},{"type":"Feature","properties":{"kind":"cave","name":"Дуге пећине","wikipedia":"sr:Дуга пећина"},"geometry":{"type":"Point","coordinates":[19.419682,43.952878]}},{"type":"Feature","properties":{"kind":"cave","name":"Видова пећина","wikipedia":"sr:Видова пећина"},"geometry":{"type":"Point","coordinates":[19.423598,43.952802]}},{"type":"Feature","properties":{"kind":"cave","name":"Јабучка пећина"},"geometry":{"type":"Point","coordinates":[19.42614,43.949772]}},{"type":"Feature","properties":{"kind":"cave","name":"Козја пећина"},"geometry":{"type":"Point","coordinates":[19.427819,43.94514]}},{"type":"Feature","properties":{"kind":"cave","name":"Реџина пећина"},"geometry":{"type":"Point","coordinates":[19.514117,43.580549]}},{"type":"Feature","properties":{"kind":"cave","name":"Стан пећина"},"geometry":{"type":"Point","coordinates":[19.530005,43.517057]}},{"type":"Feature","properties":{"kind":"cave","name":"Попова пећина"},"geometry":{"type":"Point","coordinates":[19.565061,43.38957]}},{"type":"Feature","properties":{"kind":"cave","name":"Đavolova duvka","ele":640.0},"geometry":{"type":"Point","coordinates":[22.386199,43.051381]}},{"type":"Feature","properties":{"kind":"cave","name":"Peștera cu Iederă"},"geometry":{"type":"Point","coordinates":[21.757544,45.010534]}},{"type":"Feature","properties":{"kind":"cave","name":"Av lui Luta"},"geometry":{"type":"Point","coordinates":[21.949301,45.23677]}},{"type":"Feature","properties":{"kind":"cave","name":"Intrarea Ponicova"},"geometry":{"type":"Point","coordinates":[21.944268,45.168719]}},{"type":"Feature","properties":{"kind":"cave","name":"Sokolska pečina","nameSr":"Соколска пећина"},"geometry":{"type":"Point","coordinates":[19.003857,42.428604]}},{"type":"Feature","properties":{"kind":"cave","name":"Aven -25m"},"geometry":{"type":"Point","coordinates":[21.91566,45.192804]}},{"type":"Feature","properties":{"kind":"cave","name":"Тунел „Код лепе Влајне”"},"geometry":{"type":"Point","coordinates":[21.951584,44.027236]}},{"type":"Feature","properties":{"kind":"cave","name":"Avenul de 100"},"geometry":{"type":"Point","coordinates":[21.758513,45.00803]}},{"type":"Feature","properties":{"kind":"cave","name":"Peștera nr. 2 de la Cârneală"},"geometry":{"type":"Point","coordinates":[21.932181,45.082825]}},{"type":"Feature","properties":{"kind":"cave","name":"Peștera nr. 3 de la Cârneală"},"geometry":{"type":"Point","coordinates":[21.915338,45.068718]}},{"type":"Feature","properties":{"kind":"cave","name":"Peștera Cârneală"},"geometry":{"type":"Point","coordinates":[21.931429,45.07197]}},{"type":"Feature","properties":{"kind":"cave","name":"Шпајска пећина","ele":460.0},"geometry":{"type":"Point","coordinates":[22.228609,43.258911]}},{"type":"Feature","properties":{"kind":"cave","name":"Av Frumos"},"geometry":{"type":"Point","coordinates":[21.920557,45.162587]}},{"type":"Feature","properties":{"kind":"cave","name":"Av din Lapiezuri"},"geometry":{"type":"Point","coordinates":[21.917198,45.168588]}},{"type":"Feature","properties":{"kind":"cave","name":"Av din valea Pietroasa"},"geometry":{"type":"Point","coordinates":[21.919756,45.169767]}},{"type":"Feature","properties":{"kind":"cave","name":"Av Crapaturii"},"geometry":{"type":"Point","coordinates":[21.921544,45.173439]}},{"type":"Feature","properties":{"kind":"cave","name":"Av lui Didi"},"geometry":{"type":"Point","coordinates":[21.908345,45.188157]}},{"type":"Feature","properties":{"kind":"cave","name":"Av lui Nichi"},"geometry":{"type":"Point","coordinates":[21.910441,45.185981]}},{"type":"Feature","properties":{"kind":"cave","name":"Av de la km 23"},"geometry":{"type":"Point","coordinates":[21.827616,45.013321]}},{"type":"Feature","properties":{"kind":"cave","name":"Ciocârdie"},"geometry":{"type":"Point","coordinates":[22.559669,44.81301]}},{"type":"Feature","properties":{"kind":"cave","name":"Prosăc"},"geometry":{"type":"Point","coordinates":[22.563744,44.818164]}},{"type":"Feature","properties":{"kind":"cave","name":"Pestera Marghitas-"},"geometry":{"type":"Point","coordinates":[21.881516,45.107675]}},{"type":"Feature","properties":{"kind":"cave","name":"Av Padurarului"},"geometry":{"type":"Point","coordinates":[21.918937,45.001206]}},{"type":"Feature","properties":{"kind":"cave","name":"P cu aven din poiana Liciovacea"},"geometry":{"type":"Point","coordinates":[21.911394,44.993635]}},{"type":"Feature","properties":{"kind":"cave","name":"Av Stana lui Ivascu"},"geometry":{"type":"Point","coordinates":[21.873843,44.933803]}},{"type":"Feature","properties":{"kind":"cave","name":"Av cu trei intrari"},"geometry":{"type":"Point","coordinates":[21.911599,44.988368]}},{"type":"Feature","properties":{"kind":"cave","name":"Peștera Balta"},"geometry":{"type":"Point","coordinates":[22.626863,44.874431]}},{"type":"Feature","properties":{"kind":"cave","name":"Peștera lui Șerban"},"geometry":{"type":"Point","coordinates":[22.429448,44.881397]}},{"type":"Feature","properties":{"kind":"cave","name":"Av de sub creasta"},"geometry":{"type":"Point","coordinates":[21.979619,45.240265]}},{"type":"Feature","properties":{"kind":"cave","name":"Pestera din Bradet"},"geometry":{"type":"Point","coordinates":[21.979246,45.239576]}},{"type":"Feature","properties":{"kind":"cave","name":"Av Necunoscut"},"geometry":{"type":"Point","coordinates":[21.976456,45.245911]}},{"type":"Feature","properties":{"kind":"cave","name":"Av 8 martie"},"geometry":{"type":"Point","coordinates":[21.970102,45.235354]}},{"type":"Feature","properties":{"kind":"cave","name":"Пещера \"Мечата дупка\""},"geometry":{"type":"Point","coordinates":[22.757125,43.884228]}},{"type":"Feature","properties":{"kind":"cave","name":"Пећина Соколица"},"geometry":{"type":"Point","coordinates":[20.520013,43.934262]}},{"type":"Feature","properties":{"kind":"cave","name":"Мандина пећина","wikipedia":"sr:Мандина пећина"},"geometry":{"type":"Point","coordinates":[21.941468,44.056652]}},{"type":"Feature","properties":{"kind":"cave","name":"Градац","nameSr":"Градац","wikipedia":"sr:Пећина Градац"},"geometry":{"type":"Point","coordinates":[21.031516,44.153678]}},{"type":"Feature","properties":{"kind":"cave","name":"Хаџи Проданова пећина","ele":600.0,"wikipedia":"sr:Хаџи Проданова пећина"},"geometry":{"type":"Point","coordinates":[20.240663,43.627488]}},{"type":"Feature","properties":{"kind":"cave","name":"Цетинская пещера. Верхний вход"},"geometry":{"type":"Point","coordinates":[18.920799,42.388119]}},{"type":"Feature","properties":{"kind":"cave","name":"Izbuc Oravița"},"geometry":{"type":"Point","coordinates":[21.770781,45.058938]}},{"type":"Feature","properties":{"kind":"cave","name":"Пещера"},"geometry":{"type":"Point","coordinates":[18.886557,42.285924]}},{"type":"Feature","properties":{"kind":"cave","name":"Vulcan carbogazos 1"},"geometry":{"type":"Point","coordinates":[21.396219,45.949458]}},{"type":"Feature","properties":{"kind":"cave","name":"Shpella e Tri Dritareve"},"geometry":{"type":"Point","coordinates":[20.465076,42.264758]}},{"type":"Feature","properties":{"kind":"cave","name":"Peștera Voinii"},"geometry":{"type":"Point","coordinates":[21.80427,44.879819]}},{"type":"Feature","properties":{"kind":"cave","name":"Peștera Boilor"},"geometry":{"type":"Point","coordinates":[21.802324,44.878855]}},{"type":"Feature","properties":{"kind":"cave","name":"Peșterile lui Vit"},"geometry":{"type":"Point","coordinates":[21.80226,44.878798]}},{"type":"Feature","properties":{"kind":"cave","name":"Peștera Dubova"},"geometry":{"type":"Point","coordinates":[21.779978,44.891227]}},{"type":"Feature","properties":{"kind":"cave","name":"Peștera Porcariului"},"geometry":{"type":"Point","coordinates":[21.787898,44.891574]}},{"type":"Feature","properties":{"kind":"cave","name":"Gaura Hicleană"},"geometry":{"type":"Point","coordinates":[21.79457,44.893812]}},{"type":"Feature","properties":{"kind":"cave","name":"Peștera Rolului"},"geometry":{"type":"Point","coordinates":[21.77362,44.900162]}},{"type":"Feature","properties":{"kind":"cave","name":"Кобиља пећина"},"geometry":{"type":"Point","coordinates":[19.696954,43.747306]}},{"type":"Feature","properties":{"kind":"cave","name":"Jama Viper"},"geometry":{"type":"Point","coordinates":[18.82854,42.44779]}},{"type":"Feature","properties":{"kind":"cave","name":"Viperas-jama"},"geometry":{"type":"Point","coordinates":[18.828544,42.447785]}},{"type":"Feature","properties":{"kind":"cave","name":"Pestera Vidra"},"geometry":{"type":"Point","coordinates":[21.817833,45.14593]}},{"type":"Feature","properties":{"kind":"cave","name":"Јама Леденица","nameSr":"Јама Леденица","ele":935.0},"geometry":{"type":"Point","coordinates":[21.894756,43.748845]}},{"type":"Feature","properties":{"kind":"cave","name":"B3 (Grlati)","depth":28.0},"geometry":{"type":"Point","coordinates":[19.578514,42.547035]}},{"type":"Feature","properties":{"kind":"cave","name":"B1 (Grlati)","ele":1848.0,"depth":32.0},"geometry":{"type":"Point","coordinates":[19.578087,42.548493]}},{"type":"Feature","properties":{"kind":"cave","name":"Spiral","ele":1829.0,"depth":713.0},"geometry":{"type":"Point","coordinates":[19.547241,42.543008]}},{"type":"Feature","properties":{"kind":"cave","name":"Peștera Gugului"},"geometry":{"type":"Point","coordinates":[22.687356,45.291745]}},{"type":"Feature","properties":{"kind":"cave","name":"Mina"},"geometry":{"type":"Point","coordinates":[22.401551,45.643134]}},{"type":"Feature","properties":{"kind":"cave","name":"Av cu cuib"},"geometry":{"type":"Point","coordinates":[21.980481,45.251577]}},{"type":"Feature","properties":{"kind":"cave","name":"P Ponor Plopa"},"geometry":{"type":"Point","coordinates":[21.837598,45.02844]}},{"type":"Feature","properties":{"kind":"cave","name":"Av cu Lumanari"},"geometry":{"type":"Point","coordinates":[21.974569,45.249891]}},{"type":"Feature","properties":{"kind":"cave","name":"Av din Uvala"},"geometry":{"type":"Point","coordinates":[21.966032,45.2494]}},{"type":"Feature","properties":{"kind":"cave","name":"Galeria Melia"},"geometry":{"type":"Point","coordinates":[21.782667,45.352757]}},{"type":"Feature","properties":{"kind":"cave","name":"Av de la Padina seaca"},"geometry":{"type":"Point","coordinates":[21.940352,45.202038]}},{"type":"Feature","properties":{"kind":"cave","name":"Peștera Bătrână"},"geometry":{"type":"Point","coordinates":[21.932331,45.154508]}},{"type":"Feature","properties":{"kind":"cave","name":"Пещера \"Сакулица\""},"geometry":{"type":"Point","coordinates":[22.817377,43.805893]}},{"type":"Feature","properties":{"kind":"cave","name":"Пещера „Опушената дупка“","ele":22.0},"geometry":{"type":"Point","coordinates":[22.817094,43.808967]}},{"type":"Feature","properties":{"kind":"cave","name":"Bârlogul Hoților"},"geometry":{"type":"Point","coordinates":[22.468228,45.776535]}},{"type":"Feature","properties":{"kind":"cave","name":"Shpellë"},"geometry":{"type":"Point","coordinates":[20.240284,42.546324]}},{"type":"Feature","properties":{"kind":"cave","name":"Голема Порица"},"geometry":{"type":"Point","coordinates":[21.933262,43.742839]}},{"type":"Feature","properties":{"kind":"cave","name":"Jama Stella-Rosa"},"geometry":{"type":"Point","coordinates":[18.843365,42.460522]}},{"type":"Feature","properties":{"kind":"cave","name":"Jama mače"},"geometry":{"type":"Point","coordinates":[18.83135,42.446267]}},{"type":"Feature","properties":{"kind":"cave","name":"Mina"},"geometry":{"type":"Point","coordinates":[21.727791,45.270216]}},{"type":"Feature","properties":{"kind":"cave","name":"Stjeničko okno"},"geometry":{"type":"Point","coordinates":[20.356801,43.818168]}},{"type":"Feature","properties":{"kind":"cave","name":"Shpella e Husit dhe Pusit"},"geometry":{"type":"Point","coordinates":[19.673254,42.387709]}},{"type":"Feature","properties":{"kind":"cave","name":"Shpella e Gjolajve"},"geometry":{"type":"Point","coordinates":[19.493593,42.332414]}},{"type":"Feature","properties":{"kind":"cave","name":"Shpella e Njerzve te Lagur"},"geometry":{"type":"Point","coordinates":[19.691848,42.378926]}},{"type":"Feature","properties":{"kind":"cave","name":"Cetinje Cave (lower entrance)"},"geometry":{"type":"Point","coordinates":[18.922202,42.388415]}},{"type":"Feature","properties":{"kind":"cave","name":"Mina"},"geometry":{"type":"Point","coordinates":[22.518195,45.345562]}},{"type":"Feature","properties":{"kind":"cave","name":"Расовачка пећина"},"geometry":{"type":"Point","coordinates":[20.031147,43.6493]}},{"type":"Feature","properties":{"kind":"cave","name":"Vidana Pecina"},"geometry":{"type":"Point","coordinates":[19.035814,43.044651]}},{"type":"Feature","properties":{"kind":"cave","name":"Shpella e Kataraktit"},"geometry":{"type":"Point","coordinates":[19.795957,42.374243]}},{"type":"Feature","properties":{"kind":"cave","name":"Shpella e Rrathëve të Potit"},"geometry":{"type":"Point","coordinates":[19.764676,42.392722]}},{"type":"Feature","properties":{"kind":"cave","name":"Shpella Gumnarit (Thethit)"},"geometry":{"type":"Point","coordinates":[19.795126,42.38227]}},{"type":"Feature","properties":{"kind":"cave","name":"Shpella e Haxhisë"},"geometry":{"type":"Point","coordinates":[19.852657,42.42181]}},{"type":"Feature","properties":{"kind":"cave","name":"Терзића пећина"},"geometry":{"type":"Point","coordinates":[19.792218,43.714464]}},{"type":"Feature","properties":{"kind":"cave","name":"KK11","depth":47.0},"geometry":{"type":"Point","coordinates":[19.556698,42.541462]}},{"type":"Feature","properties":{"kind":"cave","name":"KK2","depth":30.0},"geometry":{"type":"Point","coordinates":[19.55634,42.540751]}},{"type":"Feature","properties":{"kind":"cave","name":"Black bird cave","depth":58.0},"geometry":{"type":"Point","coordinates":[19.548485,42.543763]}},{"type":"Feature","properties":{"kind":"cave","name":"Pećina"},"geometry":{"type":"Point","coordinates":[20.813316,43.299349]}},{"type":"Feature","properties":{"kind":"cave","name":"Kron Grzoj"},"geometry":{"type":"Point","coordinates":[19.47623,42.40422]}},{"type":"Feature","properties":{"kind":"cave","name":"S3","depth":48.0},"geometry":{"type":"Point","coordinates":[19.543862,42.537771]}},{"type":"Feature","properties":{"kind":"cave","name":"S4","depth":87.0},"geometry":{"type":"Point","coordinates":[19.543438,42.537726]}},{"type":"Feature","properties":{"kind":"cave","name":"KK4"},"geometry":{"type":"Point","coordinates":[19.512596,42.470484]}},{"type":"Feature","properties":{"kind":"cave","name":"Opasna Jama","depth":464.0},"geometry":{"type":"Point","coordinates":[19.521679,42.47363]}},{"type":"Feature","properties":{"kind":"cave","name":"KK2"},"geometry":{"type":"Point","coordinates":[19.517647,42.473736]}},{"type":"Feature","properties":{"kind":"cave","name":"KK7"},"geometry":{"type":"Point","coordinates":[19.517308,42.472158]}},{"type":"Feature","properties":{"kind":"cave","name":"Spela e akulit"},"geometry":{"type":"Point","coordinates":[19.518885,42.471474]}},{"type":"Feature","properties":{"kind":"cave","name":"Zatrijebački katun 1"},"geometry":{"type":"Point","coordinates":[19.5412,42.480188]}},{"type":"Feature","properties":{"kind":"cave","name":"Jagodina jama","depth":70.0},"geometry":{"type":"Point","coordinates":[19.54407,42.479525]}},{"type":"Feature","properties":{"kind":"cave","name":"Ponor Korita","depth":5.0},"geometry":{"type":"Point","coordinates":[19.542029,42.488532]}},{"type":"Feature","properties":{"kind":"cave","name":"Kišna Jama","depth":70.0},"geometry":{"type":"Point","coordinates":[19.547988,42.492705]}},{"type":"Feature","properties":{"kind":"cave","name":"Početnikova jama"},"geometry":{"type":"Point","coordinates":[19.516694,42.471944]}},{"type":"Feature","properties":{"kind":"cave","name":"Spela e nanes"},"geometry":{"type":"Point","coordinates":[19.483761,42.466202]}},{"type":"Feature","properties":{"kind":"cave","name":"Bezimena jama","depth":60.0},"geometry":{"type":"Point","coordinates":[19.52086,42.48101]}},{"type":"Feature","properties":{"kind":"cave","name":"Jama od snijega","depth":70.0},"geometry":{"type":"Point","coordinates":[19.51594,42.48052]}},{"type":"Feature","properties":{"kind":"cave","name":"Jama ispod Kodre","depth":84.0},"geometry":{"type":"Point","coordinates":[19.46581,42.48029]}},{"type":"Feature","properties":{"kind":"cave","name":"Šoćnora","depth":44.0},"geometry":{"type":"Point","coordinates":[19.45155,42.469617]}},{"type":"Feature","properties":{"kind":"cave","name":"KK5"},"geometry":{"type":"Point","coordinates":[19.517277,42.472195]}},{"type":"Feature","properties":{"kind":"cave","name":"Jama iza Trogrle jame"},"geometry":{"type":"Point","coordinates":[19.47178,42.4766]}},{"type":"Feature","properties":{"kind":"cave","name":"Jama u Kodre","depth":100.0},"geometry":{"type":"Point","coordinates":[19.465882,42.479861]}},{"type":"Feature","properties":{"kind":"cave","name":"Zepina jama","depth":65.0},"geometry":{"type":"Point","coordinates":[19.463438,42.479368]}},{"type":"Feature","properties":{"kind":"cave","name":"Gura","depth":5.0},"geometry":{"type":"Point","coordinates":[19.472134,42.478052]}},{"type":"Feature","properties":{"kind":"cave","name":"Trogrla jama","depth":100.0},"geometry":{"type":"Point","coordinates":[19.470653,42.476877]}},{"type":"Feature","properties":{"kind":"cave","name":"Komitska pečina","depth":3.0},"geometry":{"type":"Point","coordinates":[19.474719,42.474197]}},{"type":"Feature","properties":{"kind":"cave","name":"Jama u Duboki koljat"},"geometry":{"type":"Point","coordinates":[19.476247,42.476618]}},{"type":"Feature","properties":{"kind":"cave","name":"Jama u Duku","depth":35.0},"geometry":{"type":"Point","coordinates":[19.497558,42.483882]}},{"type":"Feature","properties":{"kind":"cave","name":"Jama Šaljeza","depth":30.0},"geometry":{"type":"Point","coordinates":[19.490428,42.483445]}},{"type":"Feature","properties":{"kind":"cave","name":"Matova jama"},"geometry":{"type":"Point","coordinates":[19.495861,42.480041]}},{"type":"Feature","properties":{"kind":"cave","name":"Jama u borove","depth":25.0},"geometry":{"type":"Point","coordinates":[19.501183,42.480669]}},{"type":"Feature","properties":{"kind":"cave","name":"Snježnica kod Milića"},"geometry":{"type":"Point","coordinates":[19.502093,42.47819]}},{"type":"Feature","properties":{"kind":"cave","name":"JG2"},"geometry":{"type":"Point","coordinates":[19.47434,42.47625]}},{"type":"Feature","properties":{"kind":"cave","name":"Jama pored puta"},"geometry":{"type":"Point","coordinates":[19.52509,42.47425]}},{"type":"Feature","properties":{"kind":"cave","name":"Špela ujnina"},"geometry":{"type":"Point","coordinates":[19.453167,42.470633]}},{"type":"Feature","properties":{"kind":"cave","name":"JOO8"},"geometry":{"type":"Point","coordinates":[19.52467,42.47468]}},{"type":"Feature","properties":{"kind":"cave","name":"Tomi2"},"geometry":{"type":"Point","coordinates":[19.507167,42.471028]}},{"type":"Feature","properties":{"kind":"cave","name":"Tomi1"},"geometry":{"type":"Point","coordinates":[19.500722,42.471667]}},{"type":"Feature","properties":{"kind":"cave","name":"Jama Mušova"},"geometry":{"type":"Point","coordinates":[19.462046,42.471523]}},{"type":"Feature","properties":{"kind":"cave","name":"Rasap"},"geometry":{"type":"Point","coordinates":[19.459698,42.462128]}},{"type":"Feature","properties":{"kind":"cave","name":"Cucke"},"geometry":{"type":"Point","coordinates":[19.447791,42.466231]}},{"type":"Feature","properties":{"kind":"cave","name":"Boškova"},"geometry":{"type":"Point","coordinates":[19.444229,42.465236]}},{"type":"Feature","properties":{"kind":"cave","name":"B2 (Grlati)"},"geometry":{"type":"Point","coordinates":[19.57721,42.548042]}},{"type":"Feature","properties":{"kind":"cave","name":"B5 (Grlati)"},"geometry":{"type":"Point","coordinates":[19.576075,42.546595]}},{"type":"Feature","properties":{"kind":"cave","name":"B6 (Grlati)"},"geometry":{"type":"Point","coordinates":[19.576155,42.546056]}},{"type":"Feature","properties":{"kind":"cave","name":"B3 (Beskeza)","depth":24.0},"geometry":{"type":"Point","coordinates":[19.571618,42.552732]}},{"type":"Feature","properties":{"kind":"cave","name":"B1 (Beskeza)","depth":23.0},"geometry":{"type":"Point","coordinates":[19.56929,42.55119]}},{"type":"Feature","properties":{"kind":"cave","name":"Monstruozni Prostor","depth":290.0},"geometry":{"type":"Point","coordinates":[19.569227,42.551846]}},{"type":"Feature","properties":{"kind":"cave","name":"S3","depth":14.0},"geometry":{"type":"Point","coordinates":[19.547544,42.542991]}},{"type":"Feature","properties":{"kind":"cave","name":"Meander S2","depth":23.0},"geometry":{"type":"Point","coordinates":[19.547791,42.542859]}},{"type":"Feature","properties":{"kind":"cave","name":"KK1","depth":12.0},"geometry":{"type":"Point","coordinates":[19.554072,42.541912]}},{"type":"Feature","properties":{"kind":"cave","name":"B4 (Grlati)"},"geometry":{"type":"Point","coordinates":[19.576261,42.546761]}},{"type":"Feature","properties":{"kind":"cave","name":"Av. Carasovenilor"},"geometry":{"type":"Point","coordinates":[21.866459,45.191927]}},{"type":"Feature","properties":{"kind":"cave","name":"Пећина"},"geometry":{"type":"Point","coordinates":[21.888347,43.634694]}},{"type":"Feature","properties":{"kind":"cave","name":"Jama Kržanja","depth":38.0},"geometry":{"type":"Point","coordinates":[19.442975,42.5252]}},{"type":"Feature","properties":{"kind":"cave","name":"Marina pečina","ele":1142.0,"length":160.0},"geometry":{"type":"Point","coordinates":[19.437368,42.555202]}},{"type":"Feature","properties":{"kind":"cave","name":"Kazan","nameSr":"Казан"},"geometry":{"type":"Point","coordinates":[19.031387,44.608395]}},{"type":"Feature","properties":{"kind":"cave","name":"Magara"},"geometry":{"type":"Point","coordinates":[19.203148,42.458857]}},{"type":"Feature","properties":{"kind":"cave","name":"Mace rupa"},"geometry":{"type":"Point","coordinates":[18.837961,42.44552]}},{"type":"Feature","properties":{"kind":"cave","name":"Tri rupe"},"geometry":{"type":"Point","coordinates":[18.835801,42.445607]}},{"type":"Feature","properties":{"kind":"cave","name":"Karneval jama"},"geometry":{"type":"Point","coordinates":[18.836159,42.445025]}},{"type":"Feature","properties":{"kind":"cave","name":"Pećina sa čepom"},"geometry":{"type":"Point","coordinates":[18.832876,42.446252]}},{"type":"Feature","properties":{"kind":"cave","name":"Lampa jama"},"geometry":{"type":"Point","coordinates":[18.829656,42.446721]}},{"type":"Feature","properties":{"kind":"cave","name":"Pećina mrtve neveste"},"geometry":{"type":"Point","coordinates":[18.827577,42.448765]}},{"type":"Feature","properties":{"kind":"cave","name":"Лагум у Радићевој"},"geometry":{"type":"Point","coordinates":[20.453111,44.814063]}},{"type":"Feature","properties":{"kind":"cave","name":"Golubinj pećina"},"geometry":{"type":"Point","coordinates":[18.824972,42.27626]}},{"type":"Feature","properties":{"kind":"cave","name":"ST1"},"geometry":{"type":"Point","coordinates":[19.607417,42.544488]}},{"type":"Feature","properties":{"kind":"cave","name":"Plava (ST4)","ele":1832.0},"geometry":{"type":"Point","coordinates":[19.610645,42.547515]}},{"type":"Feature","properties":{"kind":"cave","name":"Babina pećina"},"geometry":{"type":"Point","coordinates":[19.351467,42.52581]}},{"type":"Feature","properties":{"kind":"cave","name":"Vruća pećina"},"geometry":{"type":"Point","coordinates":[19.360209,42.516194]}},{"type":"Feature","properties":{"kind":"cave","name":"Smrdulja"},"geometry":{"type":"Point","coordinates":[19.348242,42.534287]}},{"type":"Feature","properties":{"kind":"cave","name":"Dugačka"},"geometry":{"type":"Point","coordinates":[19.343049,42.541357]}},{"type":"Feature","properties":{"kind":"cave","name":"Rasadnica"},"geometry":{"type":"Point","coordinates":[19.343253,42.541657]}},{"type":"Feature","properties":{"kind":"cave","name":"Brštanica"},"geometry":{"type":"Point","coordinates":[19.343282,42.543487]}},{"type":"Feature","properties":{"kind":"cave","name":"ST3","depth":19.0},"geometry":{"type":"Point","coordinates":[19.610375,42.547473]}},{"type":"Feature","properties":{"kind":"cave","name":"Portal (ST2)"},"geometry":{"type":"Point","coordinates":[19.609838,42.545205]}},{"type":"Feature","properties":{"kind":"cave","name":"IS4"},"geometry":{"type":"Point","coordinates":[19.501939,42.570879]}},{"type":"Feature","properties":{"kind":"cave","name":"IS3"},"geometry":{"type":"Point","coordinates":[19.50151,42.570927]}},{"type":"Feature","properties":{"kind":"cave","name":"IS2"},"geometry":{"type":"Point","coordinates":[19.50129,42.571184]}},{"type":"Feature","properties":{"kind":"cave","name":"Ilijina Pećina"},"geometry":{"type":"Point","coordinates":[19.023577,43.538492]}},{"type":"Feature","properties":{"kind":"cave","name":"Gryka e Madhe"},"geometry":{"type":"Point","coordinates":[20.201213,42.665168]}},{"type":"Feature","properties":{"kind":"cave","name":"Степановића пећина","nameSr":"Степановића пећина"},"geometry":{"type":"Point","coordinates":[20.180185,44.13244]}},{"type":"Feature","properties":{"kind":"cave","name":"Стојковска пећина"},"geometry":{"type":"Point","coordinates":[19.412547,44.376525]}},{"type":"Feature","properties":{"kind":"cave","name":"Peștera Mare de la Cascada Beușnița"},"geometry":{"type":"Point","coordinates":[21.807564,44.935609]}},{"type":"Feature","properties":{"kind":"cave","name":"Birat e Kishës"},"geometry":{"type":"Point","coordinates":[20.928939,42.89392]}},{"type":"Feature","properties":{"kind":"cave","name":"cave of kusar"},"geometry":{"type":"Point","coordinates":[20.446898,42.31954]}},{"type":"Feature","properties":{"kind":"cave","name":"cave of candles"},"geometry":{"type":"Point","coordinates":[20.449681,42.321615]}}]}