{"type": "FeatureCollection", "features": [{"type": "Feature", "properties": {}, "geometry": {"type": "LineString", "coordinates": [[21.333, 42.5], [21.333, 42.75], [20.833, 42.75], [20.833, 43.0], [20.333, 43.0], [19.833, 43.0], [19.833, 43.25], [19.333, 43.25], [19.333, 43.5], [19.333, 43.75], [19.333, 44.0], [19.333, 44.25], [19.333, 44.5], [19.333, 44.75], [19.833, 44.75], [19.833, 45.0], [19.333, 45.0], [18.833, 45.0], [18.833, 45.25], [18.833, 45.5], [18.833, 45.75], [18.833, 46.0], [19.333, 46.0], [19.333, 46.25], [19.833, 46.25], [20.333, 46.25], [20.333, 46.0], [20.333, 45.75], [20.833, 45.75], [20.833, 45.5], [20.833, 45.25], [21.333, 45.25], [21.333, 45.0], [21.333, 44.75], [21.833, 44.75], [21.833, 44.5], [22.333, 44.5], [22.333, 44.25], [22.833, 44.25], [22.833, 44.0], [22.333, 44.0], [22.333, 43.75], [22.333, 43.5], [22.833, 43.5], [22.833, 43.25], [22.833, 43.0], [22.333, 43.0], [22.333, 42.75], [22.333, 42.5], [22.333, 42.25], [21.833, 42.25], [21.833, 42.5], [21.333, 42.5]]}}, {"type": "Feature", "properties": {}, "geometry": {"type": "LineString", "coordinates": [[22.333, 44.5], [22.333, 44.75], [22.833, 44.75], [22.833, 44.5], [22.333, 44.5]]}}]}