{"type":"Feature","properties":{"name":"Србија + Косово","source":"Natural Earth 1:50m"},"geometry":{"type":"MultiPolygon","coordinates":[[[[21.3601,44.8267],[21.5231,44.7901],[21.5971,44.7554],[21.6361,44.7104],[21.7402,44.6807],[21.9093,44.6661],[22.027,44.6199],[22.0931,44.5419],[22.201,44.5607],[22.3507,44.6761],[22.4977,44.7062],[22.6421,44.651],[22.7209,44.6055],[22.7344,44.5699],[22.7008,44.5555],[22.6201,44.5624],[22.554,44.5403],[22.5023,44.4896],[22.4945,44.4354],[22.5307,44.378],[22.5818,44.3383],[22.6479,44.3165],[22.6833,44.2865],[22.6879,44.2483],[22.7051,44.2378],[22.6675,44.2202],[22.6266,44.1941],[22.6034,44.1486],[22.5975,44.0753],[22.469,44.018],[22.4208,44.0074],[22.399,43.9695],[22.3654,43.8621],[22.3696,43.7813],[22.3869,43.7401],[22.3948,43.7066],[22.4363,43.6655],[22.4741,43.6022],[22.4991,43.5188],[22.5546,43.4545],[22.697,43.3911],[22.7676,43.3541],[22.8197,43.3007],[22.8596,43.2523],[22.9769,43.188],[22.968,43.142],[22.9423,43.0971],[22.9152,43.076],[22.8568,43.0183],[22.7999,42.9857],[22.7062,42.8839],[22.5581,42.8785],[22.5228,42.8703],[22.4668,42.8425],[22.4393,42.7916],[22.4656,42.7508],[22.4633,42.7095],[22.4362,42.6291],[22.4721,42.5433],[22.5242,42.5039],[22.5324,42.4812],[22.5235,42.441],[22.4457,42.3591],[22.4221,42.3289],[22.344,42.314],[22.3174,42.3217],[22.2771,42.3499],[22.2397,42.3582],[22.1467,42.325],[22.0521,42.3046],[21.9775,42.3201],[21.9041,42.3221],[21.853,42.3084],[21.8146,42.3031],[21.7393,42.2677],[21.6183,42.2421],[21.5625,42.2475],[21.5416,42.2808],[21.5189,42.3284],[21.53,42.35],[21.6099,42.3875],[21.619,42.4232],[21.7307,42.5955],[21.7521,42.6515],[21.7529,42.6698],[21.7238,42.682],[21.6625,42.6815],[21.3906,42.7514],[21.403,42.8315],[21.3231,42.8747],[21.2371,42.9132],[21.2227,42.9562],[21.1271,43.043],[21.057,43.0917],[20.9677,43.116],[20.8907,43.1517],[20.8444,43.1734],[20.8238,43.214],[20.8238,43.2379],[20.8006,43.2611],[20.7634,43.2586],[20.7006,43.2264],[20.6231,43.1986],[20.6097,43.1784],[20.6376,43.1304],[20.6576,43.0999],[20.6485,43.0709],[20.624,43.0342],[20.4751,42.953],[20.4584,42.9246],[20.4868,42.8791],[20.4688,42.8579],[20.3443,42.8279],[20.3477,42.8528],[20.3399,42.8929],[20.2685,42.9354],[20.1679,42.9685],[19.944,43.0816],[19.858,43.0965],[19.7812,43.1098],[19.671,43.164],[19.6145,43.1734],[19.5516,43.2123],[19.4146,43.3428],[19.2982,43.414],[19.2188,43.45],[19.1965,43.485],[19.1916,43.521],[19.1943,43.5333],[19.2545,43.5844],[19.3008,43.5918],[19.3604,43.5935],[19.3996,43.5676],[19.4513,43.5621],[19.48,43.5952],[19.4951,43.6429],[19.4882,43.7036],[19.3641,43.8448],[19.2572,43.9433],[19.245,43.965],[19.2681,43.9834],[19.3053,43.9934],[19.3452,43.9851],[19.4494,43.978],[19.5495,43.9871],[19.5837,44.0111],[19.5838,44.0435],[19.5472,44.0735],[19.4302,44.1545],[19.3389,44.2258],[19.2315,44.2806],[19.1519,44.3025],[19.1283,44.3303],[19.1185,44.36],[19.1273,44.4146],[19.1324,44.4838],[19.1514,44.5273],[19.2231,44.6096],[19.2919,44.6968],[19.3345,44.7807],[19.3568,44.8585],[19.3486,44.8809],[19.3127,44.8975],[19.2368,44.9143],[19.1315,44.8996],[19.0421,44.8713],[19.0071,44.8692],[18.9955,44.904],[19.0096,44.9194],[19.0376,44.9175],[19.0605,44.911],[19.0853,44.9268],[19.1,44.9738],[19.0629,45.1372],[19.1297,45.1517],[19.1308,45.1755],[19.1369,45.1962],[19.206,45.1678],[19.303,45.1673],[19.3881,45.173],[19.401,45.1891],[19.4,45.2125],[19.3823,45.2306],[19.3522,45.2454],[19.3303,45.2681],[19.2729,45.278],[19.0931,45.3369],[19.0047,45.3995],[19.0076,45.4658],[19.0333,45.5022],[19.0643,45.515],[19.0551,45.5272],[18.9537,45.558],[18.9179,45.6008],[18.9473,45.6558],[18.8945,45.7671],[18.8391,45.8357],[18.8936,45.8655],[18.9011,45.9076],[18.9054,45.9317],[18.9278,45.9314],[19.0157,45.9597],[19.0477,45.9827],[19.0662,46.0095],[19.0873,46.0162],[19.1463,45.987],[19.2084,45.9844],[19.2781,46.0029],[19.3303,46.0285],[19.3929,46.0498],[19.4213,46.0645],[19.4575,46.0874],[19.5308,46.1552],[19.6135,46.1692],[19.7245,46.1519],[19.8444,46.1459],[19.9341,46.1615],[20.1614,46.1419],[20.2102,46.126],[20.2418,46.1086],[20.3014,46.0507],[20.3586,45.9755],[20.438,45.9408],[20.5326,45.8995],[20.5812,45.8695],[20.6527,45.7794],[20.7093,45.7353],[20.7278,45.7374],[20.7469,45.749],[20.7602,45.7581],[20.775,45.7498],[20.7758,45.7225],[20.7793,45.662],[20.7658,45.5975],[20.786,45.5365],[20.7865,45.5175],[20.7725,45.5001],[20.7742,45.4844],[20.794,45.4679],[20.8708,45.4275],[20.9418,45.3653],[21.0238,45.3215],[21.0999,45.2936],[21.1479,45.2917],[21.2265,45.2413],[21.3817,45.2051],[21.4314,45.1925],[21.4654,45.1719],[21.4902,45.1479],[21.4918,45.1223],[21.4679,45.1099],[21.4345,45.0751],[21.4207,45.033],[21.3959,45.0222],[21.3711,45.0214],[21.3529,45.009],[21.357,44.9908],[21.3777,44.9734],[21.41,44.9577],[21.472,44.942],[21.5332,44.9188],[21.5323,44.9007],[21.5199,44.8808],[21.4422,44.8734],[21.3844,44.8701],[21.3579,44.8618],[21.3601,44.8267]]],[[[20.3443,42.8279],[20.4688,42.8579],[20.4868,42.8791],[20.4584,42.9246],[20.4751,42.953],[20.624,43.0342],[20.6485,43.0709],[20.6576,43.0999],[20.6376,43.1304],[20.6097,43.1784],[20.6231,43.1986],[20.7006,43.2264],[20.7634,43.2586],[20.8006,43.2611],[20.8238,43.2379],[20.8238,43.214],[20.8444,43.1734],[20.8907,43.1517],[20.9677,43.116],[21.057,43.0917],[21.1271,43.043],[21.2227,42.9562],[21.2371,42.9132],[21.3231,42.8747],[21.403,42.8315],[21.3906,42.7514],[21.6625,42.6815],[21.7238,42.682],[21.7529,42.6698],[21.7521,42.6515],[21.7307,42.5955],[21.619,42.4232],[21.6099,42.3875],[21.53,42.35],[21.5189,42.3284],[21.5416,42.2808],[21.5625,42.2475],[21.5608,42.2477],[21.3896,42.2198],[21.3317,42.1872],[21.2976,42.1301],[21.2866,42.1004],[21.2563,42.0995],[21.2061,42.129],[21.1425,42.175],[21.0598,42.1713],[20.7781,42.071],[20.7504,42.0184],[20.7441,41.9043],[20.725,41.8735],[20.6949,41.8538],[20.5785,41.8662],[20.5662,41.8737],[20.5814,41.9174],[20.5754,42.0131],[20.5229,42.1715],[20.4854,42.2234],[20.4083,42.275],[20.3482,42.3088],[20.2405,42.339],[20.1857,42.4259],[20.1035,42.5247],[20.064,42.5473],[20.0703,42.5571],[20.0893,42.6315],[20.0657,42.6858],[20.0295,42.732],[20.0543,42.7601],[20.13,42.7598],[20.1926,42.7546],[20.2151,42.7988],[20.3443,42.8279]]]]}}